{
 "type": "FeatureCollection",
 "crs": {
  "type": "name",
  "properties": {
   "name": "urn:ogc:def:crs:EPSG::27700"
  }
 },
 "features": [
  {
   "type": "Feature",
   "properties": {
    "name": "broadleaf_restock",
    "source": "data/geo/broadleaf_restock.kml",
    "note": "WGS84 KML polygon reprojected to EPSG:27700 once and committed so the pipeline needs no CRS dependency (same pattern as forest_boundary.geojson). Produced by tools/reproject_kml_to_osgb_geojson.py."
   },
   "geometry": {
    "type": "Polygon",
    "coordinates": [
     [
      [
       241297.6995446111,
       364491.0637950352
      ],
      [
       241316.04225173872,
       364469.4854714948
      ],
      [
       241347.9130930835,
       364364.87369346933
      ],
      [
       241427.67298923977,
       364295.0224251482
      ],
      [
       241424.39024352247,
       364258.72287586285
      ],
      [
       241411.08696347085,
       364209.7938519703
      ],
      [
       241406.1005966715,
       364157.5317997838
      ],
      [
       241606.52766941214,
       364051.02227539
      ],
      [
       241716.6710718956,
       364207.4948257814
      ],
      [
       241692.42234085468,
       364217.9360187747
      ],
      [
       241654.444381868,
       364244.55305717856
      ],
      [
       241628.56099405827,
       364259.2245460272
      ],
      [
       241538.70513002799,
       364315.17245140346
      ],
      [
       241465.05350378,
       364359.8755621161
      ],
      [
       241326.8041665128,
       364543.03966488084
      ],
      [
       241297.6995446111,
       364491.0637950352
      ]
     ]
    ]
   }
  }
 ]
}
