<?xml version="1.0" encoding="UTF-8"?>
<kml xmlns="http://www.opengis.net/kml/2.2" xmlns:gx="http://www.google.com/kml/ext/2.2" xmlns:kml="http://www.opengis.net/kml/2.2" xmlns:atom="http://www.w3.org/2005/Atom">
<Document>
	<name>ceh36 scrape.kml</name>
	<StyleMap id="m_ylw-pushpin">
		<Pair>
			<key>normal</key>
			<styleUrl>#s_ylw-pushpin</styleUrl>
		</Pair>
		<Pair>
			<key>highlight</key>
			<styleUrl>#s_ylw-pushpin_hl</styleUrl>
		</Pair>
	</StyleMap>
	<Style id="s_ylw-pushpin">
		<IconStyle>
			<scale>1.1</scale>
			<Icon>
				<href>http://maps.google.com/mapfiles/kml/pushpin/ylw-pushpin.png</href>
			</Icon>
			<hotSpot x="20" y="2" xunits="pixels" yunits="pixels"/>
		</IconStyle>
	</Style>
	<Style id="s_ylw-pushpin_hl">
		<IconStyle>
			<scale>1.3</scale>
			<Icon>
				<href>http://maps.google.com/mapfiles/kml/pushpin/ylw-pushpin.png</href>
			</Icon>
			<hotSpot x="20" y="2" xunits="pixels" yunits="pixels"/>
		</IconStyle>
	</Style>
	<Placemark>
		<name>ceh36 scrape</name>
		<snippet></snippet>
		<description>April 2015</description>
		<styleUrl>#m_ylw-pushpin</styleUrl>
		<MultiGeometry>
			<LineString>
				<tessellate>1</tessellate>
				<coordinates>
					-4.377625616279239,53.14224944049689,0 -4.377594003173106,53.14224984392683,0 -4.377564297710127,53.14226570182397,0 -4.37754243765519,53.14228150189117,0 -4.377521141816368,53.14230253156828,0 -4.377499770943127,53.14232363507495,0 -4.377477717554092,53.14233958979208,0 -4.377455604776274,53.14235558777456,0 -4.377433432186359,53.1423716291475,0 -4.377411781431151,53.14239297769807,0 -4.377389480202317,53.14240911960768,0 -4.377367683434576,53.14243060201487,0 -4.377344642176965,53.14244139872999,0 -4.377330726203871,53.14246279454726,0 -4.377316762017493,53.14248426346957,0 -4.377302749750287,53.14250580682845,0 -4.377288688924853,53.14252742463815,0 -4.377274046980366,53.14254371573386,0 -4.377251750163733,53.14256552282473,0 -4.377245690196655,53.14258729049693,0 -4.377231438451242,53.14260919170065,0 -4.377217136552566,53.14263116925397,0 -4.37720278448568,53.14265322377492,0 -4.377180166489935,53.14267541516303,0 -4.377173929685942,53.14269756460373,0 -4.3771594262241,53.14271985156411,0 -4.377136611697102,53.14274227907533,0 -4.377113243874915,53.14275919808119,0 -4.377090275749244,53.14278176544819,0 -4.377067225368229,53.14280441361536,0 -4.377043648578329,53.14282150011092,0 -4.377020007863553,53.14283863265936,0 -4.376996727430292,53.14286148471223,0 -4.376981300242205,53.14287866191927,0 -4.376957877141367,53.14290165795659,0 -4.376933970050489,53.14291900846356,0 -4.376918758625959,53.14294198554093,0 -4.376894693212697,53.14295931236113,0 -4.376870927504156,53.14298242071701,0 -4.376855155700183,53.14299978896348,0 -4.37683089868084,53.14301726986078,0 -4.37681537335007,53.14304051593882,0 -4.376799793590157,53.14306384401458,0 -4.376775669087212,53.14308732251444,0 -4.376751458553613,53.143110885149,0 -4.376735373309916,53.14312859461592,0 -4.376702186967682,53.14314649053734,0 -4.376677451654315,53.14316437001899,0 -4.376635833391809,53.14318851777368,0 -4.376610941652349,53.14320660831999,0 -4.376585981056669,53.14322474901817,0 -4.376561186552919,53.14324890818217,0 -4.376544682595807,53.14326705894021,0 -4.376545608912121,53.1432911244491,0 -4.376520407009666,53.14330957521226,0 -4.376495133896484,53.14332807855948,0 -4.376469789042039,53.14334663408205,0 -4.376435699326179,53.1433653537133,0 -4.376401510706863,53.14338412738049,0 -4.376367223236021,53.14340295561797,0 -4.376341549757598,53.14342172499657,0 -4.376315808613851,53.14344063081005,0 -4.376289994452822,53.14345961957597,0 -4.376255353539195,53.14347881713654,0 -4.376229375013144,53.14349791722875,0 -4.376203320672399,53.14351707344414,0 -4.376177260242366,53.14354254582032,0 -4.37615991402869,53.14356795848891,0 -4.376133620390653,53.14358731831794,0 -4.376116133286248,53.14361290117393,0 -4.37609854481391,53.14363215733298,0 -4.376072033377004,53.14365161745548,0 -4.376036557882692,53.14367129573849,0 -4.376009877385591,53.14369087055727,0 -4.375983100756536,53.14371689487824,0 -4.375947386168329,53.14372395034905,0 -4.375929407609748,53.14374351504557,0 -4.375911377717019,53.14376313589769,0 -4.375884267061238,53.14378944076115,0 -4.375848221350692,53.14380305070063,0 -4.375820999418264,53.14382301283226,0 -4.375793801673548,53.14383652348047,0 -4.375767023850379,53.14382387106014,0 -4.375767621484781,53.14379116498623,0 -4.375777282771941,53.14375203517422,0 -4.375786670508449,53.14372604267408,0 -4.375796128102428,53.14369371019774,0 -4.375796652731977,53.143661610392,0 -4.375805942981597,53.1436359561454,0 -4.375824055199692,53.14361031559383,0 -4.375842098251445,53.1435847727581,0 -4.375860073833458,53.14355932581076,0 -4.375869176768663,53.14353405295278,0 -4.375878246954615,53.14350887312574,0 -4.375896054677092,53.14348370960217,0 -4.375905041073858,53.14345871589815,0 -4.37592273361664,53.1434337378925,0 -4.375940360555179,53.14340885221188,0 -4.375949216062326,53.14338413471047,0 -4.375958009884606,53.14336563703969,0 -4.375966829854341,53.14333496995044,0 -4.375975588647822,53.14331052212504,0 -4.375984315496385,53.1432861636364,0 -4.37599301089065,53.14326189199343,0 -4.376001674471323,53.1432377099999,0 -4.376001720943829,53.14320769503833,0 -4.376027484255243,53.143183566386,0 -4.376036034797536,53.14315966799831,0 -4.376036010309835,53.14313592467666,0 -4.376044515008031,53.14311219714214,0 -4.376061502093568,53.14308848560406,0 -4.376078427707149,53.14306485959929,0 -4.376095292387042,53.14304131906369,0 -4.376112096287374,53.14301786268658,0 -4.376128839535271,53.14299449144991,0 -4.376145523088011,53.14297120357239,0 -4.376170696471609,53.14295945880523,0 -4.376187259664176,53.14293629686655,0 -4.376203840427099,53.14291890896662,0 -4.376228672260138,53.14289573988401,0 -4.376261993834419,53.14288402554554,0 -4.376295252051118,53.14287233293021,0 -4.376319956851765,53.14285502836519,0 -4.376353088508642,53.14284345774235,0 -4.376386485239903,53.14284332781681,0 -4.376419879658023,53.14284319780234,0 -4.376453070939197,53.14283728645334,0 -4.376486429975181,53.14283703297006,0 -4.376528122700113,53.14283671602739,0 -4.376561471931919,53.14283646231389,0 -4.376594816567532,53.14283620910955,0 -4.376628156968002,53.14283595554232,0 -4.376661492891493,53.14283570225017,0 -4.376685625724136,53.14281856858773,0 -4.376709991657217,53.14280710919983,0 -4.376742306144543,53.14278999072108,0 -4.376749346454388,53.14276750682934,0 -4.376772906887992,53.14274497908631,0 -4.376788126420727,53.14272259190359,0 -4.376820120649093,53.14270570168188,0 -4.37684379397936,53.14268891718987,0 -4.3768588217719,53.14266672765023,0 -4.376857029306733,53.1426392477564,0 -4.376855600545334,53.14261734798782,0 -4.376853821494797,53.1425900791336,0 -4.376869077157441,53.1425736578263,0 -4.376892441118946,53.14255722202397,0 -4.376915363324879,53.14253543242506,0 -4.376970679071603,53.14251349279011,0 -4.37699379512989,53.14249721654873,0 -4.377016850086923,53.14248098315645,0 -4.377056450289121,53.14247001786523,0 -4.377038555790068,53.14244881027916,0 -4.377013076459133,53.14243303271816,0 -4.376995304840996,53.14241194672088,0 -4.376993669495817,53.14239082251764,0 -4.377000064638302,53.14236971525542,0 -4.3770144490298,53.14234862668533,0 -4.377028784499561,53.14232760975695,0 -4.377051054280971,53.14230661209768,0 -4.377073685590437,53.14229087196859,0 -4.377104670205441,53.1422802977844,0 -4.377143556149685,53.14226969091216,0 -4.377174901766897,53.14226431697993,0 -4.377205724871746,53.14225379105282,0 -4.377236997022504,53.14224843240957,0 -4.377268757601841,53.14224822750032,0 -4.377292575034967,53.14224807391426,0 -4.377324327851443,53.14224786931568,0 -4.377379845771864,53.14224741917841,0 -4.377411499927931,53.14224701661167,0 -4.37744196931984,53.14223633415522,0 -4.377473581018908,53.14223593359977,0 -4.37750579808883,53.14224066807732,0 -4.377538661950812,53.14225054939253,0 -4.377572213155276,53.14226560086615,0 -4.377580128611587,53.14226549904339,0 
				</coordinates>
			</LineString>
			<LineString>
				<tessellate>1</tessellate>
				<coordinates>
					-4.375722883274324,53.14299770020708,0 -4.375689464972659,53.14298057411131,0 -4.375664574400295,53.14296342490416,0 -4.375631313305277,53.14294638531474,0 -4.375606559281985,53.14292932172906,0 -4.375581882242154,53.14291217340545,0 -4.375557269802518,53.14289506817646,0 -4.37553272115962,53.14287800687467,0 -4.375508236263159,53.14286098988046,0 -4.375483814129414,53.14284401702638,0 -4.375451094756043,53.14282715156893,0 -4.375427076022051,53.14280458236536,0 -4.375402863566551,53.14278775526975,0 -4.37537871346859,53.14277097035588,0 -4.375346308971134,53.14275429101697,0 -4.37532198182141,53.14274321603668,0 -4.375298027638792,53.14272649355928,0 -4.375274491898645,53.14270410154733,0 -4.375258959590126,53.14268735871931,0 -4.375244155017748,53.14265955153083,0 -4.3752122514621,53.14264293055609,0 -4.375187553663754,53.14264293414021,0 -4.375161718909169,53.14265956497302,0 -4.375135424866795,53.1426818059348,0 -4.375109037625383,53.14270412645192,0 -4.375082973010057,53.14272091945632,0 -4.375057694849882,53.14272652889714,0 -4.375021885528124,53.14276027656692,0 -4.374995131574002,53.14278287493603,0 -4.374977087462967,53.14279987673174,0 -4.374950169791845,53.14282261882092,0 -4.374923155492417,53.14284544031014,0 -4.374896043893681,53.14286834255719,0 -4.374877230877297,53.14289132700411,0 -4.374850467210633,53.14290862114131,0 -4.374823630207044,53.14292596230645,0 -4.374788293526342,53.1429433515969,0 -4.374752859397911,53.14296078750935,0 -4.374742107625958,53.14298410451417,0 -4.374728972978479,53.14303099041935,0 -4.374716931687165,53.14306637924607,0 -4.374713955019932,53.14309601629948,0 -4.374711563669274,53.14311982338921,0 -4.374708561886492,53.14314970561525,0 -4.374706151044697,53.14317370940418,0 -4.374712352501934,53.14319772135865,0 -4.374709968517344,53.14322181184864,0 -4.374706975641018,53.14325204907082,0 -4.374703955842516,53.14328246651376,0 -4.374701508213736,53.14330697016286,0 -4.374699051645577,53.14333156532486,0 -4.374696585593285,53.14335625199579,0 -4.374693490783457,53.14338723978661,0 -4.374690380855901,53.14341837261636,0 -4.374686629892851,53.14345592518751,0 -4.374684117689696,53.14348107787794,0 -4.374681595841415,53.14350632481352,0 -4.374678430048507,53.14353801807881,0 -4.374675264033358,53.14356981200954,0 -4.374672107585615,53.14360167596168,0 -4.374669555457276,53.14362732872213,0 -4.374666328108407,53.14365961018688,0 -4.37466373488663,53.14368554661579,0 -4.374660479683713,53.14371810687054,0 -4.374657864258596,53.1437442674989,0 -4.374654580743047,53.14377711000599,0 -4.374699573727385,53.14377668177997,0 -4.374736181347101,53.14376975955187,0 -4.374781734498052,53.14376275997454,0 -4.374818255337525,53.14375585288862,0 -4.374855296500941,53.14374240150803,0 -4.374883846230341,53.14372252880091,0 -4.374912841866734,53.14369620756722,0 -4.374932803120084,53.14367007286506,0 -4.374935396714243,53.14363775334176,0 -4.374954720484157,53.14361827132738,0 -4.37496558824427,53.14359264022632,0 -4.374968053537689,53.14356084171293,0 -4.374970017637642,53.14353551015932,0 -4.374980780473924,53.14351023206055,0 -4.375000292793864,53.14348500843478,0 -4.375028504564433,53.14345983961951,0 -4.375056610617908,53.1434347651273,0 -4.375084178470838,53.14341599230967,0 -4.375103361811295,53.14339112047022,0 -4.375130773973885,53.14337246996975,0 -4.37514940727071,53.143353909481,0 -4.375176678314983,53.1433353632238,0 -4.375204248010089,53.14331075315918,0 -4.375231715274882,53.14328623400144,0 -4.375259075316654,53.14326184949557,0 -4.375294620369235,53.14324359834335,0 -4.375330083258591,53.14322529401035,0 -4.375365454317143,53.14320699958919,0 -4.375400166910033,53.14320072320827,0 -4.375435107899994,53.14318847264334,0 -4.375469981664171,53.14317624582383,0 -4.375504556658159,53.14316999947885,0 -4.37553095887682,53.14315193265592,0 -4.375565844357194,53.14313384625735,0 -4.375600255895264,53.1431276422896,0 -4.375626438235879,53.14310969397216,0 -4.375644189227556,53.1430859779209,0 -4.375670383606192,53.14306227819123,0 -4.37568799099317,53.14303873339878,0 -4.375688729622478,53.14300958966677,0 
				</coordinates>
			</LineString>
		</MultiGeometry>
		<atom:link rel="app" href="https://www.google.com/earth/about/versions/#earth-pro" title="Google Earth Pro 7.3.7.1155"></atom:link>
	</Placemark>
</Document>
</kml>
