<?xml version="1.0" encoding="UTF-8"?>
<kml xmlns="http://www.opengis.net/kml/2.2" xmlns:gx="http://www.google.com/kml/ext/2.2" xmlns:kml="http://www.opengis.net/kml/2.2" xmlns:atom="http://www.w3.org/2005/Atom">
<Document>
	<name>CEH41 scrape.kml</name>
	<StyleMap id="m_ylw-pushpin">
		<Pair>
			<key>normal</key>
			<styleUrl>#s_ylw-pushpin</styleUrl>
		</Pair>
		<Pair>
			<key>highlight</key>
			<styleUrl>#s_ylw-pushpin_hl</styleUrl>
		</Pair>
	</StyleMap>
	<Style id="s_ylw-pushpin">
		<IconStyle>
			<scale>1.1</scale>
			<Icon>
				<href>http://maps.google.com/mapfiles/kml/pushpin/ylw-pushpin.png</href>
			</Icon>
			<hotSpot x="20" y="2" xunits="pixels" yunits="pixels"/>
		</IconStyle>
	</Style>
	<Style id="s_ylw-pushpin_hl">
		<IconStyle>
			<scale>1.3</scale>
			<Icon>
				<href>http://maps.google.com/mapfiles/kml/pushpin/ylw-pushpin.png</href>
			</Icon>
			<hotSpot x="20" y="2" xunits="pixels" yunits="pixels"/>
		</IconStyle>
	</Style>
	<Placemark>
		<name>CEH41 scrape</name>
		<description>Feb 2013</description>
		<styleUrl>#m_ylw-pushpin</styleUrl>
		<Polygon>
			<tessellate>1</tessellate>
			<outerBoundaryIs>
				<LinearRing>
					<coordinates>
						-4.360153230545868,53.14418368004991,0 -4.360427212848613,53.14387061662916,0 -4.360568068993132,53.14376882377049,0 -4.360723542920983,53.14370632905164,0 -4.360712228663862,53.14359589500653,0 -4.36046023375796,53.14364219458815,0 -4.360350155754747,53.14368744049724,0 -4.36017439373317,53.14377216569705,0 -4.359992810961431,53.14382238420674,0 -4.359853876730112,53.1438895660128,0 -4.359783556437433,53.14377214363088,0 -4.359692132461344,53.14369983553772,0 -4.35954193663231,53.14369427750651,0 -4.35944766956154,53.14366093084436,0 -4.359428244553218,53.14377212360592,0 -4.359482679944673,53.14385591801435,0 -4.360153230545868,53.14418368004991,0 
					</coordinates>
				</LinearRing>
			</outerBoundaryIs>
		</Polygon>
		<atom:link rel="app" href="https://www.google.com/earth/about/versions/#earth-pro" title="Google Earth Pro 7.3.7.1155"></atom:link>
	</Placemark>
</Document>
</kml>
