<?xml version="1.0" encoding="UTF-8"?>
<kml xmlns="http://www.opengis.net/kml/2.2" xmlns:gx="http://www.google.com/kml/ext/2.2" xmlns:kml="http://www.opengis.net/kml/2.2" xmlns:atom="http://www.w3.org/2005/Atom">
<Document>
	<name>CEH40 scrape.kml</name>
	<StyleMap id="m_ylw-pushpin">
		<Pair>
			<key>normal</key>
			<styleUrl>#s_ylw-pushpin</styleUrl>
		</Pair>
		<Pair>
			<key>highlight</key>
			<styleUrl>#s_ylw-pushpin_hl</styleUrl>
		</Pair>
	</StyleMap>
	<Style id="s_ylw-pushpin">
		<IconStyle>
			<scale>1.1</scale>
			<Icon>
				<href>http://maps.google.com/mapfiles/kml/pushpin/ylw-pushpin.png</href>
			</Icon>
			<hotSpot x="20" y="2" xunits="pixels" yunits="pixels"/>
		</IconStyle>
	</Style>
	<Style id="s_ylw-pushpin_hl">
		<IconStyle>
			<scale>1.3</scale>
			<Icon>
				<href>http://maps.google.com/mapfiles/kml/pushpin/ylw-pushpin.png</href>
			</Icon>
			<hotSpot x="20" y="2" xunits="pixels" yunits="pixels"/>
		</IconStyle>
	</Style>
	<Placemark>
		<name>CEH40 scrape</name>
		<description>Feb 2013</description>
		<styleUrl>#m_ylw-pushpin</styleUrl>
		<gx:balloonVisibility>1</gx:balloonVisibility>
		<Polygon>
			<tessellate>1</tessellate>
			<outerBoundaryIs>
				<LinearRing>
					<coordinates>
						-4.363119718071871,53.14433861102935,0 -4.362821773908041,53.14418823378996,0 -4.362445646144146,53.14409482430305,0 -4.362355822907747,53.14412286530469,0 -4.362256114217543,53.14420241899654,0 -4.362253571781811,53.14436905486566,0 -4.362206940403782,53.14446688604176,0 -4.362231476515754,53.1446356016225,0 -4.362193641874215,53.14472904198441,0 -4.36228352862185,53.14481197310309,0 -4.362383252111885,53.14487172861441,0 -4.362575627735897,53.144808806958,0 -4.362703730967588,53.14472158190725,0 -4.362876578618161,53.14454725988472,0 -4.363012522361723,53.14450715027469,0 -4.363119718071871,53.14433861102935,0 
					</coordinates>
				</LinearRing>
			</outerBoundaryIs>
		</Polygon>
		<atom:link rel="app" href="https://www.google.com/earth/about/versions/#earth-pro" title="Google Earth Pro 7.3.7.1155"></atom:link>
	</Placemark>
</Document>
</kml>
