<?xml version="1.0" encoding="UTF-8"?>
<kml xmlns="http://www.opengis.net/kml/2.2" xmlns:gx="http://www.google.com/kml/ext/2.2" xmlns:kml="http://www.opengis.net/kml/2.2" xmlns:atom="http://www.w3.org/2005/Atom">
<Document>
	<name>clay.kml</name>
	<StyleMap id="m_ylw-pushpin">
		<Pair>
			<key>normal</key>
			<styleUrl>#s_ylw-pushpin</styleUrl>
		</Pair>
		<Pair>
			<key>highlight</key>
			<styleUrl>#s_ylw-pushpin_hl</styleUrl>
		</Pair>
	</StyleMap>
	<Style id="s_ylw-pushpin">
		<IconStyle>
			<scale>1.1</scale>
			<Icon>
				<href>http://maps.google.com/mapfiles/kml/pushpin/ylw-pushpin.png</href>
			</Icon>
			<hotSpot x="20" y="2" xunits="pixels" yunits="pixels"/>
		</IconStyle>
	</Style>
	<Style id="s_ylw-pushpin_hl">
		<IconStyle>
			<scale>1.3</scale>
			<Icon>
				<href>http://maps.google.com/mapfiles/kml/pushpin/ylw-pushpin.png</href>
			</Icon>
			<hotSpot x="20" y="2" xunits="pixels" yunits="pixels"/>
		</IconStyle>
	</Style>
	<Placemark>
		<name>clay</name>
		<styleUrl>#m_ylw-pushpin</styleUrl>
		<LineString>
			<tessellate>1</tessellate>
			<coordinates>
				-4.338490489048729,53.15124502012171,0 -4.339524366966986,53.14937352945207,0 -4.339694236749196,53.14838556595149,0 -4.338479293841838,53.14802204023654,0 -4.335618278330825,53.14755998740767,0 -4.334229784011185,53.14714658489915,0 -4.334570495649767,53.14532649967119,0 -4.335862555040895,53.14282915085889,0 -4.338888369773476,53.14048587071636,0 -4.341050512610676,53.13913144969633,0 -4.34407827377867,53.1373596491036,0 -4.34467840094657,53.13548705341056,0 -4.342593293651635,53.13403381255664,0 -4.34163602197335,53.13289110138945,0 -4.3390329330449,53.13195838326196,0 -4.337905329370866,53.13170048339095,0 -4.336515513427295,53.130715622986,0 -4.334955181783334,53.13055939212792,0 -4.332094057218226,53.13014677667847,0 -4.331140978977937,53.13019986691602,0 
			</coordinates>
		</LineString>
		<atom:link rel="app" href="https://www.google.com/earth/about/versions/#earth-pro" title="Google Earth Pro 7.3.7.1155"></atom:link>
	</Placemark>
</Document>
</kml>
