{
 "type": "FeatureCollection",
 "crs": {
  "type": "name",
  "properties": {
   "name": "urn:ogc:def:crs:EPSG::27700"
  }
 },
 "features": [
  {
   "type": "Feature",
   "properties": {
    "name": "clearfell",
    "source": "data/geo/clearfell.kml",
    "note": "WGS84 KML polygon reprojected to EPSG:27700 once and committed so the pipeline needs no CRS dependency (same pattern as forest_boundary.geojson). Produced by tools/reproject_kml_to_osgb_geojson.py."
   },
   "geometry": {
    "type": "Polygon",
    "coordinates": [
     [
      [
       241334.00888197098,
       363662.8936589775
      ],
      [
       241316.52024482808,
       363677.63565907197
      ],
      [
       241313.1265471284,
       363703.9178641742
      ],
      [
       241301.586705622,
       363716.21672064706
      ],
      [
       241284.17860064475,
       363731.6889006456
      ],
      [
       241263.8293310275,
       363748.5351739909
      ],
      [
       241250.60084876223,
       363755.3285852383
      ],
      [
       241238.04460967018,
       363755.4651534506
      ],
      [
       241225.00989090392,
       363759.706768621
      ],
      [
       241217.33956781524,
       363764.29533812794
      ],
      [
       241207.67529306596,
       363761.14674137963
      ],
      [
       241205.2997436999,
       363764.31237147667
      ],
      [
       241163.27584425898,
       363784.9941648313
      ],
      [
       241127.99078028687,
       363718.4593176913
      ],
      [
       241121.13696406852,
       363700.26489924017
      ],
      [
       241071.81692947404,
       363619.9114635029
      ],
      [
       241212.9269270049,
       363503.1124752863
      ],
      [
       241241.57011888654,
       363538.16044837
      ],
      [
       241258.45398066373,
       363552.41606399295
      ],
      [
       241258.85291313,
       363552.66276703577
      ],
      [
       241259.6379067096,
       363552.7667655392
      ],
      [
       241278.5393591957,
       363576.83147355245
      ],
      [
       241334.00888197098,
       363662.8936589775
      ]
     ]
    ]
   }
  }
 ]
}
