<?xml version="1.0" encoding="UTF-8"?>
<kml xmlns="http://www.opengis.net/kml/2.2" xmlns:gx="http://www.google.com/kml/ext/2.2" xmlns:kml="http://www.opengis.net/kml/2.2" xmlns:atom="http://www.w3.org/2005/Atom">
<Document>
	<name>coast 112006B.kml</name>
	<StyleMap id="m_ylw-pushpin">
		<Pair>
			<key>normal</key>
			<styleUrl>#s_ylw-pushpin</styleUrl>
		</Pair>
		<Pair>
			<key>highlight</key>
			<styleUrl>#s_ylw-pushpin_hl</styleUrl>
		</Pair>
	</StyleMap>
	<Style id="s_ylw-pushpin">
		<IconStyle>
			<scale>1.1</scale>
			<Icon>
				<href>http://maps.google.com/mapfiles/kml/pushpin/ylw-pushpin.png</href>
			</Icon>
			<hotSpot x="20" y="2" xunits="pixels" yunits="pixels"/>
		</IconStyle>
	</Style>
	<Style id="s_ylw-pushpin_hl">
		<IconStyle>
			<scale>1.3</scale>
			<Icon>
				<href>http://maps.google.com/mapfiles/kml/pushpin/ylw-pushpin.png</href>
			</Icon>
			<hotSpot x="20" y="2" xunits="pixels" yunits="pixels"/>
		</IconStyle>
	</Style>
	<Placemark>
		<name>coast 1/1/2006B</name>
		<description>Dune edge</description>
		<styleUrl>#m_ylw-pushpin</styleUrl>
		<LineString>
			<tessellate>1</tessellate>
			<coordinates>
				-4.401666535030174,53.14559235937556,0 -4.400623612602985,53.1456239776245,0 -4.399912241732775,53.14559682658306,0 -4.398835344526137,53.14555090850985,0 -4.398033476698808,53.14548123670562,0 -4.397029204685858,53.14535393619221,0 -4.395784568364801,53.14518292107746,0 -4.394852723464719,53.14503191250759,0 -4.393690666800413,53.14475531040472,0 -4.392531235397837,53.14446974415912,0 -4.391100590713878,53.14413774492606,0 -4.390498893120338,53.14400867119492,0 -4.389585095151485,53.14370988397554,0 -4.388997518899261,53.14352901724568,0 -4.387906825387674,53.14326453814286,0 -4.387132426740527,53.14314559058203,0 -4.386226227708573,53.14306420769012,0 -4.385512729254504,53.14299976405068,0 -4.384361526366827,53.14277373556183,0 -4.383369751071188,53.14253758827986,0 -4.382153624349022,53.14209448677234,0 -4.381158984917375,53.14180598665928,0 -4.380158005659434,53.14148659225237,0 -4.378752938584885,53.14095433873756,0 -4.377760756374833,53.14047619126736,0 -4.375303747253274,53.13912518980343,0 -4.37409211509435,53.1384022588107,0 -4.37256085522186,53.13756276141653,0 -4.371123446378168,53.13681341916516,0 -4.370042294900184,53.13633226553962,0 -4.368583498888156,53.13562784316232,0 -4.367294058852051,53.13508803757779,0 -4.365460309860597,53.13422451500919,0 -4.364370265702131,53.13381632089759,0 -4.363384385073116,53.13346849400381,0 -4.362753843598723,53.13329604298643,0 -4.362019352987962,53.13303367746104,0 -4.361435454362611,53.13289042365491,0 -4.360399025073299,53.13257399779876,0 -4.359125003455446,53.1320378809375,0 -4.357782514477622,53.13157538418731,0 -4.356189140072204,53.13117846086074,0 -4.355465727615656,53.13106791014132,0 -4.354180213079016,53.13097471719323,0 -4.352667941899943,53.13097156473261,0 -4.351484902830056,53.13089848110716,0 -4.350186816471263,53.1307696205325,0 -4.348595664338221,53.13079143153251,0 -4.346463891543193,53.13072257879111,0 -4.345762896043296,53.13078336095587,0 -4.343362827610351,53.13047735764097,0 -4.34111129338385,53.13011570089117,0 -4.339221578149117,53.12981880710057,0 
			</coordinates>
		</LineString>
		<atom:link rel="app" href="https://www.google.com/earth/about/versions/#earth-pro" title="Google Earth Pro 7.3.7.1155"></atom:link>
	</Placemark>
</Document>
</kml>
