<?xml version="1.0" encoding="UTF-8"?>
<kml xmlns="http://www.opengis.net/kml/2.2" xmlns:gx="http://www.google.com/kml/ext/2.2" xmlns:kml="http://www.opengis.net/kml/2.2" xmlns:atom="http://www.w3.org/2005/Atom">
<Document>
	<name>coast 442021.kml</name>
	<StyleMap id="m_ylw-pushpin">
		<Pair>
			<key>normal</key>
			<styleUrl>#s_ylw-pushpin</styleUrl>
		</Pair>
		<Pair>
			<key>highlight</key>
			<styleUrl>#s_ylw-pushpin_hl</styleUrl>
		</Pair>
	</StyleMap>
	<Style id="s_ylw-pushpin">
		<IconStyle>
			<scale>1.1</scale>
			<Icon>
				<href>http://maps.google.com/mapfiles/kml/pushpin/ylw-pushpin.png</href>
			</Icon>
			<hotSpot x="20" y="2" xunits="pixels" yunits="pixels"/>
		</IconStyle>
	</Style>
	<Style id="s_ylw-pushpin_hl">
		<IconStyle>
			<scale>1.3</scale>
			<Icon>
				<href>http://maps.google.com/mapfiles/kml/pushpin/ylw-pushpin.png</href>
			</Icon>
			<hotSpot x="20" y="2" xunits="pixels" yunits="pixels"/>
		</IconStyle>
	</Style>
	<Placemark>
		<name>coast 4/4/2021</name>
		<description>dune edge</description>
		<styleUrl>#m_ylw-pushpin</styleUrl>
		<gx:balloonVisibility>1</gx:balloonVisibility>
		<LineString>
			<tessellate>1</tessellate>
			<coordinates>
				-4.350832282010221,53.13070341190495,0 -4.352290976401957,53.13086191817987,0 -4.35360307574877,53.13093266645264,0 -4.354737657446242,53.13103793863367,0 -4.355277282757728,53.13110329151773,0 -4.355677099158815,53.13114523917523,0 -4.35605083204943,53.13121176038572,0 -4.356471217602418,53.13129752827913,0 -4.357000076958406,53.13138940536297,0 -4.357761379331558,53.13161113232432,0 -4.358816957445546,53.1320037914674,0 -4.360060122410746,53.13269592989177,0 -4.361275160014266,53.13315003264202,0 -4.363769207624252,53.13396884063747,0 -4.366970728505104,53.13535454732743,0 -4.368586725963143,53.13643948068658,0 -4.370345105344493,53.1372170362804,0 -4.372208684457789,53.13808048595313,0 -4.373696778696901,53.1388117114461,0 -4.375275485826535,53.13958341833718,0 -4.37745264694903,53.14056143148317,0 -4.37944759854394,53.1415050879564,0 -4.381604067178811,53.14215634936256,0 -4.38274002586258,53.14259207953607,0 -4.383734993216696,53.14307898192369,0 -4.384336442781968,53.14324982375905,0 -4.384726098600859,53.14330324724592,0 -4.386070573690768,53.14353141165397,0 -4.387530981742888,53.14374631195954,0 -4.388624601107165,53.14392707214423,0 -4.390080024542625,53.14426477486641,0 -4.392067798713619,53.14464635684601,0 -4.393757965894811,53.14492332717984,0 -4.395090531022504,53.14506729769847,0 -4.396562394178369,53.14521836783296,0 -4.397384038257943,53.14531735343675,0 -4.397966052620478,53.14547554673404,0 -4.399331023271116,53.14556430805331,0 -4.399842452956087,53.14559295487937,0 -4.40088244502534,53.14560451817901,0 -4.401671646336922,53.14552337780599,0 
			</coordinates>
		</LineString>
		<atom:link rel="app" href="https://www.google.com/earth/about/versions/#earth-pro" title="Google Earth Pro 7.3.7.1155"></atom:link>
	</Placemark>
</Document>
</kml>
