{
 "type": "FeatureCollection",
 "crs": {
  "type": "name",
  "properties": {
   "name": "urn:ogc:def:crs:EPSG::27700"
  }
 },
 "features": [
  {
   "type": "Feature",
   "properties": {
    "source": "OpenStreetMap (ODbL), natural=coastline, via Overpass API",
    "description": "Caernarfon Bay west-facing MHW (eroding shoreline) for Newborough Warren. Clipped from coastline_hwm.geojson at the Abermenai southern tip; Menai Strait and Malltraeth estuary excluded. EPSG:27700.",
    "derived_from": "coastline_hwm.geojson",
    "clip": "vertices 0..48 (Abermenai tip, min northing)"
   },
   "geometry": {
    "type": "LineString",
    "coordinates": [
     [
      238430.87785737685,
      365212.5057940794
     ],
     [
      238482.17219499237,
      365024.031987971
     ],
     [
      238537.78223788243,
      364858.3730282625
     ],
     [
      238600.60353147634,
      364721.02089692414
     ],
     [
      238712.29496386767,
      364436.39055555215
     ],
     [
      238943.5217771776,
      363962.9902728639
     ],
     [
      239048.37917180444,
      363704.421486644
     ],
     [
      239105.60913460868,
      363532.24763225333
     ],
     [
      239084.33500320584,
      363506.2291098349
     ],
     [
      239093.96128349236,
      363498.4450707066
     ],
     [
      239085.8597012276,
      363486.079836466
     ],
     [
      239093.53891573718,
      363464.1980766008
     ],
     [
      239072.6413360954,
      363440.4272494825
     ],
     [
      239080.449777244,
      363439.8973113863
     ],
     [
      239099.32922157872,
      363463.58017471153
     ],
     [
      239113.29685481556,
      363460.8611394426
     ],
     [
      239118.41430511605,
      363476.0659041492
     ],
     [
      239151.16521632197,
      363443.0192352756
     ],
     [
      239175.94072636846,
      363443.55569299427
     ],
     [
      239281.85071978616,
      363530.163730821
     ],
     [
      239342.79251849203,
      363558.0683747055
     ],
     [
      239389.831149693,
      363569.49377946934
     ],
     [
      239527.1947236294,
      363580.3712577765
     ],
     [
      239631.68814522697,
      363572.71330746065
     ],
     [
      239987.59690815234,
      363508.83949815127
     ],
     [
      240206.8579299333,
      363426.2401887293
     ],
     [
      240442.21681422772,
      363323.6735481807
     ],
     [
      240553.30997264944,
      363290.5073349443
     ],
     [
      240757.8434437219,
      363190.5210812976
     ],
     [
      240910.05679212164,
      363104.85447184043
     ],
     [
      241284.19175390413,
      362793.7143355147
     ],
     [
      241654.95393848527,
      362448.21254393185
     ],
     [
      241972.13674352062,
      362185.60218643205
     ],
     [
      242077.28595044042,
      362105.60517559136
     ],
     [
      242225.7179105337,
      362010.7889355165
     ],
     [
      242400.34171137706,
      361929.87886950985
     ],
     [
      242557.89718580892,
      361883.6520612502
     ],
     [
      242788.20638834508,
      361847.98894790927
     ],
     [
      242946.55736737276,
      361797.4736025319
     ],
     [
      243011.39085275354,
      361786.338829429
     ],
     [
      243049.88083179668,
      361769.1100345683
     ],
     [
      243574.037595416,
      361648.9027970165
     ],
     [
      243668.02442889864,
      361641.2333449271
     ],
     [
      243770.34246850797,
      361644.2385090074
     ],
     [
      244004.3061102568,
      361544.3392331888
     ],
     [
      244078.6182480449,
      361483.1859063955
     ],
     [
      244175.54553157563,
      361361.47470962687
     ],
     [
      244208.8474534177,
      361339.36970298784
     ],
     [
      244261.77149867345,
      361335.5541415277
     ]
    ]
   }
  }
 ]
}