<?xml version="1.0" encoding="UTF-8"?>
<kml xmlns="http://www.opengis.net/kml/2.2" xmlns:gx="http://www.google.com/kml/ext/2.2" xmlns:kml="http://www.opengis.net/kml/2.2" xmlns:atom="http://www.w3.org/2005/Atom">
<Document>
	<name>coast 3132026.kml</name>
	<StyleMap id="m_ylw-pushpin">
		<Pair>
			<key>normal</key>
			<styleUrl>#s_ylw-pushpin</styleUrl>
		</Pair>
		<Pair>
			<key>highlight</key>
			<styleUrl>#s_ylw-pushpin_hl</styleUrl>
		</Pair>
	</StyleMap>
	<Style id="s_ylw-pushpin">
		<IconStyle>
			<scale>1.1</scale>
			<Icon>
				<href>http://maps.google.com/mapfiles/kml/pushpin/ylw-pushpin.png</href>
			</Icon>
			<hotSpot x="20" y="2" xunits="pixels" yunits="pixels"/>
		</IconStyle>
	</Style>
	<Style id="s_ylw-pushpin_hl">
		<IconStyle>
			<scale>1.3</scale>
			<Icon>
				<href>http://maps.google.com/mapfiles/kml/pushpin/ylw-pushpin.png</href>
			</Icon>
			<hotSpot x="20" y="2" xunits="pixels" yunits="pixels"/>
		</IconStyle>
	</Style>
	<Placemark>
		<name>coast 31/3/2026</name>
		<description>dune edge </description>
		<styleUrl>#m_ylw-pushpin</styleUrl>
		<LineString>
			<tessellate>1</tessellate>
			<coordinates>
				-4.401662224417188,53.14552756438777,0 -4.400611745349376,53.14559706346729,0 -4.399859659831002,53.14563017965893,0 -4.399279990408679,53.14560459778252,0 -4.398420934403458,53.14551202125147,0 -4.397769600996449,53.14545978476101,0 -4.39702923986233,53.14539977006605,0 -4.396547524757884,53.14540063264531,0 -4.395836718978488,53.14541265028621,0 -4.395399738379473,53.14536562246605,0 -4.394511572022343,53.14523823334857,0 -4.393775521099132,53.14512718159446,0 -4.393030126011189,53.14501093407586,0 -4.392478295878139,53.14489782079778,0 -4.391649609008144,53.14475543643734,0 -4.391179384550953,53.14468025989945,0 -4.390882539826942,53.14461066068311,0 -4.390530069163336,53.14456075593534,0 -4.390221342487171,53.14445394053293,0 -4.389902944738745,53.14432223327778,0 -4.389422712041386,53.14419269619336,0 -4.388962089868652,53.14407889099761,0 -4.388532392273337,53.14395745325506,0 -4.388056266020183,53.14389192922695,0 -4.387745223864301,53.14384484245862,0 -4.38723101229049,53.14372726855795,0 -4.386219246025891,53.14358197741519,0 -4.38564706100142,53.14352592972568,0 -4.385432745790482,53.14348733147973,0 -4.384657219920419,53.14334744556035,0 -4.384115177560103,53.14330537370247,0 -4.383341284188247,53.14305886116174,0 -4.382834640984647,53.14285515548654,0 -4.38227018654143,53.1426740601092,0 -4.38166784054412,53.14247840640181,0 -4.381091540608107,53.14220653110775,0 -4.380672742863014,53.14204053636999,0 -4.380227443576111,53.14185046872208,0 -4.379774140325004,53.14164469749849,0 -4.37935017264633,53.14143766654931,0 -4.37879064234296,53.1412541610101,0 -4.377834116117894,53.14084938369569,0 -4.376931277595601,53.14046841264317,0 -4.376503378882308,53.14027760254471,0 -4.37597516119244,53.14003206554282,0 -4.375256916485551,53.13978394119233,0 -4.37468171551036,53.13956948352178,0 -4.374125223890175,53.13932387483519,0 -4.373620101666896,53.13911372898043,0 -4.373321764643681,53.13897836409564,0 -4.372738949536975,53.13873506716862,0 -4.372479883124373,53.13853788883097,0 -4.371970120092347,53.13824329339727,0 -4.371229378631647,53.13780956804766,0 -4.370522873247901,53.13736738949279,0 -4.370267931426347,53.13722160568292,0 -4.369820141234251,53.13696487525755,0 -4.369349682731166,53.13671891293087,0 -4.369076805378812,53.13658058641987,0 -4.368812861798849,53.13642699348698,0 -4.36852098076124,53.13627448943217,0 -4.368105086615278,53.13609577981983,0 -4.367925018848251,53.1359494532012,0 -4.367736011075608,53.13583838727618,0 -4.367199383245476,53.13551165776957,0 -4.366949615279906,53.13534041670012,0 -4.366735651674892,53.13522418872015,0 -4.366319295454122,53.13499406049341,0 -4.365788748347525,53.13472611617853,0 -4.3650464391801,53.13441518504399,0 -4.364246854524784,53.13405309982645,0 -4.363382861829825,53.13381119704605,0 -4.362035251225878,53.13340062428429,0 -4.361427056233699,53.13324554297082,0 -4.360678442549796,53.13295673271867,0 -4.359479782119883,53.13257370376644,0 -4.358896136870433,53.1324506266232,0 -4.358455200040854,53.13232404162467,0 -4.35779802819857,53.13200204328394,0 -4.357128599653103,53.13179403393279,0 -4.356654010693951,53.13166136708346,0 -4.354898011088367,53.13113115453451,0 -4.354126337659481,53.13098967586464,0 -4.353609358207543,53.13092322839372,0 -4.352385525348918,53.13087333656563,0 -4.350854782186953,53.13070490184113,0 
			</coordinates>
		</LineString>
		<atom:link rel="app" href="https://www.google.com/earth/about/versions/#earth-pro" title="Google Earth Pro 7.3.7.1155"></atom:link>
	</Placemark>
</Document>
</kml>
