<?xml version="1.0" encoding="UTF-8"?>
<kml xmlns="http://www.opengis.net/kml/2.2" xmlns:gx="http://www.google.com/kml/ext/2.2" xmlns:kml="http://www.opengis.net/kml/2.2" xmlns:atom="http://www.w3.org/2005/Atom">
<Document>
	<name>brendan11-9-2019.kml</name>
	<StyleMap id="m_ylw-pushpin">
		<Pair>
			<key>normal</key>
			<styleUrl>#s_ylw-pushpin</styleUrl>
		</Pair>
		<Pair>
			<key>highlight</key>
			<styleUrl>#s_ylw-pushpin_hl</styleUrl>
		</Pair>
	</StyleMap>
	<Style id="s_ylw-pushpin">
		<IconStyle>
			<scale>1.1</scale>
			<Icon>
				<href>http://maps.google.com/mapfiles/kml/pushpin/ylw-pushpin.png</href>
			</Icon>
			<hotSpot x="20" y="2" xunits="pixels" yunits="pixels"/>
		</IconStyle>
	</Style>
	<Style id="s_ylw-pushpin_hl">
		<IconStyle>
			<scale>1.3</scale>
			<Icon>
				<href>http://maps.google.com/mapfiles/kml/pushpin/ylw-pushpin.png</href>
			</Icon>
			<hotSpot x="20" y="2" xunits="pixels" yunits="pixels"/>
		</IconStyle>
	</Style>
	<Placemark>
		<name>brendan11-9-2019</name>
		<styleUrl>#m_ylw-pushpin</styleUrl>
		<LineString>
			<tessellate>1</tessellate>
			<coordinates>
				-4.401890214458843,53.14536173967067,0 -4.401268435197265,53.14541798403828,0 -4.40033495906847,53.14545808253416,0 -4.399752495047146,53.145466174776,0 -4.399299566311019,53.14543058637235,0 -4.398907960396453,53.14542555319416,0 -4.397914169240835,53.14537177153361,0 -4.397370790885684,53.14533565857479,0 -4.396842662101089,53.14529704053064,0 -4.396577211313448,53.14527693538115,0 -4.39612534275194,53.14522566079695,0 -4.395816197210434,53.14519537661205,0 -4.395329097763736,53.14510662352541,0 -4.394890767620514,53.14503404701489,0 -4.39464095133009,53.14499301333727,0 -4.393557380651786,53.14486662092685,0 -4.392212536986566,53.14462782450151,0 -4.390852193354466,53.1444039781816,0 -4.389603622141816,53.14409679278684,0 -4.388606740010853,53.14388630529424,0 -4.388113687922895,53.14378271123286,0 -4.387413386279871,53.14364542413147,0 -4.386338734371109,53.14347395788346,0 -4.385634323370549,53.14333721286168,0 -4.384891439114469,53.14317030484384,0 -4.384449440284993,53.14305119963932,0 -4.384298206456982,53.14298181363641,0 -4.384147559451531,53.14293997105315,0 -4.383800311616115,53.1428020687414,0 -4.383061634646603,53.14255219017829,0 -4.382326484971299,53.14231428961958,0 -4.381569342461749,53.1420823863256,0 -4.380843044741553,53.14187743598046,0 -4.380036739263748,53.14159754345157,0 -4.379273410466018,53.14131440578355,0 -4.378252082054344,53.14085864376953,0 -4.377461278614812,53.14050071249456,0 -4.376522276881454,53.14007411410438,0 -4.375901527626106,53.13978947671841,0 -4.374677012660671,53.13922646557305,0 -4.373825530591727,53.13872341376749,0 -4.3728295804232,53.13822616159015,0 -4.372134599170854,53.13781647360211,0 -4.371068260696793,53.13725171072348,0 -4.370371302723499,53.13694308869608,0 -4.369750456549398,53.13672090888791,0 -4.369315155793667,53.13649308910424,0 -4.368715163255015,53.13616542689446,0 -4.368058508468728,53.13579415198267,0 -4.367169278506974,53.13534744460515,0 -4.365998837785321,53.13479909772295,0 -4.364548768670797,53.13420316136539,0 -4.363726703330117,53.13383829876935,0 -4.363095033483448,53.13358671534997,0 -4.362027450234515,53.1331064647711,0 -4.361281567290176,53.13275372899844,0 -4.360433432117313,53.13238079339893,0 -4.359499288733667,53.13197291103782,0 -4.358783375647034,53.13180399323721,0 -4.357998661499143,53.13160043945771,0 -4.357236011115867,53.13139523770484,0 -4.356440950118569,53.13124091771417,0 -4.355466981666249,53.13111020579568,0 -4.354541753862198,53.1309468254569,0 -4.353103023508495,53.13086555009496,0 -4.351694927259704,53.1307483720844,0 -4.350429262631302,53.13063827900464,0 -4.349494482296683,53.13062604610634,0 -4.3487184287105,53.13055867616487,0 -4.347917451255727,53.13045971519431,0 
			</coordinates>
		</LineString>
		<atom:link rel="app" href="https://www.google.com/earth/about/versions/#earth-pro" title="Google Earth Pro 7.3.7.1155"></atom:link>
	</Placemark>
</Document>
</kml>
