{
  "type": "FeatureCollection",
  "crs": {
    "type": "name",
    "properties": {
      "name": "urn:ogc:def:crs:EPSG::27700"
    }
  },
  "features": [
    {
      "type": "Feature",
      "properties": {
        "source": "OpenStreetMap (ODbL), natural=coastline, via Overpass API",
        "osm_way_ids": [
          2988035,
          2988099,
          2988208,
          2988306,
          2988336,
          47389505
        ],
        "description": "Caernarfon Bay MHW + Menai Strait coast for Newborough Warren site. Malltraeth estuary excluded. Reprojected EPSG:27700, simplified 5m.",
        "extracted": "2026-06-30"
      },
      "geometry": {
        "type": "LineString",
        "coordinates": [
          [
            238430.87785737685,
            365212.5057940794
          ],
          [
            238482.17219499237,
            365024.031987971
          ],
          [
            238537.78223788243,
            364858.3730282625
          ],
          [
            238600.60353147634,
            364721.02089692414
          ],
          [
            238712.29496386767,
            364436.39055555215
          ],
          [
            238943.5217771776,
            363962.9902728639
          ],
          [
            239048.37917180444,
            363704.421486644
          ],
          [
            239105.60913460868,
            363532.24763225333
          ],
          [
            239084.33500320584,
            363506.2291098349
          ],
          [
            239093.96128349236,
            363498.4450707066
          ],
          [
            239085.8597012276,
            363486.079836466
          ],
          [
            239093.53891573718,
            363464.1980766008
          ],
          [
            239072.6413360954,
            363440.4272494825
          ],
          [
            239080.449777244,
            363439.8973113863
          ],
          [
            239099.32922157872,
            363463.58017471153
          ],
          [
            239113.29685481556,
            363460.8611394426
          ],
          [
            239118.41430511605,
            363476.0659041492
          ],
          [
            239151.16521632197,
            363443.0192352756
          ],
          [
            239175.94072636846,
            363443.55569299427
          ],
          [
            239281.85071978616,
            363530.163730821
          ],
          [
            239342.79251849203,
            363558.0683747055
          ],
          [
            239389.831149693,
            363569.49377946934
          ],
          [
            239527.1947236294,
            363580.3712577765
          ],
          [
            239631.68814522697,
            363572.71330746065
          ],
          [
            239987.59690815234,
            363508.83949815127
          ],
          [
            240206.8579299333,
            363426.2401887293
          ],
          [
            240442.21681422772,
            363323.6735481807
          ],
          [
            240553.30997264944,
            363290.5073349443
          ],
          [
            240757.8434437219,
            363190.5210812976
          ],
          [
            240910.05679212164,
            363104.85447184043
          ],
          [
            241284.19175390413,
            362793.7143355147
          ],
          [
            241654.95393848527,
            362448.21254393185
          ],
          [
            241972.13674352062,
            362185.60218643205
          ],
          [
            242077.28595044042,
            362105.60517559136
          ],
          [
            242225.7179105337,
            362010.7889355165
          ],
          [
            242400.34171137706,
            361929.87886950985
          ],
          [
            242557.89718580892,
            361883.6520612502
          ],
          [
            242788.20638834508,
            361847.98894790927
          ],
          [
            242946.55736737276,
            361797.4736025319
          ],
          [
            243011.39085275354,
            361786.338829429
          ],
          [
            243049.88083179668,
            361769.1100345683
          ],
          [
            243574.037595416,
            361648.9027970165
          ],
          [
            243668.02442889864,
            361641.2333449271
          ],
          [
            243770.34246850797,
            361644.2385090074
          ],
          [
            244004.3061102568,
            361544.3392331888
          ],
          [
            244078.6182480449,
            361483.1859063955
          ],
          [
            244175.54553157563,
            361361.47470962687
          ],
          [
            244208.8474534177,
            361339.36970298784
          ],
          [
            244261.77149867345,
            361335.5541415277
          ],
          [
            244339.4571535382,
            361364.1352052251
          ],
          [
            244371.19621893542,
            361393.63232183096
          ],
          [
            244377.28165217012,
            361427.1368778298
          ],
          [
            244384.61680753317,
            361486.3090684174
          ],
          [
            244373.85793814532,
            361539.3335741477
          ],
          [
            244328.4543634597,
            361614.5169325792
          ],
          [
            244267.35609362886,
            361687.4614175655
          ],
          [
            244181.95528643654,
            361736.88142732927
          ],
          [
            244142.88959176154,
            361744.76713454875
          ],
          [
            244122.2315040587,
            361739.8618496528
          ],
          [
            244120.62390489015,
            361714.1501959626
          ],
          [
            244046.68786272104,
            361694.68075691396
          ],
          [
            244034.98642349165,
            361700.7738257552
          ],
          [
            244006.6146170255,
            361692.4128020704
          ],
          [
            243987.82998770115,
            361696.0981209685
          ],
          [
            243833.20088197468,
            361772.7777107181
          ],
          [
            243761.86726453397,
            361823.1938903541
          ],
          [
            243556.35418743256,
            362035.31996557163
          ],
          [
            243397.70052718619,
            362222.774234912
          ],
          [
            243384.76737912692,
            362249.27353274333
          ],
          [
            243381.05638513496,
            362305.0765010554
          ],
          [
            243391.29597770082,
            362352.58445184067
          ],
          [
            243414.33561682136,
            362378.3406126188
          ],
          [
            243455.38995121387,
            362392.32882185426
          ],
          [
            243503.42716200714,
            362429.6375065096
          ],
          [
            243576.36848613666,
            362561.67368541996
          ],
          [
            243572.116891908,
            362596.2837330253
          ],
          [
            243555.18010041406,
            362611.11139560223
          ],
          [
            243475.33230917057,
            362611.1845074132
          ],
          [
            243457.51000126914,
            362617.96930266323
          ],
          [
            243439.92188529036,
            362641.5255520452
          ],
          [
            243453.04113446572,
            362695.01856694976
          ],
          [
            243470.0086877793,
            362726.37363261805
          ],
          [
            243539.45930746535,
            362803.96643525286
          ],
          [
            243558.45895501444,
            362841.8021409862
          ],
          [
            243584.53709952347,
            362849.6005790114
          ],
          [
            243614.0147975849,
            362876.60561174183
          ],
          [
            243652.47837963328,
            362949.74612665595
          ],
          [
            243693.73097303684,
            363060.7406172765
          ],
          [
            243720.84838029195,
            363091.7870670967
          ],
          [
            243780.66703643114,
            363122.7676409333
          ],
          [
            243788.68349024895,
            363159.9607649425
          ],
          [
            243780.19760745895,
            363166.40615637344
          ],
          [
            243754.2771577627,
            363157.632940799
          ],
          [
            243749.22149890265,
            363176.2472000645
          ],
          [
            243765.06596281932,
            363208.9870586857
          ],
          [
            243811.3771342105,
            363261.4079483082
          ],
          [
            243807.41201439642,
            363331.87118036445
          ],
          [
            243834.1709788463,
            363367.38349312916
          ],
          [
            243878.02949567683,
            363455.06856801995
          ],
          [
            243870.8791831962,
            363460.5795049325
          ],
          [
            243855.95623335784,
            363448.64106789965
          ],
          [
            243815.60838000878,
            363372.33186961064
          ],
          [
            243841.0729824445,
            363454.9389403315
          ],
          [
            243868.1238308776,
            363488.9610457927
          ],
          [
            243879.0841838931,
            363518.1418775093
          ],
          [
            243869.20916236073,
            363544.1504613031
          ],
          [
            243883.85789286633,
            363587.07277705317
          ],
          [
            243880.85064762333,
            363625.37183682405
          ],
          [
            243843.9775890856,
            363685.1629710107
          ],
          [
            243817.05568694154,
            363703.64500946074
          ],
          [
            243638.36461618205,
            363746.73844451713
          ],
          [
            243603.99661735207,
            363761.8354843486
          ],
          [
            243570.38722601382,
            363788.45401159703
          ],
          [
            243547.72586899094,
            363837.2722826806
          ],
          [
            243547.77673493593,
            363875.86136183393
          ],
          [
            243567.47395954636,
            363950.68383843574
          ],
          [
            243600.78243452968,
            364007.0017104224
          ],
          [
            243624.9308712684,
            364021.2764014947
          ],
          [
            243689.16350541878,
            364108.77229544387
          ],
          [
            243696.03176783226,
            364192.75480001775
          ],
          [
            243721.19533091417,
            364289.734040643
          ],
          [
            243702.19335086623,
            364279.48826331296
          ],
          [
            243688.03470821292,
            364284.1152329712
          ],
          [
            243666.9950153321,
            364340.51801149524
          ],
          [
            243677.96571679047,
            364331.3300110082
          ],
          [
            243690.7808777271,
            364294.413556672
          ],
          [
            243703.39541381842,
            364290.87253449234
          ],
          [
            243741.29234019358,
            364340.24944930035
          ],
          [
            243823.00546712498,
            364363.95640462526
          ],
          [
            243860.82414518515,
            364388.65252224315
          ],
          [
            243917.11386276403,
            364478.9267468873
          ],
          [
            243968.8725691189,
            364499.32735968154
          ],
          [
            243987.22892850495,
            364517.5226335251
          ],
          [
            244010.54467159012,
            364511.517762944
          ],
          [
            243986.22994718293,
            364479.9332825503
          ],
          [
            243941.42579566035,
            364447.4588504176
          ],
          [
            243887.01543117262,
            364369.43725719897
          ],
          [
            243761.24736134565,
            364264.5537373893
          ],
          [
            243732.91073566632,
            364178.18858130946
          ],
          [
            243720.54733146145,
            364095.0091504831
          ],
          [
            243632.83728093145,
            363968.7099617293
          ],
          [
            243601.32239492185,
            363886.1792626494
          ],
          [
            243610.87530807353,
            363814.3638014999
          ],
          [
            243635.29703405453,
            363788.85873475263
          ],
          [
            243666.29634362465,
            363782.7236180027
          ],
          [
            243832.7439367841,
            363787.4174675826
          ],
          [
            243870.86142348725,
            363767.2116322916
          ],
          [
            244065.26445743267,
            363729.89419655886
          ],
          [
            244123.73869709682,
            363727.7430365516
          ],
          [
            244200.69101671077,
            363696.0978507558
          ],
          [
            244227.49335562953,
            363649.24136618664
          ],
          [
            244374.9004619975,
            363628.4652417786
          ],
          [
            244441.9846622741,
            363634.7669134598
          ],
          [
            244463.94729317527,
            363669.1357685506
          ],
          [
            244536.9770868317,
            363692.3916871604
          ],
          [
            244610.37324318994,
            363765.0604220657
          ],
          [
            244674.27095227383,
            363781.3223157437
          ],
          [
            244722.51148917348,
            363762.1196016564
          ],
          [
            244797.14791053731,
            363669.75692548207
          ],
          [
            244802.5057158875,
            363638.0740238896
          ],
          [
            244787.6737587539,
            363626.16327847977
          ],
          [
            244758.8091932733,
            363619.96326137305
          ]
        ]
      }
    }
  ]
}