<?xml version="1.0" encoding="utf-8" ?>
<kml xmlns="http://www.opengis.net/kml/2.2">
<Document id="root_doc">
<Schema name="coast1900" id="coast1900">
	<SimpleField name="timestamp" type="string"></SimpleField>
	<SimpleField name="begin" type="string"></SimpleField>
	<SimpleField name="end" type="string"></SimpleField>
	<SimpleField name="altitudeMode" type="string"></SimpleField>
	<SimpleField name="tessellate" type="int"></SimpleField>
	<SimpleField name="extrude" type="int"></SimpleField>
	<SimpleField name="visibility" type="int"></SimpleField>
	<SimpleField name="drawOrder" type="int"></SimpleField>
	<SimpleField name="icon" type="string"></SimpleField>
	<SimpleField name="id" type="float"></SimpleField>
	<SimpleField name="High_tide" type="float"></SimpleField>
	<SimpleField name="Dune_edge" type="int"></SimpleField>
</Schema>
<Folder><name>coast1900</name>
  <Placemark>
	<Style><LineStyle><color>ff0000ff</color></LineStyle><PolyStyle><fill>0</fill></PolyStyle></Style>
	<ExtendedData><SchemaData schemaUrl="#coast1900">
		<SimpleData name="tessellate">-1</SimpleData>
		<SimpleData name="extrude">0</SimpleData>
		<SimpleData name="visibility">-1</SimpleData>
		<SimpleData name="id">1</SimpleData>
	</SchemaData></ExtendedData>
      <MultiGeometry><LineString><coordinates>-4.40263494941247,53.1441946968593,0 -4.3995306690195,53.143873388728,0 -4.39503912532312,53.1434839416645,0 -4.3902499383686,53.1425243990561,0 -4.38718305474022,53.1419140670552,0 -4.38474343255051,53.1410991209733,0 -4.38170157156072,53.1399762328838,0 -4.38028080907509,53.1393007753504,0 -4.37798854196684,53.138258782869,0 -4.37531025398226,53.1369684953625,0 -4.37132497602901,53.1351282963822,0 -4.36865235731591,53.133933732708,0 -4.36626315824655,53.1330534207979,0 -4.36399437774182,53.1324266262679,0 -4.36177354100365,53.1317028536976,0 -4.35972796182953,53.1312635161672,0 -4.35784008816845,53.1307890245372,0 -4.35594700787688,53.1302186226942,0 -4.35288670629342,53.1297032704624,0 -4.34929336421921,53.1291663703363,0 -4.34533511998524,53.1287645328899,0 -4.34178986408876,53.1281304762998,0 -4.34030032514413,53.1281277860913,0 -4.34030032514413,53.1281277860913,0</coordinates></LineString></MultiGeometry>
  </Placemark>
  <Placemark>
	<Style><LineStyle><color>ff0000ff</color></LineStyle><PolyStyle><fill>0</fill></PolyStyle></Style>
	<ExtendedData><SchemaData schemaUrl="#coast1900">
		<SimpleData name="tessellate">-1</SimpleData>
		<SimpleData name="extrude">0</SimpleData>
		<SimpleData name="visibility">-1</SimpleData>
		<SimpleData name="id">2</SimpleData>
	</SchemaData></ExtendedData>
      <MultiGeometry><LineString><coordinates>-4.40261749013066,53.1448349451673,0 -4.39914821592642,53.1446489736614,0 -4.39518990902635,53.1442807757862,0 -4.39284048266153,53.1441360676042,0 -4.39029609992733,53.1433553345973,0 -4.38845697377324,53.1428163536773,0 -4.38635036318186,53.142250713775,0 -4.38310462854022,53.1412919219224,0 -4.37951009665528,53.1397961079227,0 -4.37570498934322,53.1383363856817,0 -4.37171252142958,53.1363683638165,0 -4.36707040369343,53.1341891723042,0 -4.36343966829787,53.1329815526068,0 -4.36039016377566,53.131698306982,0 -4.35741498093794,53.1307974469005,0 -4.35325794386984,53.1306557655911,0 -4.35007137865419,53.1307507336054,0 -4.34490820997026,53.1306926152752,0 -4.34490820997026,53.1306926152752,0 -4.34496134873314,53.1306915681453,0 -4.34496134873314,53.1306915681453,0</coordinates></LineString></MultiGeometry>
  </Placemark>
</Folder>
</Document></kml>
