<?xml version="1.0" encoding="UTF-8"?>
<kml xmlns="http://www.opengis.net/kml/2.2" xmlns:gx="http://www.google.com/kml/ext/2.2" xmlns:kml="http://www.opengis.net/kml/2.2" xmlns:atom="http://www.w3.org/2005/Atom">
<Document>
	<name>Coast 2432017.kml</name>
	<StyleMap id="m_ylw-pushpin">
		<Pair>
			<key>normal</key>
			<styleUrl>#s_ylw-pushpin</styleUrl>
		</Pair>
		<Pair>
			<key>highlight</key>
			<styleUrl>#s_ylw-pushpin_hl</styleUrl>
		</Pair>
	</StyleMap>
	<Style id="s_ylw-pushpin">
		<IconStyle>
			<scale>1.1</scale>
			<Icon>
				<href>http://maps.google.com/mapfiles/kml/pushpin/ylw-pushpin.png</href>
			</Icon>
			<hotSpot x="20" y="2" xunits="pixels" yunits="pixels"/>
		</IconStyle>
	</Style>
	<Style id="s_ylw-pushpin_hl">
		<IconStyle>
			<scale>1.3</scale>
			<Icon>
				<href>http://maps.google.com/mapfiles/kml/pushpin/ylw-pushpin.png</href>
			</Icon>
			<hotSpot x="20" y="2" xunits="pixels" yunits="pixels"/>
		</IconStyle>
	</Style>
	<Placemark>
		<name>Coast 24/3/2017</name>
		<description>Dune edge</description>
		<styleUrl>#m_ylw-pushpin</styleUrl>
		<gx:balloonVisibility>1</gx:balloonVisibility>
		<LineString>
			<tessellate>1</tessellate>
			<coordinates>
				-4.401701172896989,53.14551237592689,0 -4.399762769422506,53.14555651034937,0 -4.39870156887491,53.14545728147219,0 -4.397997810125414,53.1454203385486,0 -4.396752604374583,53.14527690617464,0 -4.395026315049905,53.14502114645879,0 -4.393678336007577,53.1448563731018,0 -4.392415534780651,53.14461451220467,0 -4.390746892643415,53.1443374257116,0 -4.389136299503999,53.14401923345887,0 -4.387909430994734,53.14368218992853,0 -4.38694417178869,53.14345536815659,0 -4.386002553402706,53.14325996593223,0 -4.385525495877633,53.14320660198436,0 -4.384317686397452,53.14293716864435,0 -4.382694329995479,53.14246326701024,0 -4.379668198169986,53.14149732311874,0 -4.378620216554149,53.14108492554149,0 -4.376777794291544,53.14029345031277,0 -4.375270871074904,53.1395339835902,0 -4.37260726636335,53.13814881219347,0 -4.370095278972683,53.136829431626,0 -4.368683258178804,53.13611908273545,0 -4.367204312654387,53.13533555011041,0 -4.365798729379185,53.13475592780764,0 -4.364596992787187,53.13410962850011,0 -4.363563140689825,53.13367715723149,0 -4.362716939831271,53.13331395615579,0 -4.361630353464658,53.132740581203,0 -4.360180615012672,53.13223340062962,0 -4.358992040177778,53.13185504050833,0 -4.357548988256601,53.13148839734414,0 -4.355200302622412,53.13107986437439,0 -4.353453707656355,53.13089780666355,0 -4.352234291060816,53.13082877664394,0 -4.350945701353687,53.13070208629927,0 
			</coordinates>
		</LineString>
		<atom:link rel="app" href="https://www.google.com/earth/about/versions/#earth-pro" title="Google Earth Pro 7.3.7.1155"></atom:link>
	</Placemark>
</Document>
</kml>
