<?xml version="1.0" encoding="UTF-8"?>
<kml xmlns="http://www.opengis.net/kml/2.2" xmlns:gx="http://www.google.com/kml/ext/2.2" xmlns:kml="http://www.opengis.net/kml/2.2" xmlns:atom="http://www.w3.org/2005/Atom">
<Document>
	<name>brendan31-3-2020.kml</name>
	<StyleMap id="m_ylw-pushpin">
		<Pair>
			<key>normal</key>
			<styleUrl>#s_ylw-pushpin</styleUrl>
		</Pair>
		<Pair>
			<key>highlight</key>
			<styleUrl>#s_ylw-pushpin_hl</styleUrl>
		</Pair>
	</StyleMap>
	<Style id="s_ylw-pushpin">
		<IconStyle>
			<scale>1.1</scale>
			<Icon>
				<href>http://maps.google.com/mapfiles/kml/pushpin/ylw-pushpin.png</href>
			</Icon>
			<hotSpot x="20" y="2" xunits="pixels" yunits="pixels"/>
		</IconStyle>
	</Style>
	<Style id="s_ylw-pushpin_hl">
		<IconStyle>
			<scale>1.3</scale>
			<Icon>
				<href>http://maps.google.com/mapfiles/kml/pushpin/ylw-pushpin.png</href>
			</Icon>
			<hotSpot x="20" y="2" xunits="pixels" yunits="pixels"/>
		</IconStyle>
	</Style>
	<Placemark>
		<name>brendan31-3-2020</name>
		<styleUrl>#m_ylw-pushpin</styleUrl>
		<LineString>
			<tessellate>1</tessellate>
			<coordinates>
				-4.401891236436965,53.14551892131652,0 -4.401354354787347,53.14555337887765,0 -4.400704178861011,53.14555664271804,0 -4.400196370419923,53.14557411134358,0 -4.399612635737712,53.1455603714459,0 -4.399013689454242,53.14553650646144,0 -4.397888329236159,53.14546612357685,0 -4.397364510670815,53.14542289328527,0 -4.396732644214858,53.14535609345646,0 -4.395876533843773,53.14527517564704,0 -4.394701962741023,53.14514176383741,0 -4.393768341415324,53.1450570088268,0 -4.39316895696567,53.14495016809235,0 -4.392758634710337,53.1449249750888,0 -4.392326908815035,53.14480709259212,0 -4.391664867770448,53.14462391811497,0 -4.391049475794691,53.14449398156257,0 -4.390448756350253,53.14433595658329,0 -4.390021263250823,53.1442778301279,0 -4.389432276419426,53.14411585394481,0 -4.388503012033416,53.14392352596685,0 -4.387795511892882,53.14379496176768,0 -4.387154928082736,53.14369611037617,0 -4.386805301677079,53.14361095331304,0 -4.386305989244089,53.14355362052616,0 -4.385948214696691,53.14350477514385,0 -4.385296709621652,53.14340023432691,0 -4.384739135141466,53.14335067578703,0 -4.384143897133242,53.14323068481574,0 -4.383558493111774,53.14300677756195,0 -4.383115001279086,53.14275779340285,0 -4.382192667096637,53.14244073724485,0 -4.381415365457043,53.14212700061999,0 -4.38027351825748,53.14174895725515,0 -4.379255514643933,53.14140825247075,0 -4.378515323336387,53.14107741286674,0 -4.377913504859395,53.14074289393052,0 -4.377423827499284,53.14052739313522,0 -4.376765061905728,53.1402363899646,0 -4.376213928707569,53.13997672861078,0 -4.375395369701442,53.13959434131074,0 -4.374738184575135,53.1392619205993,0 -4.37403038392946,53.13890653298989,0 -4.37345719058712,53.13859938753846,0 -4.372391119606387,53.13810114407282,0 -4.371346331464415,53.13756207901679,0 -4.370203121670335,53.13710688368828,0 -4.369337052967522,53.13675188709383,0 -4.368594694952131,53.13636819113754,0 -4.367836264889099,53.13592981043977,0 -4.367633445363545,53.13576588659875,0 -4.367027652987692,53.13533576185947,0 -4.366511525709216,53.13508511671422,0 -4.365133788669432,53.13451383852665,0 -4.364439426482174,53.13424906506917,0 -4.363342111549075,53.1337719597195,0 -4.362382466818115,53.13343986095766,0 -4.361390996140347,53.13310429382938,0 -4.360634566779099,53.13284977875023,0 -4.359972526978549,53.1326589722777,0 -4.359592198749757,53.13236415126416,0 -4.3590064640558,53.13203446008207,0 -4.358571352815133,53.13192872699722,0 -4.358300446911542,53.13181737972194,0 -4.357767964996152,53.13166601416705,0 -4.357168506545234,53.13152188601742,0 -4.355993152350123,53.13123269452346,0 -4.355377220508283,53.13112372671497,0 -4.354128102985007,53.1309813220152,0 -4.352498288727373,53.13087333135724,0 -4.35114722318526,53.1307313989405,0 -4.350259430673404,53.13062404987408,0 -4.349301246588238,53.13058416273702,0 -4.348058083341185,53.13047039192037,0 
			</coordinates>
		</LineString>
		<atom:link rel="app" href="https://www.google.com/earth/about/versions/#earth-pro" title="Google Earth Pro 7.3.7.1155"></atom:link>
	</Placemark>
</Document>
</kml>
