<?xml version="1.0" encoding="UTF-8"?>
<kml xmlns="http://www.opengis.net/kml/2.2" xmlns:gx="http://www.google.com/kml/ext/2.2" xmlns:kml="http://www.opengis.net/kml/2.2" xmlns:atom="http://www.w3.org/2005/Atom">
<Document>
	<name>drinking_pools.kml</name>
	<StyleMap id="m_ylw-pushpin">
		<Pair>
			<key>normal</key>
			<styleUrl>#s_ylw-pushpin</styleUrl>
		</Pair>
		<Pair>
			<key>highlight</key>
			<styleUrl>#s_ylw-pushpin_hl</styleUrl>
		</Pair>
	</StyleMap>
	<Style id="s_ylw-pushpin">
		<IconStyle>
			<scale>1.1</scale>
			<Icon>
				<href>http://maps.google.com/mapfiles/kml/pushpin/ylw-pushpin.png</href>
			</Icon>
			<hotSpot x="20" y="2" xunits="pixels" yunits="pixels"/>
		</IconStyle>
		<PolyStyle>
			<fill>0</fill>
		</PolyStyle>
	</Style>
	<Style id="s_ylw-pushpin_hl">
		<IconStyle>
			<scale>1.3</scale>
			<Icon>
				<href>http://maps.google.com/mapfiles/kml/pushpin/ylw-pushpin.png</href>
			</Icon>
			<hotSpot x="20" y="2" xunits="pixels" yunits="pixels"/>
		</IconStyle>
		<PolyStyle>
			<fill>0</fill>
		</PolyStyle>
	</Style>
	<Placemark>
		<name>drinking_pool1</name>
		<snippet></snippet>
		<styleUrl>#m_ylw-pushpin</styleUrl>
		<MultiGeometry>
			<Polygon>
				<tessellate>1</tessellate>
				<outerBoundaryIs>
					<LinearRing>
						<coordinates>
							-4.353378073101286,53.14094134579792,0 -4.353489422989116,53.14088162131998,0 -4.353509162705798,53.14083864403417,0 -4.35348844208257,53.1407760688228,0 -4.353475840258726,53.14073622940031,0 -4.353403022569118,53.14068558120928,0 -4.353317137970385,53.14068610101411,0 -4.353247614911285,53.1407166114815,0 -4.353169233526573,53.14079529380999,0 -4.35315369374638,53.14083843651833,0 -4.353174667734196,53.14087050088652,0 -4.353236834130637,53.14091089546469,0 -4.353273443381697,53.14092188760555,0 -4.353306112299748,53.14093932519005,0 -4.353378073101286,53.14094134579792,0 
						</coordinates>
					</LinearRing>
				</outerBoundaryIs>
			</Polygon>
			<Polygon>
				<tessellate>1</tessellate>
				<outerBoundaryIs>
					<LinearRing>
						<coordinates>
							-4.351677629829086,53.15315477158445,0 -4.351689913253374,53.15308580629844,0 -4.351727567872976,53.15303609646544,0 -4.35189809485647,53.15291726847197,0 -4.352004701211573,53.15289946122485,0 -4.352128199264728,53.15286936934976,0 -4.35220588233967,53.15278627450886,0 -4.352265705454962,53.15270214882609,0 -4.352343544499911,53.15257236410393,0 -4.352396479819419,53.15252395249683,0 -4.352322630738049,53.152449553768,0 -4.352261622578505,53.15245869605855,0 -4.352145330177036,53.15258678233595,0 -4.351970298392461,53.15261309893354,0 -4.351845331189504,53.15268000636465,0 -4.351777584712177,53.1528229106148,0 -4.351674618948811,53.15292750620332,0 -4.351665658306823,53.15292783622143,0 -4.351471289955368,53.15297954317062,0 -4.351380714146695,53.15308240408364,0 -4.351481713439695,53.1531425635262,0 -4.351611069778545,53.15319424058973,0 -4.351681615771412,53.15320041769407,0 -4.351677629829086,53.15315477158445,0 
						</coordinates>
					</LinearRing>
				</outerBoundaryIs>
			</Polygon>
			<Polygon>
				<tessellate>1</tessellate>
				<outerBoundaryIs>
					<LinearRing>
						<coordinates>
							-4.353371349359342,53.15441427628397,0 -4.353454902019304,53.15435330047368,0 -4.353457694961012,53.15428159763455,0 -4.353460571478226,53.15422425074303,0 -4.353508289835752,53.15418306778848,0 -4.353499257600602,53.15413289966922,0 -4.353478361171734,53.15413467347268,0 -4.353412740254194,53.15419375182486,0 -4.353344073348373,53.15424210973636,0 -4.35336812574117,53.15431202945275,0 -4.353353306540674,53.15436941427255,0 -4.35334143049114,53.15440888724424,0 -4.353371349359342,53.15441427628397,0 
						</coordinates>
					</LinearRing>
				</outerBoundaryIs>
			</Polygon>
			<Polygon>
				<tessellate>1</tessellate>
				<outerBoundaryIs>
					<LinearRing>
						<coordinates>
							-4.357636279612115,53.14212568015535,0 -4.357717691647577,53.14210862424969,0 -4.357854667175788,53.14199913000963,0 -4.357831647639101,53.14192550439775,0 -4.357772806341447,53.14188806348152,0 -4.357702823812255,53.14190896742453,0 -4.357655981199686,53.14200356025625,0 -4.357625635354189,53.14204530978209,0 -4.357636279612115,53.14212568015535,0 
						</coordinates>
					</LinearRing>
				</outerBoundaryIs>
			</Polygon>
			<Polygon>
				<tessellate>1</tessellate>
				<outerBoundaryIs>
					<LinearRing>
						<coordinates>
							-4.355295232829477,53.14455598396413,0 -4.355379508767895,53.14452371436758,0 -4.355372027054706,53.14445992999066,0 -4.355306194827307,53.14443514867889,0 -4.355262537655848,53.14444427147391,0 -4.355213610787142,53.14447882042651,0 -4.355192649855882,53.14450957951751,0 -4.355216239946382,53.14452793716782,0 -4.355295232829477,53.14455598396413,0 
						</coordinates>
					</LinearRing>
				</outerBoundaryIs>
			</Polygon>
		</MultiGeometry>
		<atom:link rel="app" href="https://www.google.com/earth/about/versions/#earth-pro" title="Google Earth Pro 7.3.7.1155"></atom:link>
	</Placemark>
</Document>
</kml>
