<?xml version="1.0" encoding="UTF-8"?>
<kml xmlns="http://www.opengis.net/kml/2.2"><Document>
<Placemark><name>felling_1998_1</name><Polygon>
				<tessellate>1</tessellate>
				<outerBoundaryIs>
					<LinearRing>
						<coordinates>
							-4.380416913703458,53.14821518430054,0 -4.380911430971093,53.14738864416468,0 -4.379867623757939,53.14687084846648,0 -4.379513539549416,53.14674241450994,0 -4.379794447273607,53.14638088508408,0 -4.379884887222567,53.14584793710225,0 -4.379804502580225,53.14535051341723,0 -4.379204580747393,53.1449498032751,0 -4.378690343989767,53.1457100974113,0 -4.378283423943229,53.14580892466233,0 -4.378188903851726,53.14602965929173,0 -4.377968427102168,53.14625310043085,0 -4.377496115142925,53.14651925561392,0 -4.376881896239716,53.14705908631837,0 -4.377334355926683,53.14754460723179,0 -4.378120882066271,53.14786144081596,0 -4.380416913703458,53.14821518430054,0 
						</coordinates>
					</LinearRing>
				</outerBoundaryIs>
			</Polygon></Placemark>
</Document></kml>
