{
 "type": "FeatureCollection",
 "crs": {
  "type": "name",
  "properties": {
   "name": "urn:ogc:def:crs:EPSG::27700"
  }
 },
 "features": [
  {
   "type": "Feature",
   "properties": {
    "name": "felling_1998_1",
    "source": "data/geo/felling_1998_1.kml",
    "note": "WGS84 KML polygon reprojected to EPSG:27700 once and committed so the pipeline needs no CRS dependency (same pattern as forest_boundary.geojson). Produced by tools/reproject_kml_to_osgb_geojson.py."
   },
   "geometry": {
    "type": "Polygon",
    "coordinates": [
     [
      [
       240902.35723917102,
       363877.91369144944
      ],
      [
       240866.23193412018,
       363787.0852947323
      ],
      [
       240934.11322863563,
       363727.1736687324
      ],
      [
       240957.3151912046,
       363712.1017053652
      ],
      [
       240937.19403830587,
       363672.51674946817
      ],
      [
       240929.17497669905,
       363613.4429254467
      ],
      [
       240932.71033256166,
       363557.9402390542
      ],
      [
       240971.34563509608,
       363512.03885800653
      ],
      [
       241008.54424883056,
       363595.4562405647
      ],
      [
       241036.12033827615,
       363605.54343104386
      ],
      [
       241043.25682495677,
       363629.8836759401
      ],
      [
       241058.82587599495,
       363654.2450402689
      ],
      [
       241091.39255915256,
       363682.7975992924
      ],
      [
       241134.45903678946,
       363741.4736239352
      ],
      [
       241105.99807304572,
       363796.4788331079
      ],
      [
       241054.57642359752,
       363833.4650097737
      ],
      [
       240902.35723917102,
       363877.91369144944
      ]
     ]
    ]
   }
  }
 ]
}
