{
 "type": "FeatureCollection",
 "crs": {
  "type": "name",
  "properties": {
   "name": "urn:ogc:def:crs:EPSG::27700"
  }
 },
 "features": [
  {
   "type": "Feature",
   "properties": {
    "name": "felling_1998_3",
    "source": "data/geo/felling_1998_3.kml",
    "note": "WGS84 KML polygon reprojected to EPSG:27700 once and committed so the pipeline needs no CRS dependency (same pattern as forest_boundary.geojson). Produced by tools/reproject_kml_to_osgb_geojson.py."
   },
   "geometry": {
    "type": "Polygon",
    "coordinates": [
     [
      [
       241058.2147810757,
       364019.57852566935
      ],
      [
       241100.96838257663,
       363990.8260228868
      ],
      [
       241152.71615991462,
       363961.74630570866
      ],
      [
       241163.58506343796,
       363967.7730371397
      ],
      [
       241244.41397872046,
       363975.16566806484
      ],
      [
       241267.4545368165,
       364018.2308572402
      ],
      [
       241278.56843385537,
       364034.3911849245
      ],
      [
       241327.7197901259,
       364089.82558092586
      ],
      [
       241311.0636470806,
       364118.00559808593
      ],
      [
       241289.0139978801,
       364133.9159358476
      ],
      [
       241261.13345306125,
       364134.88161964726
      ],
      [
       241250.59669091963,
       364113.82978010067
      ],
      [
       241231.40985051307,
       364093.75645174674
      ],
      [
       241213.8485597055,
       364096.1119182244
      ],
      [
       241195.0957247354,
       364109.5847134442
      ],
      [
       241189.45401976747,
       364122.88276272983
      ],
      [
       241197.65299882815,
       364139.0809237105
      ],
      [
       241182.80928145142,
       364159.34354742157
      ],
      [
       241143.54458713197,
       364185.4861306732
      ],
      [
       241058.2147810757,
       364019.57852566935
      ]
     ]
    ]
   }
  }
 ]
}
