<?xml version="1.0" encoding="UTF-8"?>
<kml xmlns="http://www.opengis.net/kml/2.2"><Document>
<Placemark><name>felling_1998_3</name><Polygon>
				<tessellate>1</tessellate>
				<outerBoundaryIs>
					<LinearRing>
						<coordinates>
							-4.378158935691002,53.14953404729085,0 -4.377505958232638,53.14928857594258,0 -4.376718461356149,53.14904284536428,0 -4.376559080624856,53.14910021493434,0 -4.375355237134433,53.14919071486633,0 -4.375032386217532,53.14958436129044,0 -4.374874365834234,53.14973281360737,0 -4.374167557018848,53.15024533100692,0 -4.374430361914253,53.15049345776907,0 -4.374767663214883,53.15062977969543,0 -4.375184666791563,53.15063014128826,0 -4.375331641185718,53.15043792896648,0 -4.37560832729719,53.1502519254194,0 -4.375871852279905,53.15026784351942,0 -4.376158694058486,53.15038325258512,0 -4.376249576164007,53.15050100229342,0 -4.376135123279217,53.15064892660802,0 -4.376366936410077,53.15082648181323,0 -4.376966512460326,53.15104955993453,0 -4.378158935691002,53.14953404729085,0 
						</coordinates>
					</LinearRing>
				</outerBoundaryIs>
			</Polygon></Placemark>
</Document></kml>
