{
 "type": "FeatureCollection",
 "crs": {
  "type": "name",
  "properties": {
   "name": "urn:ogc:def:crs:EPSG::27700"
  }
 },
 "features": [
  {
   "type": "Feature",
   "properties": {
    "name": "Forest",
    "source": "data/geo/Features.kml, Placemark 'Forest'",
    "note": "Corsican pine plantation boundary, reprojected WGS84 -> EPSG:27700 once and committed so the pipeline needs no CRS dependency (same pattern as coastline_eroding_hwm.geojson)."
   },
   "geometry": {
    "type": "Polygon",
    "coordinates": [
     [
      [
       241433.1408,
       366849.0747
      ],
      [
       242230.3699,
       367865.0657
      ],
      [
       241727.6429,
       367938.9629
      ],
      [
       241455.1258,
       367684.5724
      ],
      [
       241140.8712,
       367729.3749
      ],
      [
       241201.3467,
       367303.5424
      ],
      [
       241065.0632,
       367176.343
      ],
      [
       240965.32,
       366767.2532
      ],
      [
       240921.3986,
       366310.4323
      ],
      [
       240663.6863,
       365814.8717
      ],
      [
       240485.2744,
       365803.6313
      ],
      [
       240181.7967,
       365830.9614
      ],
      [
       239865.6945,
       365824.3503
      ],
      [
       239633.7451,
       365929.5218
      ],
      [
       239180.1176,
       365761.4216
      ],
      [
       239106.8101,
       365460.2134
      ],
      [
       239003.1981,
       365624.1415
      ],
      [
       238702.0535,
       365210.274
      ],
      [
       238770.8515,
       365036.0447
      ],
      [
       238801.3651,
       364748.4759
      ],
      [
       238949.6904,
       364376.7018
      ],
      [
       239064.3813,
       364028.9472
      ],
      [
       239262.1281,
       363758.6403
      ],
      [
       239221.5317,
       363576.5735
      ],
      [
       239395.839,
       363633.7724
      ],
      [
       239619.4874,
       363620.5333
      ],
      [
       239916.9838,
       363581.9065
      ],
      [
       240178.8979,
       363510.104
      ],
      [
       240503.189,
       363413.2876
      ],
      [
       240635.5842,
       363420.3431
      ],
      [
       240784.0548,
       363392.4729
      ],
      [
       240919.9089,
       363330.6328
      ],
      [
       241024.2023,
       363183.8548
      ],
      [
       241805.2112,
       364348.7078
      ],
      [
       241715.4147,
       364622.4661
      ],
      [
       241658.0326,
       364624.3661
      ],
      [
       241514.764,
       364634.8472
      ],
      [
       241406.6855,
       364667.0797
      ],
      [
       241379.8972,
       364725.2769
      ],
      [
       241554.4614,
       364965.8916
      ],
      [
       241392.811,
       365114.5067
      ],
      [
       241601.5001,
       365692.0182
      ],
      [
       241241.7145,
       366099.2713
      ],
      [
       241470.1451,
       366406.7689
      ],
      [
       241512.7646,
       366479.8331
      ],
      [
       241433.1408,
       366849.0747
      ]
     ]
    ]
   }
  }
 ]
}