<?xml version="1.0" encoding="UTF-8"?>
<kml xmlns="http://www.opengis.net/kml/2.2"><Document>
<name>georef_random</name>
<Style id="gp"><IconStyle><scale>0.9</scale><Icon><href>http://maps.google.com/mapfiles/kml/pushpin/blue-pushpin.png</href></Icon></IconStyle><LabelStyle><scale>0</scale></LabelStyle></Style>
<Folder><name>control points (random, min 120 m apart)</name>
<Placemark><name>R001</name><styleUrl>#gp</styleUrl><Point><coordinates>-4.37184816,53.14373503,0</coordinates></Point></Placemark>
<Placemark><name>R002</name><styleUrl>#gp</styleUrl><Point><coordinates>-4.35205675,53.14794272,0</coordinates></Point></Placemark>
<Placemark><name>R003</name><styleUrl>#gp</styleUrl><Point><coordinates>-4.35012191,53.14066671,0</coordinates></Point></Placemark>
<Placemark><name>R004</name><styleUrl>#gp</styleUrl><Point><coordinates>-4.37025368,53.13913998,0</coordinates></Point></Placemark>
<Placemark><name>R005</name><styleUrl>#gp</styleUrl><Point><coordinates>-4.34709346,53.14474098,0</coordinates></Point></Placemark>
<Placemark><name>R006</name><styleUrl>#gp</styleUrl><Point><coordinates>-4.35769576,53.15232578,0</coordinates></Point></Placemark>
<Placemark><name>R007</name><styleUrl>#gp</styleUrl><Point><coordinates>-4.35280714,53.14626814,0</coordinates></Point></Placemark>
<Placemark><name>R008</name><styleUrl>#gp</styleUrl><Point><coordinates>-4.35146536,53.15230788,0</coordinates></Point></Placemark>
<Placemark><name>R009</name><styleUrl>#gp</styleUrl><Point><coordinates>-4.33911040,53.14808457,0</coordinates></Point></Placemark>
<Placemark><name>R010</name><styleUrl>#gp</styleUrl><Point><coordinates>-4.37335161,53.14542686,0</coordinates></Point></Placemark>
<Placemark><name>R011</name><styleUrl>#gp</styleUrl><Point><coordinates>-4.36527961,53.15133465,0</coordinates></Point></Placemark>
<Placemark><name>R012</name><styleUrl>#gp</styleUrl><Point><coordinates>-4.34303811,53.13925183,0</coordinates></Point></Placemark>
<Placemark><name>R013</name><styleUrl>#gp</styleUrl><Point><coordinates>-4.36720008,53.14416114,0</coordinates></Point></Placemark>
<Placemark><name>R014</name><styleUrl>#gp</styleUrl><Point><coordinates>-4.36843358,53.14497277,0</coordinates></Point></Placemark>
<Placemark><name>R015</name><styleUrl>#gp</styleUrl><Point><coordinates>-4.36098723,53.14346097,0</coordinates></Point></Placemark>
<Placemark><name>R016</name><styleUrl>#gp</styleUrl><Point><coordinates>-4.37509675,53.14266324,0</coordinates></Point></Placemark>
<Placemark><name>R017</name><styleUrl>#gp</styleUrl><Point><coordinates>-4.35922669,53.14380608,0</coordinates></Point></Placemark>
<Placemark><name>R018</name><styleUrl>#gp</styleUrl><Point><coordinates>-4.34390934,53.14382731,0</coordinates></Point></Placemark>
<Placemark><name>R019</name><styleUrl>#gp</styleUrl><Point><coordinates>-4.33663329,53.14534871,0</coordinates></Point></Placemark>
<Placemark><name>R020</name><styleUrl>#gp</styleUrl><Point><coordinates>-4.34115169,53.14423583,0</coordinates></Point></Placemark>
<Placemark><name>R021</name><styleUrl>#gp</styleUrl><Point><coordinates>-4.34311813,53.15211645,0</coordinates></Point></Placemark>
<Placemark><name>R022</name><styleUrl>#gp</styleUrl><Point><coordinates>-4.33695983,53.14362411,0</coordinates></Point></Placemark>
<Placemark><name>R023</name><styleUrl>#gp</styleUrl><Point><coordinates>-4.36384101,53.13563332,0</coordinates></Point></Placemark>
<Placemark><name>R024</name><styleUrl>#gp</styleUrl><Point><coordinates>-4.33502047,53.14618865,0</coordinates></Point></Placemark>
<Placemark><name>R025</name><styleUrl>#gp</styleUrl><Point><coordinates>-4.36836839,53.15386626,0</coordinates></Point></Placemark>
<Placemark><name>R026</name><styleUrl>#gp</styleUrl><Point><coordinates>-4.35143598,53.13885603,0</coordinates></Point></Placemark>
<Placemark><name>R027</name><styleUrl>#gp</styleUrl><Point><coordinates>-4.35535791,53.14421088,0</coordinates></Point></Placemark>
<Placemark><name>R028</name><styleUrl>#gp</styleUrl><Point><coordinates>-4.34864108,53.14851907,0</coordinates></Point></Placemark>
<Placemark><name>R029</name><styleUrl>#gp</styleUrl><Point><coordinates>-4.35522796,53.14577070,0</coordinates></Point></Placemark>
<Placemark><name>R030</name><styleUrl>#gp</styleUrl><Point><coordinates>-4.35843137,53.14629259,0</coordinates></Point></Placemark>
<Placemark><name>R031</name><styleUrl>#gp</styleUrl><Point><coordinates>-4.37249270,53.13920685,0</coordinates></Point></Placemark>
<Placemark><name>R032</name><styleUrl>#gp</styleUrl><Point><coordinates>-4.34719333,53.15391708,0</coordinates></Point></Placemark>
<Placemark><name>R033</name><styleUrl>#gp</styleUrl><Point><coordinates>-4.35382059,53.14839157,0</coordinates></Point></Placemark>
<Placemark><name>R034</name><styleUrl>#gp</styleUrl><Point><coordinates>-4.34904815,53.15328978,0</coordinates></Point></Placemark>
<Placemark><name>R035</name><styleUrl>#gp</styleUrl><Point><coordinates>-4.34747791,53.14337305,0</coordinates></Point></Placemark>
<Placemark><name>R036</name><styleUrl>#gp</styleUrl><Point><coordinates>-4.35386813,53.13682362,0</coordinates></Point></Placemark>
<Placemark><name>R037</name><styleUrl>#gp</styleUrl><Point><coordinates>-4.36013185,53.15381857,0</coordinates></Point></Placemark>
<Placemark><name>R038</name><styleUrl>#gp</styleUrl><Point><coordinates>-4.35437192,53.13939139,0</coordinates></Point></Placemark>
<Placemark><name>R039</name><styleUrl>#gp</styleUrl><Point><coordinates>-4.36556071,53.14622033,0</coordinates></Point></Placemark>
<Placemark><name>R040</name><styleUrl>#gp</styleUrl><Point><coordinates>-4.37928748,53.14181259,0</coordinates></Point></Placemark>
<Placemark><name>R041</name><styleUrl>#gp</styleUrl><Point><coordinates>-4.35511072,53.14204443,0</coordinates></Point></Placemark>
<Placemark><name>R042</name><styleUrl>#gp</styleUrl><Point><coordinates>-4.35075842,53.13469126,0</coordinates></Point></Placemark>
<Placemark><name>R043</name><styleUrl>#gp</styleUrl><Point><coordinates>-4.35690750,53.13692890,0</coordinates></Point></Placemark>
<Placemark><name>R044</name><styleUrl>#gp</styleUrl><Point><coordinates>-4.34693488,53.14043560,0</coordinates></Point></Placemark>
<Placemark><name>R045</name><styleUrl>#gp</styleUrl><Point><coordinates>-4.35719899,53.14964729,0</coordinates></Point></Placemark>
<Placemark><name>R046</name><styleUrl>#gp</styleUrl><Point><coordinates>-4.36185050,53.13990046,0</coordinates></Point></Placemark>
<Placemark><name>R047</name><styleUrl>#gp</styleUrl><Point><coordinates>-4.36925486,53.14818243,0</coordinates></Point></Placemark>
<Placemark><name>R048</name><styleUrl>#gp</styleUrl><Point><coordinates>-4.34834331,53.15199549,0</coordinates></Point></Placemark>
<Placemark><name>R049</name><styleUrl>#gp</styleUrl><Point><coordinates>-4.37678663,53.13895753,0</coordinates></Point></Placemark>
<Placemark><name>R050</name><styleUrl>#gp</styleUrl><Point><coordinates>-4.36025851,53.13298372,0</coordinates></Point></Placemark>
<Placemark><name>R051</name><styleUrl>#gp</styleUrl><Point><coordinates>-4.36700657,53.14243780,0</coordinates></Point></Placemark>
<Placemark><name>R052</name><styleUrl>#gp</styleUrl><Point><coordinates>-4.36091022,53.15015096,0</coordinates></Point></Placemark>
<Placemark><name>R053</name><styleUrl>#gp</styleUrl><Point><coordinates>-4.35052253,53.14920481,0</coordinates></Point></Placemark>
<Placemark><name>R054</name><styleUrl>#gp</styleUrl><Point><coordinates>-4.36051396,53.13840478,0</coordinates></Point></Placemark>
<Placemark><name>R055</name><styleUrl>#gp</styleUrl><Point><coordinates>-4.33725840,53.14141274,0</coordinates></Point></Placemark>
<Placemark><name>R056</name><styleUrl>#gp</styleUrl><Point><coordinates>-4.36947097,53.14045747,0</coordinates></Point></Placemark>
<Placemark><name>R057</name><styleUrl>#gp</styleUrl><Point><coordinates>-4.37038568,53.15182289,0</coordinates></Point></Placemark>
<Placemark><name>R058</name><styleUrl>#gp</styleUrl><Point><coordinates>-4.34811664,53.13937651,0</coordinates></Point></Placemark>
<Placemark><name>R059</name><styleUrl>#gp</styleUrl><Point><coordinates>-4.35283007,53.15420679,0</coordinates></Point></Placemark>
<Placemark><name>R060</name><styleUrl>#gp</styleUrl><Point><coordinates>-4.36348247,53.14791598,0</coordinates></Point></Placemark>
<Placemark><name>R061</name><styleUrl>#gp</styleUrl><Point><coordinates>-4.36364630,53.14632490,0</coordinates></Point></Placemark>
<Placemark><name>R062</name><styleUrl>#gp</styleUrl><Point><coordinates>-4.34243075,53.14281705,0</coordinates></Point></Placemark>
<Placemark><name>R063</name><styleUrl>#gp</styleUrl><Point><coordinates>-4.36535285,53.13833208,0</coordinates></Point></Placemark>
<Placemark><name>R064</name><styleUrl>#gp</styleUrl><Point><coordinates>-4.37246429,53.15005428,0</coordinates></Point></Placemark>
<Placemark><name>R065</name><styleUrl>#gp</styleUrl><Point><coordinates>-4.37089634,53.14111601,0</coordinates></Point></Placemark>
<Placemark><name>R066</name><styleUrl>#gp</styleUrl><Point><coordinates>-4.35304408,53.13430353,0</coordinates></Point></Placemark>
<Placemark><name>R067</name><styleUrl>#gp</styleUrl><Point><coordinates>-4.36332038,53.15364921,0</coordinates></Point></Placemark>
<Placemark><name>R068</name><styleUrl>#gp</styleUrl><Point><coordinates>-4.36072490,53.14598368,0</coordinates></Point></Placemark>
<Placemark><name>R069</name><styleUrl>#gp</styleUrl><Point><coordinates>-4.35206297,53.13571924,0</coordinates></Point></Placemark>
<Placemark><name>R070</name><styleUrl>#gp</styleUrl><Point><coordinates>-4.37648102,53.14176257,0</coordinates></Point></Placemark>
<Placemark><name>R071</name><styleUrl>#gp</styleUrl><Point><coordinates>-4.36801178,53.14662834,0</coordinates></Point></Placemark>
<Placemark><name>R072</name><styleUrl>#gp</styleUrl><Point><coordinates>-4.34602072,53.14640390,0</coordinates></Point></Placemark>
<Placemark><name>R073</name><styleUrl>#gp</styleUrl><Point><coordinates>-4.33900351,53.14444081,0</coordinates></Point></Placemark>
<Placemark><name>R074</name><styleUrl>#gp</styleUrl><Point><coordinates>-4.34022793,53.15012605,0</coordinates></Point></Placemark>
<Placemark><name>R075</name><styleUrl>#gp</styleUrl><Point><coordinates>-4.36504415,53.14199220,0</coordinates></Point></Placemark>
<Placemark><name>R076</name><styleUrl>#gp</styleUrl><Point><coordinates>-4.35474679,53.15449257,0</coordinates></Point></Placemark>
<Placemark><name>R077</name><styleUrl>#gp</styleUrl><Point><coordinates>-4.37424748,53.14759652,0</coordinates></Point></Placemark>
<Placemark><name>R078</name><styleUrl>#gp</styleUrl><Point><coordinates>-4.35039909,53.15085980,0</coordinates></Point></Placemark>
<Placemark><name>R079</name><styleUrl>#gp</styleUrl><Point><coordinates>-4.36093366,53.13539883,0</coordinates></Point></Placemark>
<Placemark><name>R080</name><styleUrl>#gp</styleUrl><Point><coordinates>-4.35048801,53.15555227,0</coordinates></Point></Placemark>
<Placemark><name>R081</name><styleUrl>#gp</styleUrl><Point><coordinates>-4.36603670,53.14775104,0</coordinates></Point></Placemark>
<Placemark><name>R082</name><styleUrl>#gp</styleUrl><Point><coordinates>-4.35290907,53.14446791,0</coordinates></Point></Placemark>
<Placemark><name>R083</name><styleUrl>#gp</styleUrl><Point><coordinates>-4.35351899,53.15312953,0</coordinates></Point></Placemark>
<Placemark><name>R084</name><styleUrl>#gp</styleUrl><Point><coordinates>-4.37075478,53.14676973,0</coordinates></Point></Placemark>
<Placemark><name>R085</name><styleUrl>#gp</styleUrl><Point><coordinates>-4.36480660,53.15241579,0</coordinates></Point></Placemark>
<Placemark><name>R086</name><styleUrl>#gp</styleUrl><Point><coordinates>-4.35316116,53.15725091,0</coordinates></Point></Placemark>
<Placemark><name>R087</name><styleUrl>#gp</styleUrl><Point><coordinates>-4.37011454,53.13604351,0</coordinates></Point></Placemark>
<Placemark><name>R088</name><styleUrl>#gp</styleUrl><Point><coordinates>-4.36501298,53.15489053,0</coordinates></Point></Placemark>
<Placemark><name>R089</name><styleUrl>#gp</styleUrl><Point><coordinates>-4.34091180,53.14732987,0</coordinates></Point></Placemark>
<Placemark><name>R090</name><styleUrl>#gp</styleUrl><Point><coordinates>-4.36834103,53.15236439,0</coordinates></Point></Placemark>
<Placemark><name>R091</name><styleUrl>#gp</styleUrl><Point><coordinates>-4.34858289,53.15495871,0</coordinates></Point></Placemark>
<Placemark><name>R092</name><styleUrl>#gp</styleUrl><Point><coordinates>-4.34175105,53.14175780,0</coordinates></Point></Placemark>
<Placemark><name>R093</name><styleUrl>#gp</styleUrl><Point><coordinates>-4.34264803,53.15078963,0</coordinates></Point></Placemark>
<Placemark><name>R094</name><styleUrl>#gp</styleUrl><Point><coordinates>-4.35524652,53.13370701,0</coordinates></Point></Placemark>
<Placemark><name>R095</name><styleUrl>#gp</styleUrl><Point><coordinates>-4.37807914,53.14346054,0</coordinates></Point></Placemark>
<Placemark><name>R096</name><styleUrl>#gp</styleUrl><Point><coordinates>-4.33947570,53.14096908,0</coordinates></Point></Placemark>
<Placemark><name>R097</name><styleUrl>#gp</styleUrl><Point><coordinates>-4.36459150,53.13340121,0</coordinates></Point></Placemark>
<Placemark><name>R098</name><styleUrl>#gp</styleUrl><Point><coordinates>-4.36228746,53.13244356,0</coordinates></Point></Placemark>
<Placemark><name>R099</name><styleUrl>#gp</styleUrl><Point><coordinates>-4.36637456,53.13442581,0</coordinates></Point></Placemark>
<Placemark><name>R100</name><styleUrl>#gp</styleUrl><Point><coordinates>-4.35675811,53.13482884,0</coordinates></Point></Placemark>
<Placemark><name>R101</name><styleUrl>#gp</styleUrl><Point><coordinates>-4.34515542,53.14954175,0</coordinates></Point></Placemark>
<Placemark><name>R102</name><styleUrl>#gp</styleUrl><Point><coordinates>-4.34913139,53.14629669,0</coordinates></Point></Placemark>
<Placemark><name>R103</name><styleUrl>#gp</styleUrl><Point><coordinates>-4.37694362,53.14477704,0</coordinates></Point></Placemark>
<Placemark><name>R104</name><styleUrl>#gp</styleUrl><Point><coordinates>-4.34512916,53.15133688,0</coordinates></Point></Placemark>
<Placemark><name>R105</name><styleUrl>#gp</styleUrl><Point><coordinates>-4.34358359,53.14569847,0</coordinates></Point></Placemark>
<Placemark><name>R106</name><styleUrl>#gp</styleUrl><Point><coordinates>-4.34350590,53.14149938,0</coordinates></Point></Placemark>
<Placemark><name>R107</name><styleUrl>#gp</styleUrl><Point><coordinates>-4.36603960,53.14103284,0</coordinates></Point></Placemark>
<Placemark><name>R108</name><styleUrl>#gp</styleUrl><Point><coordinates>-4.34936758,53.13561424,0</coordinates></Point></Placemark>
<Placemark><name>R109</name><styleUrl>#gp</styleUrl><Point><coordinates>-4.36401387,53.14049497,0</coordinates></Point></Placemark>
<Placemark><name>R110</name><styleUrl>#gp</styleUrl><Point><coordinates>-4.36389669,53.14475818,0</coordinates></Point></Placemark>
<Placemark><name>R111</name><styleUrl>#gp</styleUrl><Point><coordinates>-4.34597045,53.13766558,0</coordinates></Point></Placemark>
<Placemark><name>R112</name><styleUrl>#gp</styleUrl><Point><coordinates>-4.34735904,53.14198898,0</coordinates></Point></Placemark>
<Placemark><name>R113</name><styleUrl>#gp</styleUrl><Point><coordinates>-4.37025329,53.14467041,0</coordinates></Point></Placemark>
<Placemark><name>R114</name><styleUrl>#gp</styleUrl><Point><coordinates>-4.35720045,53.14350546,0</coordinates></Point></Placemark>
<Placemark><name>R115</name><styleUrl>#gp</styleUrl><Point><coordinates>-4.37578208,53.13804072,0</coordinates></Point></Placemark>
<Placemark><name>R116</name><styleUrl>#gp</styleUrl><Point><coordinates>-4.35946753,53.14762521,0</coordinates></Point></Placemark>
<Placemark><name>R117</name><styleUrl>#gp</styleUrl><Point><coordinates>-4.35730595,53.13246592,0</coordinates></Point></Placemark>
<Placemark><name>R118</name><styleUrl>#gp</styleUrl><Point><coordinates>-4.36701444,53.13940045,0</coordinates></Point></Placemark>
<Placemark><name>R119</name><styleUrl>#gp</styleUrl><Point><coordinates>-4.35511704,53.14945384,0</coordinates></Point></Placemark>
<Placemark><name>R120</name><styleUrl>#gp</styleUrl><Point><coordinates>-4.37610605,53.14044207,0</coordinates></Point></Placemark>
<Placemark><name>R121</name><styleUrl>#gp</styleUrl><Point><coordinates>-4.35482554,53.15781590,0</coordinates></Point></Placemark>
<Placemark><name>R122</name><styleUrl>#gp</styleUrl><Point><coordinates>-4.35741337,53.15626047,0</coordinates></Point></Placemark>
<Placemark><name>R123</name><styleUrl>#gp</styleUrl><Point><coordinates>-4.36288703,53.13462369,0</coordinates></Point></Placemark>
<Placemark><name>R124</name><styleUrl>#gp</styleUrl><Point><coordinates>-4.34669809,53.13655972,0</coordinates></Point></Placemark>
<Placemark><name>R125</name><styleUrl>#gp</styleUrl><Point><coordinates>-4.36719448,53.14957659,0</coordinates></Point></Placemark>
<Placemark><name>R126</name><styleUrl>#gp</styleUrl><Point><coordinates>-4.35537488,53.15888756,0</coordinates></Point></Placemark>
<Placemark><name>R127</name><styleUrl>#gp</styleUrl><Point><coordinates>-4.34088933,53.14029302,0</coordinates></Point></Placemark>
<Placemark><name>R128</name><styleUrl>#gp</styleUrl><Point><coordinates>-4.36486986,53.14877854,0</coordinates></Point></Placemark>
<Placemark><name>R129</name><styleUrl>#gp</styleUrl><Point><coordinates>-4.34543219,53.14841871,0</coordinates></Point></Placemark>
<Placemark><name>R130</name><styleUrl>#gp</styleUrl><Point><coordinates>-4.36041183,53.14213092,0</coordinates></Point></Placemark>
<Placemark><name>R131</name><styleUrl>#gp</styleUrl><Point><coordinates>-4.35953485,53.15654122,0</coordinates></Point></Placemark>
<Placemark><name>R132</name><styleUrl>#gp</styleUrl><Point><coordinates>-4.37510243,53.14517704,0</coordinates></Point></Placemark>
<Placemark><name>R133</name><styleUrl>#gp</styleUrl><Point><coordinates>-4.37299228,53.14135206,0</coordinates></Point></Placemark>
<Placemark><name>R134</name><styleUrl>#gp</styleUrl><Point><coordinates>-4.34175017,53.14918712,0</coordinates></Point></Placemark>
<Placemark><name>R135</name><styleUrl>#gp</styleUrl><Point><coordinates>-4.35218837,53.14099542,0</coordinates></Point></Placemark>
<Placemark><name>R136</name><styleUrl>#gp</styleUrl><Point><coordinates>-4.36945354,53.14274785,0</coordinates></Point></Placemark>
<Placemark><name>R137</name><styleUrl>#gp</styleUrl><Point><coordinates>-4.35938082,53.13641774,0</coordinates></Point></Placemark>
<Placemark><name>R138</name><styleUrl>#gp</styleUrl><Point><coordinates>-4.36087948,53.15266997,0</coordinates></Point></Placemark>
<Placemark><name>R139</name><styleUrl>#gp</styleUrl><Point><coordinates>-4.33727276,53.14643935,0</coordinates></Point></Placemark>
<Placemark><name>R140</name><styleUrl>#gp</styleUrl><Point><coordinates>-4.37293885,53.14276922,0</coordinates></Point></Placemark>
<Placemark><name>R141</name><styleUrl>#gp</styleUrl><Point><coordinates>-4.36379593,53.13677249,0</coordinates></Point></Placemark>
<Placemark><name>R142</name><styleUrl>#gp</styleUrl><Point><coordinates>-4.33825767,53.15011532,0</coordinates></Point></Placemark>
<Placemark><name>R143</name><styleUrl>#gp</styleUrl><Point><coordinates>-4.34489635,53.15260830,0</coordinates></Point></Placemark>
<Placemark><name>R144</name><styleUrl>#gp</styleUrl><Point><coordinates>-4.36075809,53.15138486,0</coordinates></Point></Placemark>
<Placemark><name>R145</name><styleUrl>#gp</styleUrl><Point><coordinates>-4.34596562,53.15504628,0</coordinates></Point></Placemark>
<Placemark><name>R146</name><styleUrl>#gp</styleUrl><Point><coordinates>-4.36958434,53.14933123,0</coordinates></Point></Placemark>
<Placemark><name>R147</name><styleUrl>#gp</styleUrl><Point><coordinates>-4.34936685,53.13784674,0</coordinates></Point></Placemark>
<Placemark><name>R148</name><styleUrl>#gp</styleUrl><Point><coordinates>-4.35271065,53.14204245,0</coordinates></Point></Placemark>
<Placemark><name>R149</name><styleUrl>#gp</styleUrl><Point><coordinates>-4.36282293,53.14236090,0</coordinates></Point></Placemark>
<Placemark><name>R150</name><styleUrl>#gp</styleUrl><Point><coordinates>-4.35973604,53.14046928,0</coordinates></Point></Placemark>
<Placemark><name>R151</name><styleUrl>#gp</styleUrl><Point><coordinates>-4.33990994,53.14631471,0</coordinates></Point></Placemark>
<Placemark><name>R152</name><styleUrl>#gp</styleUrl><Point><coordinates>-4.35478595,53.15212085,0</coordinates></Point></Placemark>
<Placemark><name>R153</name><styleUrl>#gp</styleUrl><Point><coordinates>-4.35441140,53.13565841,0</coordinates></Point></Placemark>
<Placemark><name>R154</name><styleUrl>#gp</styleUrl><Point><coordinates>-4.34753737,53.14734053,0</coordinates></Point></Placemark>
<Placemark><name>R155</name><styleUrl>#gp</styleUrl><Point><coordinates>-4.36068804,53.15523173,0</coordinates></Point></Placemark>
<Placemark><name>R156</name><styleUrl>#gp</styleUrl><Point><coordinates>-4.37666041,53.14601178,0</coordinates></Point></Placemark>
<Placemark><name>R157</name><styleUrl>#gp</styleUrl><Point><coordinates>-4.35668647,53.14747172,0</coordinates></Point></Placemark>
<Placemark><name>R158</name><styleUrl>#gp</styleUrl><Point><coordinates>-4.36579393,53.15369718,0</coordinates></Point></Placemark>
<Placemark><name>R159</name><styleUrl>#gp</styleUrl><Point><coordinates>-4.35132900,53.13670658,0</coordinates></Point></Placemark>
<Placemark><name>R160</name><styleUrl>#gp</styleUrl><Point><coordinates>-4.34503940,53.14488937,0</coordinates></Point></Placemark>
<Placemark><name>R161</name><styleUrl>#gp</styleUrl><Point><coordinates>-4.36153434,53.13642808,0</coordinates></Point></Placemark>
<Placemark><name>R162</name><styleUrl>#gp</styleUrl><Point><coordinates>-4.34967809,53.14217788,0</coordinates></Point></Placemark>
<Placemark><name>R163</name><styleUrl>#gp</styleUrl><Point><coordinates>-4.37340206,53.13734104,0</coordinates></Point></Placemark>
<Placemark><name>R164</name><styleUrl>#gp</styleUrl><Point><coordinates>-4.34488229,53.14230843,0</coordinates></Point></Placemark>
<Placemark><name>R165</name><styleUrl>#gp</styleUrl><Point><coordinates>-4.36536374,53.14329045,0</coordinates></Point></Placemark>
<Placemark><name>R166</name><styleUrl>#gp</styleUrl><Point><coordinates>-4.35631103,53.14078080,0</coordinates></Point></Placemark>
<Placemark><name>R167</name><styleUrl>#gp</styleUrl><Point><coordinates>-4.37200547,53.14821576,0</coordinates></Point></Placemark>
<Placemark><name>R168</name><styleUrl>#gp</styleUrl><Point><coordinates>-4.34361168,53.14739452,0</coordinates></Point></Placemark>
<Placemark><name>R169</name><styleUrl>#gp</styleUrl><Point><coordinates>-4.36315555,53.13845216,0</coordinates></Point></Placemark>
<Placemark><name>R170</name><styleUrl>#gp</styleUrl><Point><coordinates>-4.35326726,53.15574551,0</coordinates></Point></Placemark>
<Placemark><name>R171</name><styleUrl>#gp</styleUrl><Point><coordinates>-4.35763654,53.14843472,0</coordinates></Point></Placemark>
<Placemark><name>R172</name><styleUrl>#gp</styleUrl><Point><coordinates>-4.35836385,53.13392939,0</coordinates></Point></Placemark>
<Placemark><name>R173</name><styleUrl>#gp</styleUrl><Point><coordinates>-4.33993965,53.14221421,0</coordinates></Point></Placemark>
<Placemark><name>R174</name><styleUrl>#gp</styleUrl><Point><coordinates>-4.35715023,53.14239786,0</coordinates></Point></Placemark>
<Placemark><name>R175</name><styleUrl>#gp</styleUrl><Point><coordinates>-4.35291588,53.15060777,0</coordinates></Point></Placemark>
<Placemark><name>R176</name><styleUrl>#gp</styleUrl><Point><coordinates>-4.37945737,53.14063945,0</coordinates></Point></Placemark>
<Placemark><name>R177</name><styleUrl>#gp</styleUrl><Point><coordinates>-4.34934411,53.14372914,0</coordinates></Point></Placemark>
<Placemark><name>R178</name><styleUrl>#gp</styleUrl><Point><coordinates>-4.34711732,53.14928999,0</coordinates></Point></Placemark>
<Placemark><name>R179</name><styleUrl>#gp</styleUrl><Point><coordinates>-4.35874168,53.13152128,0</coordinates></Point></Placemark>
<Placemark><name>R180</name><styleUrl>#gp</styleUrl><Point><coordinates>-4.35794286,53.15432320,0</coordinates></Point></Placemark>
<Placemark><name>R181</name><styleUrl>#gp</styleUrl><Point><coordinates>-4.36667182,53.13550873,0</coordinates></Point></Placemark>
<Placemark><name>R182</name><styleUrl>#gp</styleUrl><Point><coordinates>-4.37424023,53.14418634,0</coordinates></Point></Placemark>
<Placemark><name>R183</name><styleUrl>#gp</styleUrl><Point><coordinates>-4.34955682,53.14756952,0</coordinates></Point></Placemark>
<Placemark><name>R184</name><styleUrl>#gp</styleUrl><Point><coordinates>-4.35655833,53.13958998,0</coordinates></Point></Placemark>
<Placemark><name>R185</name><styleUrl>#gp</styleUrl><Point><coordinates>-4.34545410,53.13878076,0</coordinates></Point></Placemark>
<Placemark><name>R186</name><styleUrl>#gp</styleUrl><Point><coordinates>-4.36297348,53.15253491,0</coordinates></Point></Placemark>
<Placemark><name>R187</name><styleUrl>#gp</styleUrl><Point><coordinates>-4.36343293,53.14347537,0</coordinates></Point></Placemark>
<Placemark><name>R188</name><styleUrl>#gp</styleUrl><Point><coordinates>-4.34773968,53.15044475,0</coordinates></Point></Placemark>
<Placemark><name>R189</name><styleUrl>#gp</styleUrl><Point><coordinates>-4.36862310,53.13472454,0</coordinates></Point></Placemark>
<Placemark><name>R190</name><styleUrl>#gp</styleUrl><Point><coordinates>-4.33732238,53.14826086,0</coordinates></Point></Placemark>
<Placemark><name>R191</name><styleUrl>#gp</styleUrl><Point><coordinates>-4.35675519,53.15732456,0</coordinates></Point></Placemark>
<Placemark><name>R192</name><styleUrl>#gp</styleUrl><Point><coordinates>-4.35907146,53.14918402,0</coordinates></Point></Placemark>
<Placemark><name>R193</name><styleUrl>#gp</styleUrl><Point><coordinates>-4.37456214,53.13934360,0</coordinates></Point></Placemark>
<Placemark><name>R194</name><styleUrl>#gp</styleUrl><Point><coordinates>-4.34458835,53.14039913,0</coordinates></Point></Placemark>
<Placemark><name>R195</name><styleUrl>#gp</styleUrl><Point><coordinates>-4.35837855,53.15092134,0</coordinates></Point></Placemark>
<Placemark><name>R196</name><styleUrl>#gp</styleUrl><Point><coordinates>-4.35230738,53.13767446,0</coordinates></Point></Placemark>
<Placemark><name>R197</name><styleUrl>#gp</styleUrl><Point><coordinates>-4.35473423,53.13789710,0</coordinates></Point></Placemark>
<Placemark><name>R198</name><styleUrl>#gp</styleUrl><Point><coordinates>-4.37209841,53.13614964,0</coordinates></Point></Placemark>
<Placemark><name>R199</name><styleUrl>#gp</styleUrl><Point><coordinates>-4.36135061,53.14784770,0</coordinates></Point></Placemark>
<Placemark><name>R200</name><styleUrl>#gp</styleUrl><Point><coordinates>-4.35588428,53.15546177,0</coordinates></Point></Placemark>
<Placemark><name>R201</name><styleUrl>#gp</styleUrl><Point><coordinates>-4.33882008,53.14310205,0</coordinates></Point></Placemark>
<Placemark><name>R202</name><styleUrl>#gp</styleUrl><Point><coordinates>-4.35874918,53.13907814,0</coordinates></Point></Placemark>
<Placemark><name>R203</name><styleUrl>#gp</styleUrl><Point><coordinates>-4.36662711,53.13746878,0</coordinates></Point></Placemark>
<Placemark><name>R204</name><styleUrl>#gp</styleUrl><Point><coordinates>-4.35439917,53.14734975,0</coordinates></Point></Placemark>
<Placemark><name>R205</name><styleUrl>#gp</styleUrl><Point><coordinates>-4.34999016,53.14523588,0</coordinates></Point></Placemark>
<Placemark><name>R206</name><styleUrl>#gp</styleUrl><Point><coordinates>-4.36138207,53.13400710,0</coordinates></Point></Placemark>
<Placemark><name>R207</name><styleUrl>#gp</styleUrl><Point><coordinates>-4.37968229,53.14297624,0</coordinates></Point></Placemark>
<Placemark><name>R208</name><styleUrl>#gp</styleUrl><Point><coordinates>-4.36419883,53.13937101,0</coordinates></Point></Placemark>
<Placemark><name>R209</name><styleUrl>#gp</styleUrl><Point><coordinates>-4.33954801,53.15156629,0</coordinates></Point></Placemark>
<Placemark><name>R210</name><styleUrl>#gp</styleUrl><Point><coordinates>-4.36201517,53.14472540,0</coordinates></Point></Placemark>
<Placemark><name>R211</name><styleUrl>#gp</styleUrl><Point><coordinates>-4.33521732,53.14463564,0</coordinates></Point></Placemark>
<Placemark><name>R212</name><styleUrl>#gp</styleUrl><Point><coordinates>-4.36875632,53.13790564,0</coordinates></Point></Placemark>
<Placemark><name>R213</name><styleUrl>#gp</styleUrl><Point><coordinates>-4.35880392,53.14517750,0</coordinates></Point></Placemark>
<Placemark><name>R214</name><styleUrl>#gp</styleUrl><Point><coordinates>-4.35879793,53.13503029,0</coordinates></Point></Placemark>
<Placemark><name>R215</name><styleUrl>#gp</styleUrl><Point><coordinates>-4.35585896,53.15093078,0</coordinates></Point></Placemark>
<Placemark><name>R216</name><styleUrl>#gp</styleUrl><Point><coordinates>-4.35418006,53.14301769,0</coordinates></Point></Placemark>
<Placemark><name>R217</name><styleUrl>#gp</styleUrl><Point><coordinates>-4.36286763,53.14938294,0</coordinates></Point></Placemark>
<Placemark><name>R218</name><styleUrl>#gp</styleUrl><Point><coordinates>-4.34098200,53.13897311,0</coordinates></Point></Placemark>
<Placemark><name>R219</name><styleUrl>#gp</styleUrl><Point><coordinates>-4.36709212,53.15070611,0</coordinates></Point></Placemark>
<Placemark><name>R220</name><styleUrl>#gp</styleUrl><Point><coordinates>-4.36836218,53.13677521,0</coordinates></Point></Placemark>
</Folder></Document></kml>