<?xml version="1.0" encoding="UTF-8"?>
<kml xmlns="http://www.opengis.net/kml/2.2"><Document>
<name>georef_grid</name>
<Style id="gp"><IconStyle><scale>0.9</scale><Icon><href>http://maps.google.com/mapfiles/kml/pushpin/blue-pushpin.png</href></Icon></IconStyle><LabelStyle><scale>0</scale></LabelStyle></Style>
<Style id="gl"><LineStyle><color>96ffff00</color><width>1.4</width></LineStyle><LabelStyle><scale>0.7</scale></LabelStyle></Style>
<Folder><name>guide graticule (switch OFF before capturing)</name>
<Placemark><name>E 241000</name><styleUrl>#gl</styleUrl><LineString><tessellate>1</tessellate><coordinates>-4.37792268,53.12950799,0 -4.37796580,53.13028864,0 -4.37800893,53.13106929,0 -4.37805206,53.13184994,0 -4.37809519,53.13263059,0 -4.37813832,53.13341124,0 -4.37818145,53.13419189,0 -4.37822459,53.13497254,0 -4.37826773,53.13575319,0 -4.37831087,53.13653383,0 -4.37835401,53.13731448,0 -4.37839715,53.13809513,0 -4.37844030,53.13887578,0 -4.37848344,53.13965643,0 -4.37852659,53.14043708,0 -4.37856974,53.14121772,0 -4.37861290,53.14199837,0 -4.37865605,53.14277902,0 -4.37869921,53.14355967,0 -4.37874237,53.14434031,0 -4.37878553,53.14512096,0 -4.37882870,53.14590161,0 -4.37887186,53.14668226,0 -4.37891503,53.14746290,0 -4.37895820,53.14824355,0 -4.37900137,53.14902420,0 -4.37904455,53.14980484,0 -4.37908772,53.15058549,0 -4.37913090,53.15136614,0 -4.37917408,53.15214678,0 -4.37921726,53.15292743,0 -4.37926044,53.15370807,0 -4.37930363,53.15448872,0 -4.37934682,53.15526937,0 -4.37939001,53.15605001,0 -4.37943320,53.15683066,0 -4.37947639,53.15761130,0 -4.37951959,53.15839195,0 -4.37956279,53.15917259,0 -4.37960599,53.15995324,0</coordinates></LineString></Placemark>
<Placemark><name>E 241500</name><styleUrl>#gl</styleUrl><LineString><tessellate>1</tessellate><coordinates>-4.37045652,53.12965696,0 -4.37049951,53.13043761,0 -4.37054250,53.13121826,0 -4.37058549,53.13199892,0 -4.37062848,53.13277957,0 -4.37067148,53.13356022,0 -4.37071448,53.13434088,0 -4.37075748,53.13512153,0 -4.37080048,53.13590218,0 -4.37084349,53.13668284,0 -4.37088649,53.13746349,0 -4.37092950,53.13824414,0 -4.37097251,53.13902479,0 -4.37101552,53.13980545,0 -4.37105854,53.14058610,0 -4.37110155,53.14136675,0 -4.37114457,53.14214740,0 -4.37118759,53.14292806,0 -4.37123062,53.14370871,0 -4.37127364,53.14448936,0 -4.37131667,53.14527001,0 -4.37135970,53.14605066,0 -4.37140273,53.14683131,0 -4.37144576,53.14761196,0 -4.37148879,53.14839261,0 -4.37153183,53.14917327,0 -4.37157487,53.14995392,0 -4.37161791,53.15073457,0 -4.37166095,53.15151522,0 -4.37170400,53.15229587,0 -4.37174704,53.15307652,0 -4.37179009,53.15385717,0 -4.37183314,53.15463782,0 -4.37187619,53.15541847,0 -4.37191925,53.15619912,0 -4.37196230,53.15697977,0 -4.37200536,53.15776042,0 -4.37204842,53.15854107,0 -4.37209149,53.15932172,0 -4.37213455,53.16010236,0</coordinates></LineString></Placemark>
<Placemark><name>E 242000</name><styleUrl>#gl</styleUrl><LineString><tessellate>1</tessellate><coordinates>-4.36299029,53.12980545,0 -4.36303314,53.13058611,0 -4.36307600,53.13136677,0 -4.36311885,53.13214743,0 -4.36316171,53.13292808,0 -4.36320458,53.13370874,0 -4.36324744,53.13448940,0 -4.36329030,53.13527006,0 -4.36333317,53.13605071,0 -4.36337604,53.13683137,0 -4.36341891,53.13761203,0 -4.36346179,53.13839268,0 -4.36350466,53.13917334,0 -4.36354754,53.13995400,0 -4.36359042,53.14073465,0 -4.36363330,53.14151531,0 -4.36367618,53.14229597,0 -4.36371907,53.14307662,0 -4.36376195,53.14385728,0 -4.36380484,53.14463793,0 -4.36384773,53.14541859,0 -4.36389063,53.14619925,0 -4.36393352,53.14697990,0 -4.36397642,53.14776056,0 -4.36401932,53.14854121,0 -4.36406222,53.14932187,0 -4.36410512,53.15010252,0 -4.36414803,53.15088318,0 -4.36419094,53.15166383,0 -4.36423385,53.15244449,0 -4.36427676,53.15322514,0 -4.36431967,53.15400579,0 -4.36436259,53.15478645,0 -4.36440550,53.15556710,0 -4.36444842,53.15634776,0 -4.36449134,53.15712841,0 -4.36453427,53.15790906,0 -4.36457719,53.15868972,0 -4.36462012,53.15947037,0 -4.36466305,53.16025102,0</coordinates></LineString></Placemark>
<Placemark><name>E 242500</name><styleUrl>#gl</styleUrl><LineString><tessellate>1</tessellate><coordinates>-4.35552399,53.12995348,0 -4.35556671,53.13073414,0 -4.35560943,53.13151481,0 -4.35565215,53.13229547,0 -4.35569488,53.13307613,0 -4.35573760,53.13385679,0 -4.35578033,53.13463745,0 -4.35582306,53.13541811,0 -4.35586580,53.13619878,0 -4.35590853,53.13697944,0 -4.35595127,53.13776010,0 -4.35599400,53.13854076,0 -4.35603674,53.13932142,0 -4.35607949,53.14010208,0 -4.35612223,53.14088274,0 -4.35616498,53.14166340,0 -4.35620772,53.14244406,0 -4.35625047,53.14322472,0 -4.35629323,53.14400538,0 -4.35633598,53.14478604,0 -4.35637874,53.14556670,0 -4.35642149,53.14634736,0 -4.35646425,53.14712802,0 -4.35650702,53.14790868,0 -4.35654978,53.14868934,0 -4.35659255,53.14947000,0 -4.35663531,53.15025066,0 -4.35667808,53.15103132,0 -4.35672086,53.15181198,0 -4.35676363,53.15259264,0 -4.35680641,53.15337329,0 -4.35684918,53.15415395,0 -4.35689196,53.15493461,0 -4.35693475,53.15571527,0 -4.35697753,53.15649593,0 -4.35702032,53.15727658,0 -4.35706310,53.15805724,0 -4.35710589,53.15883790,0 -4.35714869,53.15961856,0 -4.35719148,53.16039922,0</coordinates></LineString></Placemark>
<Placemark><name>E 243000</name><styleUrl>#gl</styleUrl><LineString><tessellate>1</tessellate><coordinates>-4.34805763,53.13010104,0 -4.34810022,53.13088171,0 -4.34814280,53.13166237,0 -4.34818539,53.13244304,0 -4.34822798,53.13322371,0 -4.34827057,53.13400437,0 -4.34831316,53.13478504,0 -4.34835576,53.13556570,0 -4.34839835,53.13634637,0 -4.34844095,53.13712703,0 -4.34848355,53.13790770,0 -4.34852616,53.13868837,0 -4.34856876,53.13946903,0 -4.34861137,53.14024970,0 -4.34865398,53.14103036,0 -4.34869659,53.14181102,0 -4.34873920,53.14259169,0 -4.34878182,53.14337235,0 -4.34882443,53.14415302,0 -4.34886705,53.14493368,0 -4.34890967,53.14571435,0 -4.34895230,53.14649501,0 -4.34899492,53.14727567,0 -4.34903755,53.14805634,0 -4.34908018,53.14883700,0 -4.34912281,53.14961766,0 -4.34916544,53.15039833,0 -4.34920807,53.15117899,0 -4.34925071,53.15195965,0 -4.34929335,53.15274032,0 -4.34933599,53.15352098,0 -4.34937863,53.15430164,0 -4.34942128,53.15508230,0 -4.34946392,53.15586297,0 -4.34950657,53.15664363,0 -4.34954922,53.15742429,0 -4.34959188,53.15820495,0 -4.34963453,53.15898562,0 -4.34967719,53.15976628,0 -4.34971985,53.16054694,0</coordinates></LineString></Placemark>
<Placemark><name>E 243500</name><styleUrl>#gl</styleUrl><LineString><tessellate>1</tessellate><coordinates>-4.34059121,53.13024813,0 -4.34063365,53.13102880,0 -4.34067610,53.13180947,0 -4.34071856,53.13259015,0 -4.34076101,53.13337082,0 -4.34080347,53.13415149,0 -4.34084592,53.13493216,0 -4.34088838,53.13571283,0 -4.34093085,53.13649350,0 -4.34097331,53.13727416,0 -4.34101578,53.13805483,0 -4.34105824,53.13883550,0 -4.34110071,53.13961617,0 -4.34114319,53.14039684,0 -4.34118566,53.14117751,0 -4.34122813,53.14195818,0 -4.34127061,53.14273885,0 -4.34131309,53.14351952,0 -4.34135557,53.14430019,0 -4.34139806,53.14508085,0 -4.34144054,53.14586152,0 -4.34148303,53.14664219,0 -4.34152552,53.14742286,0 -4.34156801,53.14820353,0 -4.34161051,53.14898419,0 -4.34165300,53.14976486,0 -4.34169550,53.15054553,0 -4.34173800,53.15132620,0 -4.34178050,53.15210686,0 -4.34182300,53.15288753,0 -4.34186551,53.15366820,0 -4.34190802,53.15444886,0 -4.34195052,53.15522953,0 -4.34199304,53.15601020,0 -4.34203555,53.15679086,0 -4.34207806,53.15757153,0 -4.34212058,53.15835220,0 -4.34216310,53.15913286,0 -4.34220562,53.15991353,0 -4.34224815,53.16069419,0</coordinates></LineString></Placemark>
<Placemark><name>E 244000</name><styleUrl>#gl</styleUrl><LineString><tessellate>1</tessellate><coordinates>-4.33312471,53.13039476,0 -4.33316703,53.13117543,0 -4.33320934,53.13195611,0 -4.33325166,53.13273678,0 -4.33329398,53.13351746,0 -4.33333630,53.13429813,0 -4.33337862,53.13507881,0 -4.33342095,53.13585948,0 -4.33346327,53.13664015,0 -4.33350560,53.13742083,0 -4.33354793,53.13820150,0 -4.33359027,53.13898217,0 -4.33363260,53.13976285,0 -4.33367494,53.14054352,0 -4.33371728,53.14132419,0 -4.33375962,53.14210487,0 -4.33380196,53.14288554,0 -4.33384430,53.14366621,0 -4.33388665,53.14444688,0 -4.33392900,53.14522756,0 -4.33397135,53.14600823,0 -4.33401370,53.14678890,0 -4.33405605,53.14756957,0 -4.33409841,53.14835025,0 -4.33414077,53.14913092,0 -4.33418313,53.14991159,0 -4.33422549,53.15069226,0 -4.33426786,53.15147293,0 -4.33431022,53.15225360,0 -4.33435259,53.15303427,0 -4.33439496,53.15381495,0 -4.33443733,53.15459562,0 -4.33447971,53.15537629,0 -4.33452208,53.15615696,0 -4.33456446,53.15693763,0 -4.33460684,53.15771830,0 -4.33464922,53.15849897,0 -4.33469161,53.15927964,0 -4.33473399,53.16006031,0 -4.33477638,53.16084098,0</coordinates></LineString></Placemark>
<Placemark><name>N 362000</name><styleUrl>#gl</styleUrl><LineString><tessellate>1</tessellate><coordinates>-4.38314395,53.13127604,0 -4.38182768,53.13130240,0 -4.38051141,53.13132874,0 -4.37919513,53.13135506,0 -4.37787886,53.13138137,0 -4.37656258,53.13140767,0 -4.37524630,53.13143395,0 -4.37393002,53.13146021,0 -4.37261374,53.13148646,0 -4.37129745,53.13151270,0 -4.36998116,53.13153892,0 -4.36866487,53.13156513,0 -4.36734858,53.13159133,0 -4.36603229,53.13161750,0 -4.36471599,53.13164367,0 -4.36339969,53.13166982,0 -4.36208339,53.13169595,0 -4.36076709,53.13172207,0 -4.35945078,53.13174818,0 -4.35813448,53.13177427,0 -4.35681817,53.13180035,0 -4.35550186,53.13182641,0 -4.35418555,53.13185246,0 -4.35286923,53.13187849,0 -4.35155292,53.13190451,0 -4.35023660,53.13193052,0 -4.34892028,53.13195651,0 -4.34760395,53.13198248,0 -4.34628763,53.13200844,0 -4.34497130,53.13203439,0 -4.34365497,53.13206032,0 -4.34233864,53.13208624,0 -4.34102231,53.13211214,0 -4.33970598,53.13213803,0 -4.33838964,53.13216390,0 -4.33707330,53.13218976,0 -4.33575696,53.13221561,0 -4.33444062,53.13224144,0 -4.33312427,53.13226725,0 -4.33180792,53.13229305,0</coordinates></LineString></Placemark>
<Placemark><name>N 362500</name><styleUrl>#gl</styleUrl><LineString><tessellate>1</tessellate><coordinates>-4.38339260,53.13576663,0 -4.38207619,53.13579299,0 -4.38075978,53.13581933,0 -4.37944337,53.13584566,0 -4.37812696,53.13587198,0 -4.37681055,53.13589828,0 -4.37549413,53.13592456,0 -4.37417771,53.13595083,0 -4.37286129,53.13597709,0 -4.37154487,53.13600333,0 -4.37022844,53.13602956,0 -4.36891202,53.13605577,0 -4.36759559,53.13608197,0 -4.36627916,53.13610815,0 -4.36496272,53.13613432,0 -4.36364629,53.13616047,0 -4.36232985,53.13618661,0 -4.36101341,53.13621274,0 -4.35969697,53.13623885,0 -4.35838053,53.13626494,0 -4.35706408,53.13629102,0 -4.35574763,53.13631709,0 -4.35443118,53.13634314,0 -4.35311473,53.13636918,0 -4.35179828,53.13639520,0 -4.35048182,53.13642121,0 -4.34916537,53.13644721,0 -4.34784891,53.13647319,0 -4.34653244,53.13649915,0 -4.34521598,53.13652510,0 -4.34389952,53.13655104,0 -4.34258305,53.13657696,0 -4.34126658,53.13660287,0 -4.33995011,53.13662876,0 -4.33863363,53.13665464,0 -4.33731716,53.13668050,0 -4.33600068,53.13670635,0 -4.33468420,53.13673218,0 -4.33336772,53.13675800,0 -4.33205123,53.13678381,0</coordinates></LineString></Placemark>
<Placemark><name>N 363000</name><styleUrl>#gl</styleUrl><LineString><tessellate>1</tessellate><coordinates>-4.38364132,53.14025722,0 -4.38232477,53.14028358,0 -4.38100823,53.14030993,0 -4.37969168,53.14033626,0 -4.37837513,53.14036258,0 -4.37705858,53.14038888,0 -4.37574203,53.14041517,0 -4.37442547,53.14044145,0 -4.37310891,53.14046771,0 -4.37179235,53.14049395,0 -4.37047579,53.14052018,0 -4.36915923,53.14054640,0 -4.36784266,53.14057260,0 -4.36652609,53.14059879,0 -4.36520952,53.14062496,0 -4.36389295,53.14065112,0 -4.36257638,53.14067726,0 -4.36125980,53.14070339,0 -4.35994322,53.14072951,0 -4.35862664,53.14075561,0 -4.35731006,53.14078169,0 -4.35599347,53.14080776,0 -4.35467689,53.14083382,0 -4.35336030,53.14085986,0 -4.35204371,53.14088589,0 -4.35072712,53.14091190,0 -4.34941052,53.14093790,0 -4.34809392,53.14096389,0 -4.34677733,53.14098985,0 -4.34546072,53.14101581,0 -4.34414412,53.14104175,0 -4.34282752,53.14106768,0 -4.34151091,53.14109359,0 -4.34019430,53.14111948,0 -4.33887769,53.14114537,0 -4.33756108,53.14117123,0 -4.33624446,53.14119709,0 -4.33492784,53.14122292,0 -4.33361123,53.14124875,0 -4.33229460,53.14127456,0</coordinates></LineString></Placemark>
<Placemark><name>N 363500</name><styleUrl>#gl</styleUrl><LineString><tessellate>1</tessellate><coordinates>-4.38389010,53.14474780,0 -4.38257342,53.14477416,0 -4.38125674,53.14480051,0 -4.37994005,53.14482685,0 -4.37862337,53.14485317,0 -4.37730668,53.14487948,0 -4.37598999,53.14490578,0 -4.37467330,53.14493206,0 -4.37335660,53.14495832,0 -4.37203990,53.14498457,0 -4.37072320,53.14501081,0 -4.36940650,53.14503703,0 -4.36808980,53.14506323,0 -4.36677310,53.14508942,0 -4.36545639,53.14511560,0 -4.36413968,53.14514176,0 -4.36282297,53.14516791,0 -4.36150625,53.14519405,0 -4.36018954,53.14522016,0 -4.35887282,53.14524627,0 -4.35755610,53.14527236,0 -4.35623938,53.14529843,0 -4.35492266,53.14532449,0 -4.35360593,53.14535054,0 -4.35228920,53.14537657,0 -4.35097247,53.14540259,0 -4.34965574,53.14542859,0 -4.34833901,53.14545458,0 -4.34702227,53.14548055,0 -4.34570553,53.14550651,0 -4.34438879,53.14553246,0 -4.34307205,53.14555839,0 -4.34175531,53.14558430,0 -4.34043856,53.14561020,0 -4.33912181,53.14563609,0 -4.33780506,53.14566196,0 -4.33648831,53.14568782,0 -4.33517156,53.14571366,0 -4.33385480,53.14573949,0 -4.33253804,53.14576530,0</coordinates></LineString></Placemark>
<Placemark><name>N 364000</name><styleUrl>#gl</styleUrl><LineString><tessellate>1</tessellate><coordinates>-4.38413895,53.14923837,0 -4.38282214,53.14926474,0 -4.38150532,53.14929110,0 -4.38018849,53.14931744,0 -4.37887167,53.14934377,0 -4.37755484,53.14937008,0 -4.37623802,53.14939638,0 -4.37492119,53.14942266,0 -4.37360435,53.14944893,0 -4.37228752,53.14947518,0 -4.37097068,53.14950142,0 -4.36965385,53.14952765,0 -4.36833701,53.14955386,0 -4.36702016,53.14958006,0 -4.36570332,53.14960624,0 -4.36438647,53.14963240,0 -4.36306962,53.14965856,0 -4.36175277,53.14968469,0 -4.36043592,53.14971082,0 -4.35911907,53.14973693,0 -4.35780221,53.14976302,0 -4.35648535,53.14978910,0 -4.35516849,53.14981516,0 -4.35385163,53.14984122,0 -4.35253476,53.14986725,0 -4.35121790,53.14989327,0 -4.34990103,53.14991928,0 -4.34858416,53.14994527,0 -4.34726728,53.14997125,0 -4.34595041,53.14999721,0 -4.34463353,53.15002316,0 -4.34331665,53.15004909,0 -4.34199977,53.15007501,0 -4.34068289,53.15010092,0 -4.33936600,53.15012681,0 -4.33804912,53.15015269,0 -4.33673223,53.15017855,0 -4.33541533,53.15020439,0 -4.33409844,53.15023023,0 -4.33278155,53.15025604,0</coordinates></LineString></Placemark>
<Placemark><name>N 364500</name><styleUrl>#gl</styleUrl><LineString><tessellate>1</tessellate><coordinates>-4.38438787,53.15372894,0 -4.38307092,53.15375532,0 -4.38175396,53.15378168,0 -4.38043700,53.15380803,0 -4.37912004,53.15383436,0 -4.37780308,53.15386067,0 -4.37648611,53.15388698,0 -4.37516914,53.15391326,0 -4.37385218,53.15393954,0 -4.37253520,53.15396579,0 -4.37121823,53.15399204,0 -4.36990126,53.15401827,0 -4.36858428,53.15404448,0 -4.36726730,53.15407068,0 -4.36595032,53.15409687,0 -4.36463333,53.15412304,0 -4.36331635,53.15414920,0 -4.36199936,53.15417534,0 -4.36068237,53.15420147,0 -4.35936538,53.15422758,0 -4.35804838,53.15425368,0 -4.35673139,53.15427976,0 -4.35541439,53.15430583,0 -4.35409739,53.15433188,0 -4.35278039,53.15435792,0 -4.35146338,53.15438395,0 -4.35014638,53.15440996,0 -4.34882937,53.15443596,0 -4.34751236,53.15446194,0 -4.34619535,53.15448791,0 -4.34487833,53.15451386,0 -4.34356132,53.15453980,0 -4.34224430,53.15456572,0 -4.34092728,53.15459163,0 -4.33961026,53.15461753,0 -4.33829323,53.15464341,0 -4.33697621,53.15466927,0 -4.33565918,53.15469512,0 -4.33434215,53.15472096,0 -4.33302511,53.15474678,0</coordinates></LineString></Placemark>
<Placemark><name>N 365000</name><styleUrl>#gl</styleUrl><LineString><tessellate>1</tessellate><coordinates>-4.38463686,53.15821951,0 -4.38331976,53.15824589,0 -4.38200267,53.15827226,0 -4.38068557,53.15829861,0 -4.37936847,53.15832494,0 -4.37805137,53.15835126,0 -4.37673427,53.15837757,0 -4.37541717,53.15840386,0 -4.37410006,53.15843014,0 -4.37278295,53.15845640,0 -4.37146584,53.15848265,0 -4.37014873,53.15850888,0 -4.36883162,53.15853510,0 -4.36751450,53.15856131,0 -4.36619738,53.15858750,0 -4.36488026,53.15861367,0 -4.36356314,53.15863983,0 -4.36224601,53.15866598,0 -4.36092888,53.15869211,0 -4.35961176,53.15871823,0 -4.35829462,53.15874433,0 -4.35697749,53.15877042,0 -4.35566036,53.15879649,0 -4.35434322,53.15882255,0 -4.35302608,53.15884859,0 -4.35170894,53.15887462,0 -4.35039180,53.15890064,0 -4.34907465,53.15892664,0 -4.34775750,53.15895263,0 -4.34644035,53.15897860,0 -4.34512320,53.15900456,0 -4.34380605,53.15903050,0 -4.34248889,53.15905643,0 -4.34117174,53.15908234,0 -4.33985458,53.15910824,0 -4.33853741,53.15913412,0 -4.33722025,53.15915999,0 -4.33590309,53.15918585,0 -4.33458592,53.15921169,0 -4.33326875,53.15923751,0</coordinates></LineString></Placemark>
</Folder>
<Folder><name>control points</name>
<Placemark><name>G001</name><description>OSGB36 E 242400.0 N 365000.0</description><styleUrl>#gp</styleUrl><Point><altitudeMode>clampToGround</altitudeMode><coordinates>-4.35859632,53.15873835,0</coordinates></Point></Placemark>
<Placemark><name>G002</name><description>OSGB36 E 242600.0 N 365000.0</description><styleUrl>#gp</styleUrl><Point><altitudeMode>clampToGround</altitudeMode><coordinates>-4.35560779,53.15879753,0</coordinates></Point></Placemark>
<Placemark><name>G003</name><description>OSGB36 E 242800.0 N 365000.0</description><styleUrl>#gp</styleUrl><Point><altitudeMode>clampToGround</altitudeMode><coordinates>-4.35261926,53.15885664,0</coordinates></Point></Placemark>
<Placemark><name>G004</name><description>OSGB36 E 242200.0 N 364800.0</description><styleUrl>#gp</styleUrl><Point><altitudeMode>clampToGround</altitudeMode><coordinates>-4.36148620,53.15688284,0</coordinates></Point></Placemark>
<Placemark><name>G005</name><description>OSGB36 E 242400.0 N 364800.0</description><styleUrl>#gp</styleUrl><Point><altitudeMode>clampToGround</altitudeMode><coordinates>-4.35849781,53.15694209,0</coordinates></Point></Placemark>
<Placemark><name>G006</name><description>OSGB36 E 242600.0 N 364800.0</description><styleUrl>#gp</styleUrl><Point><altitudeMode>clampToGround</altitudeMode><coordinates>-4.35550940,53.15700127,0</coordinates></Point></Placemark>
<Placemark><name>G007</name><description>OSGB36 E 242800.0 N 364800.0</description><styleUrl>#gp</styleUrl><Point><altitudeMode>clampToGround</altitudeMode><coordinates>-4.35252099,53.15706037,0</coordinates></Point></Placemark>
<Placemark><name>G008</name><description>OSGB36 E 243000.0 N 364800.0</description><styleUrl>#gp</styleUrl><Point><altitudeMode>clampToGround</altitudeMode><coordinates>-4.34953257,53.15711939,0</coordinates></Point></Placemark>
<Placemark><name>G009</name><description>OSGB36 E 241800.0 N 364600.0</description><styleUrl>#gp</styleUrl><Point><altitudeMode>clampToGround</altitudeMode><coordinates>-4.36736407,53.15496787,0</coordinates></Point></Placemark>
<Placemark><name>G010</name><description>OSGB36 E 242000.0 N 364600.0</description><styleUrl>#gp</styleUrl><Point><altitudeMode>clampToGround</altitudeMode><coordinates>-4.36437582,53.15502726,0</coordinates></Point></Placemark>
<Placemark><name>G011</name><description>OSGB36 E 242200.0 N 364600.0</description><styleUrl>#gp</styleUrl><Point><altitudeMode>clampToGround</altitudeMode><coordinates>-4.36138757,53.15508658,0</coordinates></Point></Placemark>
<Placemark><name>G012</name><description>OSGB36 E 242400.0 N 364600.0</description><styleUrl>#gp</styleUrl><Point><altitudeMode>clampToGround</altitudeMode><coordinates>-4.35839930,53.15514583,0</coordinates></Point></Placemark>
<Placemark><name>G013</name><description>OSGB36 E 242600.0 N 364600.0</description><styleUrl>#gp</styleUrl><Point><altitudeMode>clampToGround</altitudeMode><coordinates>-4.35541102,53.15520500,0</coordinates></Point></Placemark>
<Placemark><name>G014</name><description>OSGB36 E 242800.0 N 364600.0</description><styleUrl>#gp</styleUrl><Point><altitudeMode>clampToGround</altitudeMode><coordinates>-4.35242273,53.15526410,0</coordinates></Point></Placemark>
<Placemark><name>G015</name><description>OSGB36 E 243000.0 N 364600.0</description><styleUrl>#gp</styleUrl><Point><altitudeMode>clampToGround</altitudeMode><coordinates>-4.34943443,53.15532312,0</coordinates></Point></Placemark>
<Placemark><name>G016</name><description>OSGB36 E 243200.0 N 364600.0</description><styleUrl>#gp</styleUrl><Point><altitudeMode>clampToGround</altitudeMode><coordinates>-4.34644612,53.15538207,0</coordinates></Point></Placemark>
<Placemark><name>G017</name><description>OSGB36 E 241600.0 N 364400.0</description><styleUrl>#gp</styleUrl><Point><altitudeMode>clampToGround</altitudeMode><coordinates>-4.37025331,53.15311215,0</coordinates></Point></Placemark>
<Placemark><name>G018</name><description>OSGB36 E 241800.0 N 364400.0</description><styleUrl>#gp</styleUrl><Point><altitudeMode>clampToGround</altitudeMode><coordinates>-4.36726520,53.15317162,0</coordinates></Point></Placemark>
<Placemark><name>G019</name><description>OSGB36 E 242000.0 N 364400.0</description><styleUrl>#gp</styleUrl><Point><altitudeMode>clampToGround</altitudeMode><coordinates>-4.36427708,53.15323101,0</coordinates></Point></Placemark>
<Placemark><name>G020</name><description>OSGB36 E 242200.0 N 364400.0</description><styleUrl>#gp</styleUrl><Point><altitudeMode>clampToGround</altitudeMode><coordinates>-4.36128895,53.15329033,0</coordinates></Point></Placemark>
<Placemark><name>G021</name><description>OSGB36 E 242400.0 N 364400.0</description><styleUrl>#gp</styleUrl><Point><altitudeMode>clampToGround</altitudeMode><coordinates>-4.35830080,53.15334957,0</coordinates></Point></Placemark>
<Placemark><name>G022</name><description>OSGB36 E 242600.0 N 364400.0</description><styleUrl>#gp</styleUrl><Point><altitudeMode>clampToGround</altitudeMode><coordinates>-4.35531265,53.15340874,0</coordinates></Point></Placemark>
<Placemark><name>G023</name><description>OSGB36 E 242800.0 N 364400.0</description><styleUrl>#gp</styleUrl><Point><altitudeMode>clampToGround</altitudeMode><coordinates>-4.35232449,53.15346783,0</coordinates></Point></Placemark>
<Placemark><name>G024</name><description>OSGB36 E 243000.0 N 364400.0</description><styleUrl>#gp</styleUrl><Point><altitudeMode>clampToGround</altitudeMode><coordinates>-4.34933631,53.15352685,0</coordinates></Point></Placemark>
<Placemark><name>G025</name><description>OSGB36 E 243200.0 N 364400.0</description><styleUrl>#gp</styleUrl><Point><altitudeMode>clampToGround</altitudeMode><coordinates>-4.34634813,53.15358579,0</coordinates></Point></Placemark>
<Placemark><name>G026</name><description>OSGB36 E 243400.0 N 364400.0</description><styleUrl>#gp</styleUrl><Point><altitudeMode>clampToGround</altitudeMode><coordinates>-4.34335993,53.15364466,0</coordinates></Point></Placemark>
<Placemark><name>G027</name><description>OSGB36 E 243600.0 N 364400.0</description><styleUrl>#gp</styleUrl><Point><altitudeMode>clampToGround</altitudeMode><coordinates>-4.34037172,53.15370345,0</coordinates></Point></Placemark>
<Placemark><name>G028</name><description>OSGB36 E 241400.0 N 364200.0</description><styleUrl>#gp</styleUrl><Point><altitudeMode>clampToGround</altitudeMode><coordinates>-4.37314231,53.15125636,0</coordinates></Point></Placemark>
<Placemark><name>G029</name><description>OSGB36 E 241600.0 N 364200.0</description><styleUrl>#gp</styleUrl><Point><altitudeMode>clampToGround</altitudeMode><coordinates>-4.37015433,53.15131590,0</coordinates></Point></Placemark>
<Placemark><name>G030</name><description>OSGB36 E 241800.0 N 364200.0</description><styleUrl>#gp</styleUrl><Point><altitudeMode>clampToGround</altitudeMode><coordinates>-4.36716634,53.15137537,0</coordinates></Point></Placemark>
<Placemark><name>G031</name><description>OSGB36 E 242000.0 N 364200.0</description><styleUrl>#gp</styleUrl><Point><altitudeMode>clampToGround</altitudeMode><coordinates>-4.36417835,53.15143475,0</coordinates></Point></Placemark>
<Placemark><name>G032</name><description>OSGB36 E 242200.0 N 364200.0</description><styleUrl>#gp</styleUrl><Point><altitudeMode>clampToGround</altitudeMode><coordinates>-4.36119034,53.15149407,0</coordinates></Point></Placemark>
<Placemark><name>G033</name><description>OSGB36 E 242400.0 N 364200.0</description><styleUrl>#gp</styleUrl><Point><altitudeMode>clampToGround</altitudeMode><coordinates>-4.35820232,53.15155331,0</coordinates></Point></Placemark>
<Placemark><name>G034</name><description>OSGB36 E 242600.0 N 364200.0</description><styleUrl>#gp</styleUrl><Point><altitudeMode>clampToGround</altitudeMode><coordinates>-4.35521429,53.15161247,0</coordinates></Point></Placemark>
<Placemark><name>G035</name><description>OSGB36 E 242800.0 N 364200.0</description><styleUrl>#gp</styleUrl><Point><altitudeMode>clampToGround</altitudeMode><coordinates>-4.35222625,53.15167156,0</coordinates></Point></Placemark>
<Placemark><name>G036</name><description>OSGB36 E 243000.0 N 364200.0</description><styleUrl>#gp</styleUrl><Point><altitudeMode>clampToGround</altitudeMode><coordinates>-4.34923820,53.15173057,0</coordinates></Point></Placemark>
<Placemark><name>G037</name><description>OSGB36 E 243200.0 N 364200.0</description><styleUrl>#gp</styleUrl><Point><altitudeMode>clampToGround</altitudeMode><coordinates>-4.34625014,53.15178951,0</coordinates></Point></Placemark>
<Placemark><name>G038</name><description>OSGB36 E 243400.0 N 364200.0</description><styleUrl>#gp</styleUrl><Point><altitudeMode>clampToGround</altitudeMode><coordinates>-4.34326207,53.15184838,0</coordinates></Point></Placemark>
<Placemark><name>G039</name><description>OSGB36 E 243600.0 N 364200.0</description><styleUrl>#gp</styleUrl><Point><altitudeMode>clampToGround</altitudeMode><coordinates>-4.34027399,53.15190717,0</coordinates></Point></Placemark>
<Placemark><name>G040</name><description>OSGB36 E 243800.0 N 364200.0</description><styleUrl>#gp</styleUrl><Point><altitudeMode>clampToGround</altitudeMode><coordinates>-4.33728589,53.15196588,0</coordinates></Point></Placemark>
<Placemark><name>G041</name><description>OSGB36 E 241400.0 N 364000.0</description><styleUrl>#gp</styleUrl><Point><altitudeMode>clampToGround</altitudeMode><coordinates>-4.37304321,53.14946012,0</coordinates></Point></Placemark>
<Placemark><name>G042</name><description>OSGB36 E 241600.0 N 364000.0</description><styleUrl>#gp</styleUrl><Point><altitudeMode>clampToGround</altitudeMode><coordinates>-4.37005536,53.14951965,0</coordinates></Point></Placemark>
<Placemark><name>G043</name><description>OSGB36 E 241800.0 N 364000.0</description><styleUrl>#gp</styleUrl><Point><altitudeMode>clampToGround</altitudeMode><coordinates>-4.36706750,53.14957911,0</coordinates></Point></Placemark>
<Placemark><name>G044</name><description>OSGB36 E 242000.0 N 364000.0</description><styleUrl>#gp</styleUrl><Point><altitudeMode>clampToGround</altitudeMode><coordinates>-4.36407962,53.14963850,0</coordinates></Point></Placemark>
<Placemark><name>G045</name><description>OSGB36 E 242200.0 N 364000.0</description><styleUrl>#gp</styleUrl><Point><altitudeMode>clampToGround</altitudeMode><coordinates>-4.36109174,53.14969781,0</coordinates></Point></Placemark>
<Placemark><name>G046</name><description>OSGB36 E 242400.0 N 364000.0</description><styleUrl>#gp</styleUrl><Point><altitudeMode>clampToGround</altitudeMode><coordinates>-4.35810384,53.14975704,0</coordinates></Point></Placemark>
<Placemark><name>G047</name><description>OSGB36 E 242600.0 N 364000.0</description><styleUrl>#gp</styleUrl><Point><altitudeMode>clampToGround</altitudeMode><coordinates>-4.35511594,53.14981620,0</coordinates></Point></Placemark>
<Placemark><name>G048</name><description>OSGB36 E 242800.0 N 364000.0</description><styleUrl>#gp</styleUrl><Point><altitudeMode>clampToGround</altitudeMode><coordinates>-4.35212802,53.14987529,0</coordinates></Point></Placemark>
<Placemark><name>G049</name><description>OSGB36 E 243000.0 N 364000.0</description><styleUrl>#gp</styleUrl><Point><altitudeMode>clampToGround</altitudeMode><coordinates>-4.34914010,53.14993430,0</coordinates></Point></Placemark>
<Placemark><name>G050</name><description>OSGB36 E 243200.0 N 364000.0</description><styleUrl>#gp</styleUrl><Point><altitudeMode>clampToGround</altitudeMode><coordinates>-4.34615216,53.14999324,0</coordinates></Point></Placemark>
<Placemark><name>G051</name><description>OSGB36 E 243400.0 N 364000.0</description><styleUrl>#gp</styleUrl><Point><altitudeMode>clampToGround</altitudeMode><coordinates>-4.34316421,53.15005210,0</coordinates></Point></Placemark>
<Placemark><name>G052</name><description>OSGB36 E 243600.0 N 364000.0</description><styleUrl>#gp</styleUrl><Point><altitudeMode>clampToGround</altitudeMode><coordinates>-4.34017626,53.15011088,0</coordinates></Point></Placemark>
<Placemark><name>G053</name><description>OSGB36 E 243800.0 N 364000.0</description><styleUrl>#gp</styleUrl><Point><altitudeMode>clampToGround</altitudeMode><coordinates>-4.33718829,53.15016959,0</coordinates></Point></Placemark>
<Placemark><name>G054</name><description>OSGB36 E 241200.0 N 363800.0</description><styleUrl>#gp</styleUrl><Point><altitudeMode>clampToGround</altitudeMode><coordinates>-4.37593184,53.14760427,0</coordinates></Point></Placemark>
<Placemark><name>G055</name><description>OSGB36 E 241400.0 N 363800.0</description><styleUrl>#gp</styleUrl><Point><altitudeMode>clampToGround</altitudeMode><coordinates>-4.37294412,53.14766388,0</coordinates></Point></Placemark>
<Placemark><name>G056</name><description>OSGB36 E 241600.0 N 363800.0</description><styleUrl>#gp</styleUrl><Point><altitudeMode>clampToGround</altitudeMode><coordinates>-4.36995640,53.14772341,0</coordinates></Point></Placemark>
<Placemark><name>G057</name><description>OSGB36 E 241800.0 N 363800.0</description><styleUrl>#gp</styleUrl><Point><altitudeMode>clampToGround</altitudeMode><coordinates>-4.36696866,53.14778286,0</coordinates></Point></Placemark>
<Placemark><name>G058</name><description>OSGB36 E 242000.0 N 363800.0</description><styleUrl>#gp</styleUrl><Point><altitudeMode>clampToGround</altitudeMode><coordinates>-4.36398091,53.14784224,0</coordinates></Point></Placemark>
<Placemark><name>G059</name><description>OSGB36 E 242200.0 N 363800.0</description><styleUrl>#gp</styleUrl><Point><altitudeMode>clampToGround</altitudeMode><coordinates>-4.36099315,53.14790155,0</coordinates></Point></Placemark>
<Placemark><name>G060</name><description>OSGB36 E 242400.0 N 363800.0</description><styleUrl>#gp</styleUrl><Point><altitudeMode>clampToGround</altitudeMode><coordinates>-4.35800538,53.14796078,0</coordinates></Point></Placemark>
<Placemark><name>G061</name><description>OSGB36 E 242600.0 N 363800.0</description><styleUrl>#gp</styleUrl><Point><altitudeMode>clampToGround</altitudeMode><coordinates>-4.35501760,53.14801994,0</coordinates></Point></Placemark>
<Placemark><name>G062</name><description>OSGB36 E 242800.0 N 363800.0</description><styleUrl>#gp</styleUrl><Point><altitudeMode>clampToGround</altitudeMode><coordinates>-4.35202981,53.14807902,0</coordinates></Point></Placemark>
<Placemark><name>G063</name><description>OSGB36 E 243000.0 N 363800.0</description><styleUrl>#gp</styleUrl><Point><altitudeMode>clampToGround</altitudeMode><coordinates>-4.34904201,53.14813802,0</coordinates></Point></Placemark>
<Placemark><name>G064</name><description>OSGB36 E 243200.0 N 363800.0</description><styleUrl>#gp</styleUrl><Point><altitudeMode>clampToGround</altitudeMode><coordinates>-4.34605420,53.14819696,0</coordinates></Point></Placemark>
<Placemark><name>G065</name><description>OSGB36 E 243400.0 N 363800.0</description><styleUrl>#gp</styleUrl><Point><altitudeMode>clampToGround</altitudeMode><coordinates>-4.34306637,53.14825581,0</coordinates></Point></Placemark>
<Placemark><name>G066</name><description>OSGB36 E 243600.0 N 363800.0</description><styleUrl>#gp</styleUrl><Point><altitudeMode>clampToGround</altitudeMode><coordinates>-4.34007854,53.14831460,0</coordinates></Point></Placemark>
<Placemark><name>G067</name><description>OSGB36 E 243800.0 N 363800.0</description><styleUrl>#gp</styleUrl><Point><altitudeMode>clampToGround</altitudeMode><coordinates>-4.33709070,53.14837330,0</coordinates></Point></Placemark>
<Placemark><name>G068</name><description>OSGB36 E 241000.0 N 363600.0</description><styleUrl>#gp</styleUrl><Point><altitudeMode>clampToGround</altitudeMode><coordinates>-4.37882022,53.14574835,0</coordinates></Point></Placemark>
<Placemark><name>G069</name><description>OSGB36 E 241200.0 N 363600.0</description><styleUrl>#gp</styleUrl><Point><altitudeMode>clampToGround</altitudeMode><coordinates>-4.37583264,53.14580803,0</coordinates></Point></Placemark>
<Placemark><name>G070</name><description>OSGB36 E 241400.0 N 363600.0</description><styleUrl>#gp</styleUrl><Point><altitudeMode>clampToGround</altitudeMode><coordinates>-4.37284505,53.14586763,0</coordinates></Point></Placemark>
<Placemark><name>G071</name><description>OSGB36 E 241600.0 N 363600.0</description><styleUrl>#gp</styleUrl><Point><altitudeMode>clampToGround</altitudeMode><coordinates>-4.36985744,53.14592716,0</coordinates></Point></Placemark>
<Placemark><name>G072</name><description>OSGB36 E 241800.0 N 363600.0</description><styleUrl>#gp</styleUrl><Point><altitudeMode>clampToGround</altitudeMode><coordinates>-4.36686983,53.14598661,0</coordinates></Point></Placemark>
<Placemark><name>G073</name><description>OSGB36 E 242000.0 N 363600.0</description><styleUrl>#gp</styleUrl><Point><altitudeMode>clampToGround</altitudeMode><coordinates>-4.36388221,53.14604599,0</coordinates></Point></Placemark>
<Placemark><name>G074</name><description>OSGB36 E 242200.0 N 363600.0</description><styleUrl>#gp</styleUrl><Point><altitudeMode>clampToGround</altitudeMode><coordinates>-4.36089457,53.14610529,0</coordinates></Point></Placemark>
<Placemark><name>G075</name><description>OSGB36 E 242400.0 N 363600.0</description><styleUrl>#gp</styleUrl><Point><altitudeMode>clampToGround</altitudeMode><coordinates>-4.35790693,53.14616452,0</coordinates></Point></Placemark>
<Placemark><name>G076</name><description>OSGB36 E 242600.0 N 363600.0</description><styleUrl>#gp</styleUrl><Point><altitudeMode>clampToGround</altitudeMode><coordinates>-4.35491927,53.14622367,0</coordinates></Point></Placemark>
<Placemark><name>G077</name><description>OSGB36 E 242800.0 N 363600.0</description><styleUrl>#gp</styleUrl><Point><altitudeMode>clampToGround</altitudeMode><coordinates>-4.35193160,53.14628275,0</coordinates></Point></Placemark>
<Placemark><name>G078</name><description>OSGB36 E 243000.0 N 363600.0</description><styleUrl>#gp</styleUrl><Point><altitudeMode>clampToGround</altitudeMode><coordinates>-4.34894393,53.14634175,0</coordinates></Point></Placemark>
<Placemark><name>G079</name><description>OSGB36 E 243200.0 N 363600.0</description><styleUrl>#gp</styleUrl><Point><altitudeMode>clampToGround</altitudeMode><coordinates>-4.34595624,53.14640068,0</coordinates></Point></Placemark>
<Placemark><name>G080</name><description>OSGB36 E 243400.0 N 363600.0</description><styleUrl>#gp</styleUrl><Point><altitudeMode>clampToGround</altitudeMode><coordinates>-4.34296854,53.14645953,0</coordinates></Point></Placemark>
<Placemark><name>G081</name><description>OSGB36 E 243600.0 N 363600.0</description><styleUrl>#gp</styleUrl><Point><altitudeMode>clampToGround</altitudeMode><coordinates>-4.33998083,53.14651831,0</coordinates></Point></Placemark>
<Placemark><name>G082</name><description>OSGB36 E 243800.0 N 363600.0</description><styleUrl>#gp</styleUrl><Point><altitudeMode>clampToGround</altitudeMode><coordinates>-4.33699312,53.14657701,0</coordinates></Point></Placemark>
<Placemark><name>G083</name><description>OSGB36 E 244000.0 N 363600.0</description><styleUrl>#gp</styleUrl><Point><altitudeMode>clampToGround</altitudeMode><coordinates>-4.33400539,53.14663564,0</coordinates></Point></Placemark>
<Placemark><name>G084</name><description>OSGB36 E 240800.0 N 363400.0</description><styleUrl>#gp</styleUrl><Point><altitudeMode>clampToGround</altitudeMode><coordinates>-4.38170836,53.14389237,0</coordinates></Point></Placemark>
<Placemark><name>G085</name><description>OSGB36 E 241000.0 N 363400.0</description><styleUrl>#gp</styleUrl><Point><altitudeMode>clampToGround</altitudeMode><coordinates>-4.37872091,53.14395211,0</coordinates></Point></Placemark>
<Placemark><name>G086</name><description>OSGB36 E 241200.0 N 363400.0</description><styleUrl>#gp</styleUrl><Point><altitudeMode>clampToGround</altitudeMode><coordinates>-4.37573345,53.14401179,0</coordinates></Point></Placemark>
<Placemark><name>G087</name><description>OSGB36 E 241400.0 N 363400.0</description><styleUrl>#gp</styleUrl><Point><altitudeMode>clampToGround</altitudeMode><coordinates>-4.37274598,53.14407138,0</coordinates></Point></Placemark>
<Placemark><name>G088</name><description>OSGB36 E 241600.0 N 363400.0</description><styleUrl>#gp</styleUrl><Point><altitudeMode>clampToGround</altitudeMode><coordinates>-4.36975850,53.14413091,0</coordinates></Point></Placemark>
<Placemark><name>G089</name><description>OSGB36 E 241800.0 N 363400.0</description><styleUrl>#gp</styleUrl><Point><altitudeMode>clampToGround</altitudeMode><coordinates>-4.36677102,53.14419036,0</coordinates></Point></Placemark>
<Placemark><name>G090</name><description>OSGB36 E 242000.0 N 363400.0</description><styleUrl>#gp</styleUrl><Point><altitudeMode>clampToGround</altitudeMode><coordinates>-4.36378352,53.14424973,0</coordinates></Point></Placemark>
<Placemark><name>G091</name><description>OSGB36 E 242200.0 N 363400.0</description><styleUrl>#gp</styleUrl><Point><altitudeMode>clampToGround</altitudeMode><coordinates>-4.36079600,53.14430903,0</coordinates></Point></Placemark>
<Placemark><name>G092</name><description>OSGB36 E 242400.0 N 363400.0</description><styleUrl>#gp</styleUrl><Point><altitudeMode>clampToGround</altitudeMode><coordinates>-4.35780848,53.14436825,0</coordinates></Point></Placemark>
<Placemark><name>G093</name><description>OSGB36 E 242600.0 N 363400.0</description><styleUrl>#gp</styleUrl><Point><altitudeMode>clampToGround</altitudeMode><coordinates>-4.35482095,53.14442740,0</coordinates></Point></Placemark>
<Placemark><name>G094</name><description>OSGB36 E 242800.0 N 363400.0</description><styleUrl>#gp</styleUrl><Point><altitudeMode>clampToGround</altitudeMode><coordinates>-4.35183341,53.14448647,0</coordinates></Point></Placemark>
<Placemark><name>G095</name><description>OSGB36 E 243000.0 N 363400.0</description><styleUrl>#gp</styleUrl><Point><altitudeMode>clampToGround</altitudeMode><coordinates>-4.34884586,53.14454547,0</coordinates></Point></Placemark>
<Placemark><name>G096</name><description>OSGB36 E 243200.0 N 363400.0</description><styleUrl>#gp</styleUrl><Point><altitudeMode>clampToGround</altitudeMode><coordinates>-4.34585829,53.14460440,0</coordinates></Point></Placemark>
<Placemark><name>G097</name><description>OSGB36 E 243400.0 N 363400.0</description><styleUrl>#gp</styleUrl><Point><altitudeMode>clampToGround</altitudeMode><coordinates>-4.34287072,53.14466325,0</coordinates></Point></Placemark>
<Placemark><name>G098</name><description>OSGB36 E 243600.0 N 363400.0</description><styleUrl>#gp</styleUrl><Point><altitudeMode>clampToGround</altitudeMode><coordinates>-4.33988314,53.14472202,0</coordinates></Point></Placemark>
<Placemark><name>G099</name><description>OSGB36 E 243800.0 N 363400.0</description><styleUrl>#gp</styleUrl><Point><altitudeMode>clampToGround</altitudeMode><coordinates>-4.33689554,53.14478072,0</coordinates></Point></Placemark>
<Placemark><name>G100</name><description>OSGB36 E 244000.0 N 363400.0</description><styleUrl>#gp</styleUrl><Point><altitudeMode>clampToGround</altitudeMode><coordinates>-4.33390794,53.14483934,0</coordinates></Point></Placemark>
<Placemark><name>G101</name><description>OSGB36 E 240800.0 N 363200.0</description><styleUrl>#gp</styleUrl><Point><altitudeMode>clampToGround</altitudeMode><coordinates>-4.38160893,53.14209613,0</coordinates></Point></Placemark>
<Placemark><name>G102</name><description>OSGB36 E 241000.0 N 363200.0</description><styleUrl>#gp</styleUrl><Point><altitudeMode>clampToGround</altitudeMode><coordinates>-4.37862161,53.14215588,0</coordinates></Point></Placemark>
<Placemark><name>G103</name><description>OSGB36 E 241200.0 N 363200.0</description><styleUrl>#gp</styleUrl><Point><altitudeMode>clampToGround</altitudeMode><coordinates>-4.37563427,53.14221554,0</coordinates></Point></Placemark>
<Placemark><name>G104</name><description>OSGB36 E 241400.0 N 363200.0</description><styleUrl>#gp</styleUrl><Point><altitudeMode>clampToGround</altitudeMode><coordinates>-4.37264693,53.14227514,0</coordinates></Point></Placemark>
<Placemark><name>G105</name><description>OSGB36 E 241600.0 N 363200.0</description><styleUrl>#gp</styleUrl><Point><altitudeMode>clampToGround</altitudeMode><coordinates>-4.36965957,53.14233466,0</coordinates></Point></Placemark>
<Placemark><name>G106</name><description>OSGB36 E 241800.0 N 363200.0</description><styleUrl>#gp</styleUrl><Point><altitudeMode>clampToGround</altitudeMode><coordinates>-4.36667221,53.14239410,0</coordinates></Point></Placemark>
<Placemark><name>G107</name><description>OSGB36 E 242000.0 N 363200.0</description><styleUrl>#gp</styleUrl><Point><altitudeMode>clampToGround</altitudeMode><coordinates>-4.36368483,53.14245347,0</coordinates></Point></Placemark>
<Placemark><name>G108</name><description>OSGB36 E 242200.0 N 363200.0</description><styleUrl>#gp</styleUrl><Point><altitudeMode>clampToGround</altitudeMode><coordinates>-4.36069745,53.14251277,0</coordinates></Point></Placemark>
<Placemark><name>G109</name><description>OSGB36 E 242400.0 N 363200.0</description><styleUrl>#gp</styleUrl><Point><altitudeMode>clampToGround</altitudeMode><coordinates>-4.35771005,53.14257199,0</coordinates></Point></Placemark>
<Placemark><name>G110</name><description>OSGB36 E 242600.0 N 363200.0</description><styleUrl>#gp</styleUrl><Point><altitudeMode>clampToGround</altitudeMode><coordinates>-4.35472264,53.14263113,0</coordinates></Point></Placemark>
<Placemark><name>G111</name><description>OSGB36 E 242800.0 N 363200.0</description><styleUrl>#gp</styleUrl><Point><altitudeMode>clampToGround</altitudeMode><coordinates>-4.35173523,53.14269020,0</coordinates></Point></Placemark>
<Placemark><name>G112</name><description>OSGB36 E 243000.0 N 363200.0</description><styleUrl>#gp</styleUrl><Point><altitudeMode>clampToGround</altitudeMode><coordinates>-4.34874780,53.14274920,0</coordinates></Point></Placemark>
<Placemark><name>G113</name><description>OSGB36 E 243200.0 N 363200.0</description><styleUrl>#gp</styleUrl><Point><altitudeMode>clampToGround</altitudeMode><coordinates>-4.34576036,53.14280812,0</coordinates></Point></Placemark>
<Placemark><name>G114</name><description>OSGB36 E 243400.0 N 363200.0</description><styleUrl>#gp</styleUrl><Point><altitudeMode>clampToGround</altitudeMode><coordinates>-4.34277291,53.14286696,0</coordinates></Point></Placemark>
<Placemark><name>G115</name><description>OSGB36 E 243600.0 N 363200.0</description><styleUrl>#gp</styleUrl><Point><altitudeMode>clampToGround</altitudeMode><coordinates>-4.33978545,53.14292573,0</coordinates></Point></Placemark>
<Placemark><name>G116</name><description>OSGB36 E 243800.0 N 363200.0</description><styleUrl>#gp</styleUrl><Point><altitudeMode>clampToGround</altitudeMode><coordinates>-4.33679798,53.14298443,0</coordinates></Point></Placemark>
<Placemark><name>G117</name><description>OSGB36 E 244000.0 N 363200.0</description><styleUrl>#gp</styleUrl><Point><altitudeMode>clampToGround</altitudeMode><coordinates>-4.33381050,53.14304305,0</coordinates></Point></Placemark>
<Placemark><name>G118</name><description>OSGB36 E 240800.0 N 363000.0</description><styleUrl>#gp</styleUrl><Point><altitudeMode>clampToGround</altitudeMode><coordinates>-4.38150951,53.14029990,0</coordinates></Point></Placemark>
<Placemark><name>G119</name><description>OSGB36 E 241000.0 N 363000.0</description><styleUrl>#gp</styleUrl><Point><altitudeMode>clampToGround</altitudeMode><coordinates>-4.37852231,53.14035964,0</coordinates></Point></Placemark>
<Placemark><name>G120</name><description>OSGB36 E 241200.0 N 363000.0</description><styleUrl>#gp</styleUrl><Point><altitudeMode>clampToGround</altitudeMode><coordinates>-4.37553510,53.14041930,0</coordinates></Point></Placemark>
<Placemark><name>G121</name><description>OSGB36 E 241400.0 N 363000.0</description><styleUrl>#gp</styleUrl><Point><altitudeMode>clampToGround</altitudeMode><coordinates>-4.37254788,53.14047889,0</coordinates></Point></Placemark>
<Placemark><name>G122</name><description>OSGB36 E 241600.0 N 363000.0</description><styleUrl>#gp</styleUrl><Point><altitudeMode>clampToGround</altitudeMode><coordinates>-4.36956065,53.14053841,0</coordinates></Point></Placemark>
<Placemark><name>G123</name><description>OSGB36 E 241800.0 N 363000.0</description><styleUrl>#gp</styleUrl><Point><altitudeMode>clampToGround</altitudeMode><coordinates>-4.36657341,53.14059785,0</coordinates></Point></Placemark>
<Placemark><name>G124</name><description>OSGB36 E 242000.0 N 363000.0</description><styleUrl>#gp</styleUrl><Point><altitudeMode>clampToGround</altitudeMode><coordinates>-4.36358616,53.14065721,0</coordinates></Point></Placemark>
<Placemark><name>G125</name><description>OSGB36 E 242200.0 N 363000.0</description><styleUrl>#gp</styleUrl><Point><altitudeMode>clampToGround</altitudeMode><coordinates>-4.36059890,53.14071650,0</coordinates></Point></Placemark>
<Placemark><name>G126</name><description>OSGB36 E 242400.0 N 363000.0</description><styleUrl>#gp</styleUrl><Point><altitudeMode>clampToGround</altitudeMode><coordinates>-4.35761163,53.14077572,0</coordinates></Point></Placemark>
<Placemark><name>G127</name><description>OSGB36 E 242600.0 N 363000.0</description><styleUrl>#gp</styleUrl><Point><altitudeMode>clampToGround</altitudeMode><coordinates>-4.35462435,53.14083486,0</coordinates></Point></Placemark>
<Placemark><name>G128</name><description>OSGB36 E 242800.0 N 363000.0</description><styleUrl>#gp</styleUrl><Point><altitudeMode>clampToGround</altitudeMode><coordinates>-4.35163705,53.14089393,0</coordinates></Point></Placemark>
<Placemark><name>G129</name><description>OSGB36 E 243000.0 N 363000.0</description><styleUrl>#gp</styleUrl><Point><altitudeMode>clampToGround</altitudeMode><coordinates>-4.34864975,53.14095292,0</coordinates></Point></Placemark>
<Placemark><name>G130</name><description>OSGB36 E 243200.0 N 363000.0</description><styleUrl>#gp</styleUrl><Point><altitudeMode>clampToGround</altitudeMode><coordinates>-4.34566244,53.14101183,0</coordinates></Point></Placemark>
<Placemark><name>G131</name><description>OSGB36 E 243400.0 N 363000.0</description><styleUrl>#gp</styleUrl><Point><altitudeMode>clampToGround</altitudeMode><coordinates>-4.34267511,53.14107068,0</coordinates></Point></Placemark>
<Placemark><name>G132</name><description>OSGB36 E 243600.0 N 363000.0</description><styleUrl>#gp</styleUrl><Point><altitudeMode>clampToGround</altitudeMode><coordinates>-4.33968778,53.14112944,0</coordinates></Point></Placemark>
<Placemark><name>G133</name><description>OSGB36 E 243800.0 N 363000.0</description><styleUrl>#gp</styleUrl><Point><altitudeMode>clampToGround</altitudeMode><coordinates>-4.33670043,53.14118813,0</coordinates></Point></Placemark>
<Placemark><name>G134</name><description>OSGB36 E 241000.0 N 362800.0</description><styleUrl>#gp</styleUrl><Point><altitudeMode>clampToGround</altitudeMode><coordinates>-4.37842303,53.13856340,0</coordinates></Point></Placemark>
<Placemark><name>G135</name><description>OSGB36 E 241200.0 N 362800.0</description><styleUrl>#gp</styleUrl><Point><altitudeMode>clampToGround</altitudeMode><coordinates>-4.37543595,53.13862306,0</coordinates></Point></Placemark>
<Placemark><name>G136</name><description>OSGB36 E 241400.0 N 362800.0</description><styleUrl>#gp</styleUrl><Point><altitudeMode>clampToGround</altitudeMode><coordinates>-4.37244885,53.13868264,0</coordinates></Point></Placemark>
<Placemark><name>G137</name><description>OSGB36 E 241600.0 N 362800.0</description><styleUrl>#gp</styleUrl><Point><altitudeMode>clampToGround</altitudeMode><coordinates>-4.36946175,53.13874216,0</coordinates></Point></Placemark>
<Placemark><name>G138</name><description>OSGB36 E 241800.0 N 362800.0</description><styleUrl>#gp</styleUrl><Point><altitudeMode>clampToGround</altitudeMode><coordinates>-4.36647463,53.13880159,0</coordinates></Point></Placemark>
<Placemark><name>G139</name><description>OSGB36 E 242000.0 N 362800.0</description><styleUrl>#gp</styleUrl><Point><altitudeMode>clampToGround</altitudeMode><coordinates>-4.36348750,53.13886095,0</coordinates></Point></Placemark>
<Placemark><name>G140</name><description>OSGB36 E 242200.0 N 362800.0</description><styleUrl>#gp</styleUrl><Point><altitudeMode>clampToGround</altitudeMode><coordinates>-4.36050037,53.13892024,0</coordinates></Point></Placemark>
<Placemark><name>G141</name><description>OSGB36 E 242400.0 N 362800.0</description><styleUrl>#gp</styleUrl><Point><altitudeMode>clampToGround</altitudeMode><coordinates>-4.35751322,53.13897945,0</coordinates></Point></Placemark>
<Placemark><name>G142</name><description>OSGB36 E 242600.0 N 362800.0</description><styleUrl>#gp</styleUrl><Point><altitudeMode>clampToGround</altitudeMode><coordinates>-4.35452606,53.13903859,0</coordinates></Point></Placemark>
<Placemark><name>G143</name><description>OSGB36 E 242800.0 N 362800.0</description><styleUrl>#gp</styleUrl><Point><altitudeMode>clampToGround</altitudeMode><coordinates>-4.35153889,53.13909765,0</coordinates></Point></Placemark>
<Placemark><name>G144</name><description>OSGB36 E 243000.0 N 362800.0</description><styleUrl>#gp</styleUrl><Point><altitudeMode>clampToGround</altitudeMode><coordinates>-4.34855171,53.13915664,0</coordinates></Point></Placemark>
<Placemark><name>G145</name><description>OSGB36 E 243200.0 N 362800.0</description><styleUrl>#gp</styleUrl><Point><altitudeMode>clampToGround</altitudeMode><coordinates>-4.34556452,53.13921555,0</coordinates></Point></Placemark>
<Placemark><name>G146</name><description>OSGB36 E 243400.0 N 362800.0</description><styleUrl>#gp</styleUrl><Point><altitudeMode>clampToGround</altitudeMode><coordinates>-4.34257732,53.13927439,0</coordinates></Point></Placemark>
<Placemark><name>G147</name><description>OSGB36 E 243600.0 N 362800.0</description><styleUrl>#gp</styleUrl><Point><altitudeMode>clampToGround</altitudeMode><coordinates>-4.33959011,53.13933315,0</coordinates></Point></Placemark>
<Placemark><name>G148</name><description>OSGB36 E 241200.0 N 362600.0</description><styleUrl>#gp</styleUrl><Point><altitudeMode>clampToGround</altitudeMode><coordinates>-4.37533680,53.13682681,0</coordinates></Point></Placemark>
<Placemark><name>G149</name><description>OSGB36 E 241400.0 N 362600.0</description><styleUrl>#gp</styleUrl><Point><altitudeMode>clampToGround</altitudeMode><coordinates>-4.37234983,53.13688640,0</coordinates></Point></Placemark>
<Placemark><name>G150</name><description>OSGB36 E 241600.0 N 362600.0</description><styleUrl>#gp</styleUrl><Point><altitudeMode>clampToGround</altitudeMode><coordinates>-4.36936285,53.13694590,0</coordinates></Point></Placemark>
<Placemark><name>G151</name><description>OSGB36 E 241800.0 N 362600.0</description><styleUrl>#gp</styleUrl><Point><altitudeMode>clampToGround</altitudeMode><coordinates>-4.36637586,53.13700534,0</coordinates></Point></Placemark>
<Placemark><name>G152</name><description>OSGB36 E 242000.0 N 362600.0</description><styleUrl>#gp</styleUrl><Point><altitudeMode>clampToGround</altitudeMode><coordinates>-4.36338885,53.13706469,0</coordinates></Point></Placemark>
<Placemark><name>G153</name><description>OSGB36 E 242200.0 N 362600.0</description><styleUrl>#gp</styleUrl><Point><altitudeMode>clampToGround</altitudeMode><coordinates>-4.36040184,53.13712398,0</coordinates></Point></Placemark>
<Placemark><name>G154</name><description>OSGB36 E 242400.0 N 362600.0</description><styleUrl>#gp</styleUrl><Point><altitudeMode>clampToGround</altitudeMode><coordinates>-4.35741482,53.13718319,0</coordinates></Point></Placemark>
<Placemark><name>G155</name><description>OSGB36 E 242600.0 N 362600.0</description><styleUrl>#gp</styleUrl><Point><altitudeMode>clampToGround</altitudeMode><coordinates>-4.35442778,53.13724232,0</coordinates></Point></Placemark>
<Placemark><name>G156</name><description>OSGB36 E 242800.0 N 362600.0</description><styleUrl>#gp</styleUrl><Point><altitudeMode>clampToGround</altitudeMode><coordinates>-4.35144074,53.13730138,0</coordinates></Point></Placemark>
<Placemark><name>G157</name><description>OSGB36 E 243000.0 N 362600.0</description><styleUrl>#gp</styleUrl><Point><altitudeMode>clampToGround</altitudeMode><coordinates>-4.34845368,53.13736036,0</coordinates></Point></Placemark>
<Placemark><name>G158</name><description>OSGB36 E 243200.0 N 362600.0</description><styleUrl>#gp</styleUrl><Point><altitudeMode>clampToGround</altitudeMode><coordinates>-4.34546662,53.13741927,0</coordinates></Point></Placemark>
<Placemark><name>G159</name><description>OSGB36 E 243400.0 N 362600.0</description><styleUrl>#gp</styleUrl><Point><altitudeMode>clampToGround</altitudeMode><coordinates>-4.34247954,53.13747810,0</coordinates></Point></Placemark>
<Placemark><name>G160</name><description>OSGB36 E 241400.0 N 362400.0</description><styleUrl>#gp</styleUrl><Point><altitudeMode>clampToGround</altitudeMode><coordinates>-4.37225082,53.13509015,0</coordinates></Point></Placemark>
<Placemark><name>G161</name><description>OSGB36 E 241600.0 N 362400.0</description><styleUrl>#gp</styleUrl><Point><altitudeMode>clampToGround</altitudeMode><coordinates>-4.36926396,53.13514965,0</coordinates></Point></Placemark>
<Placemark><name>G162</name><description>OSGB36 E 241800.0 N 362400.0</description><styleUrl>#gp</styleUrl><Point><altitudeMode>clampToGround</altitudeMode><coordinates>-4.36627709,53.13520908,0</coordinates></Point></Placemark>
<Placemark><name>G163</name><description>OSGB36 E 242000.0 N 362400.0</description><styleUrl>#gp</styleUrl><Point><altitudeMode>clampToGround</altitudeMode><coordinates>-4.36329021,53.13526843,0</coordinates></Point></Placemark>
<Placemark><name>G164</name><description>OSGB36 E 242200.0 N 362400.0</description><styleUrl>#gp</styleUrl><Point><altitudeMode>clampToGround</altitudeMode><coordinates>-4.36030333,53.13532771,0</coordinates></Point></Placemark>
<Placemark><name>G165</name><description>OSGB36 E 242400.0 N 362400.0</description><styleUrl>#gp</styleUrl><Point><altitudeMode>clampToGround</altitudeMode><coordinates>-4.35731643,53.13538692,0</coordinates></Point></Placemark>
<Placemark><name>G166</name><description>OSGB36 E 242600.0 N 362400.0</description><styleUrl>#gp</styleUrl><Point><altitudeMode>clampToGround</altitudeMode><coordinates>-4.35432952,53.13544605,0</coordinates></Point></Placemark>
<Placemark><name>G167</name><description>OSGB36 E 242800.0 N 362400.0</description><styleUrl>#gp</styleUrl><Point><altitudeMode>clampToGround</altitudeMode><coordinates>-4.35134260,53.13550510,0</coordinates></Point></Placemark>
<Placemark><name>G168</name><description>OSGB36 E 243000.0 N 362400.0</description><styleUrl>#gp</styleUrl><Point><altitudeMode>clampToGround</altitudeMode><coordinates>-4.34835567,53.13556408,0</coordinates></Point></Placemark>
<Placemark><name>G169</name><description>OSGB36 E 243200.0 N 362400.0</description><styleUrl>#gp</styleUrl><Point><altitudeMode>clampToGround</altitudeMode><coordinates>-4.34536873,53.13562299,0</coordinates></Point></Placemark>
<Placemark><name>G170</name><description>OSGB36 E 241600.0 N 362200.0</description><styleUrl>#gp</styleUrl><Point><altitudeMode>clampToGround</altitudeMode><coordinates>-4.36916508,53.13335340,0</coordinates></Point></Placemark>
<Placemark><name>G171</name><description>OSGB36 E 241800.0 N 362200.0</description><styleUrl>#gp</styleUrl><Point><altitudeMode>clampToGround</altitudeMode><coordinates>-4.36617834,53.13341282,0</coordinates></Point></Placemark>
<Placemark><name>G172</name><description>OSGB36 E 242000.0 N 362200.0</description><styleUrl>#gp</styleUrl><Point><altitudeMode>clampToGround</altitudeMode><coordinates>-4.36319159,53.13347217,0</coordinates></Point></Placemark>
<Placemark><name>G173</name><description>OSGB36 E 242200.0 N 362200.0</description><styleUrl>#gp</styleUrl><Point><altitudeMode>clampToGround</altitudeMode><coordinates>-4.36020482,53.13353145,0</coordinates></Point></Placemark>
<Placemark><name>G174</name><description>OSGB36 E 242400.0 N 362200.0</description><styleUrl>#gp</styleUrl><Point><altitudeMode>clampToGround</altitudeMode><coordinates>-4.35721805,53.13359065,0</coordinates></Point></Placemark>
<Placemark><name>G175</name><description>OSGB36 E 242600.0 N 362200.0</description><styleUrl>#gp</styleUrl><Point><altitudeMode>clampToGround</altitudeMode><coordinates>-4.35423126,53.13364977,0</coordinates></Point></Placemark>
<Placemark><name>G176</name><description>OSGB36 E 242800.0 N 362200.0</description><styleUrl>#gp</styleUrl><Point><altitudeMode>clampToGround</altitudeMode><coordinates>-4.35124447,53.13370882,0</coordinates></Point></Placemark>
<Placemark><name>G177</name><description>OSGB36 E 242000.0 N 362000.0</description><styleUrl>#gp</styleUrl><Point><altitudeMode>clampToGround</altitudeMode><coordinates>-4.36309297,53.13167591,0</coordinates></Point></Placemark>
<Placemark><name>G178</name><description>OSGB36 E 242200.0 N 362000.0</description><styleUrl>#gp</styleUrl><Point><altitudeMode>clampToGround</altitudeMode><coordinates>-4.36010633,53.13173518,0</coordinates></Point></Placemark>
<Placemark><name>G179</name><description>OSGB36 E 242400.0 N 362000.0</description><styleUrl>#gp</styleUrl><Point><altitudeMode>clampToGround</altitudeMode><coordinates>-4.35711968,53.13179438,0</coordinates></Point></Placemark>
<Placemark><name>G180</name><description>OSGB36 E 242200.0 N 361800.0</description><styleUrl>#gp</styleUrl><Point><altitudeMode>clampToGround</altitudeMode><coordinates>-4.36000785,53.12993892,0</coordinates></Point></Placemark>
</Folder>
</Document></kml>