<?xml version="1.0" encoding="UTF-8"?><kml xmlns="http://www.opengis.net/kml/2.2"><Document><name>Ranwell sites — Martin (yellow) vs height-refined (green), offset +0.06 m</name>
<Style id="y"><IconStyle><scale>0.9</scale><color>ff00ffff</color><Icon><href>http://maps.google.com/mapfiles/kml/shapes/placemark_circle.png</href></Icon></IconStyle><LabelStyle><scale>0.7</scale></LabelStyle></Style>
<Style id="g"><IconStyle><scale>1.1</scale><color>ff00ff00</color><Icon><href>http://maps.google.com/mapfiles/kml/shapes/placemark_circle.png</href></Icon></IconStyle></Style>
<Style id="l"><LineStyle><color>ff00ffff</color><width>2</width></LineStyle><LabelStyle><scale>0</scale></LabelStyle></Style>
<Placemark><name>R1 (Martin)</name><styleUrl>#y</styleUrl><Point><coordinates>-4.3556000,53.1550502,0</coordinates></Point></Placemark>
<Placemark><name>R1 refined</name><description>Site 1: Ranwell 9.11 m OD, target 9.17 (offset +0.06); DEM at your point 9.72 (resid +0.56); refined point DEM 9.19 (resid +0.03); moved 44 m; local slope 0.022; cells within 80 m matching ±0.2 m: 803</description><styleUrl>#g</styleUrl><Point><coordinates>-4.3560609,53.1553270,0</coordinates></Point></Placemark>
<Placemark><name>R1 move</name><styleUrl>#l</styleUrl><LineString><coordinates>-4.3556000,53.1550502,0 -4.3560609,53.1553270,0</coordinates></LineString></Placemark>
<Placemark><name>R2 (Martin)</name><styleUrl>#y</styleUrl><Point><coordinates>-4.3620333,53.1508030,0</coordinates></Point></Placemark>
<Placemark><name>R2 refined</name><description>Site 2: Ranwell 10.89 m OD, target 10.95 (offset +0.06); DEM at your point 11.11 (resid +0.16); refined point DEM 10.95 (resid +0.01); moved 6 m; local slope 0.041; cells within 80 m matching ±0.2 m: 937</description><styleUrl>#g</styleUrl><Point><coordinates>-4.3620319,53.1507491,0</coordinates></Point></Placemark>
<Placemark><name>R2 move</name><styleUrl>#l</styleUrl><LineString><coordinates>-4.3620333,53.1508030,0 -4.3620319,53.1507491,0</coordinates></LineString></Placemark>
<Placemark><name>R3 (Martin)</name><styleUrl>#y</styleUrl><Point><coordinates>-4.3679203,53.1427919,0</coordinates></Point></Placemark>
<Placemark><name>R3 refined</name><description>Site 3: Ranwell 7.42 m OD, target 7.48 (offset +0.06); DEM at your point 7.75 (resid +0.27); refined point DEM 7.48 (resid +0.01); moved 6 m; local slope 0.092; cells within 80 m matching ±0.2 m: 1221</description><styleUrl>#g</styleUrl><Point><coordinates>-4.3679930,53.1427544,0</coordinates></Point></Placemark>
<Placemark><name>R3 move</name><styleUrl>#l</styleUrl><LineString><coordinates>-4.3679203,53.1427919,0 -4.3679930,53.1427544,0</coordinates></LineString></Placemark>
<Placemark><name>R4 (Martin)</name><styleUrl>#y</styleUrl><Point><coordinates>-4.3661141,53.1523943,0</coordinates></Point></Placemark>
<Placemark><name>R4 refined</name><description>Site 4: Ranwell 11.62 m OD, target 11.68 (offset +0.06); DEM at your point 11.65 (resid -0.03); refined point DEM 11.68 (resid +0.00); moved 5 m; local slope 0.043; cells within 80 m matching ±0.2 m: 2547</description><styleUrl>#g</styleUrl><Point><coordinates>-4.3660419,53.1524137,0</coordinates></Point></Placemark>
<Placemark><name>R4 move</name><styleUrl>#l</styleUrl><LineString><coordinates>-4.3661141,53.1523943,0 -4.3660419,53.1524137,0</coordinates></LineString></Placemark>
<Placemark><name>R5 (Martin)</name><styleUrl>#y</styleUrl><Point><coordinates>-4.3628955,53.1497546,0</coordinates></Point></Placemark>
<Placemark><name>R5 refined</name><description>Site 5: Ranwell 11.21 m OD, target 11.27 (offset +0.06); DEM at your point 11.15 (resid -0.12); refined point DEM 11.26 (resid -0.01); moved 4 m; local slope 0.031; cells within 80 m matching ±0.2 m: 1176</description><styleUrl>#g</styleUrl><Point><coordinates>-4.3629357,53.1497781,0</coordinates></Point></Placemark>
<Placemark><name>R5 move</name><styleUrl>#l</styleUrl><LineString><coordinates>-4.3628955,53.1497546,0 -4.3629357,53.1497781,0</coordinates></LineString></Placemark>
<Placemark><name>R6 (Martin)</name><styleUrl>#y</styleUrl><Point><coordinates>-4.3627471,53.1480331,0</coordinates></Point></Placemark>
<Placemark><name>R6 refined</name><description>Site 6: Ranwell 10.56 m OD, target 10.62 (offset +0.06); DEM at your point 10.31 (resid -0.30); refined point DEM 10.61 (resid -0.01); moved 5 m; local slope 0.132; cells within 80 m matching ±0.2 m: 2363</description><styleUrl>#g</styleUrl><Point><coordinates>-4.3628111,53.1480543,0</coordinates></Point></Placemark>
<Placemark><name>R6 move</name><styleUrl>#l</styleUrl><LineString><coordinates>-4.3627471,53.1480331,0 -4.3628111,53.1480543,0</coordinates></LineString></Placemark>
<Placemark><name>R7 (Martin)</name><styleUrl>#y</styleUrl><Point><coordinates>-4.3667272,53.1427688,0</coordinates></Point></Placemark>
<Placemark><name>R7 refined</name><description>Site 7: Ranwell 6.75 m OD, target 6.81 (offset +0.06); DEM at your point 6.88 (resid +0.08); refined point DEM 6.82 (resid +0.01); moved 9 m; local slope 0.004; cells within 80 m matching ±0.2 m: 960</description><styleUrl>#g</styleUrl><Point><coordinates>-4.3667034,53.1426902,0</coordinates></Point></Placemark>
<Placemark><name>R7 move</name><styleUrl>#l</styleUrl><LineString><coordinates>-4.3667272,53.1427688,0 -4.3667034,53.1426902,0</coordinates></LineString></Placemark>
<Placemark><name>R8 (Martin)</name><styleUrl>#y</styleUrl><Point><coordinates>-4.3689046,53.1416583,0</coordinates></Point></Placemark>
<Placemark><name>R8 refined</name><description>Site 8: Ranwell 6.85 m OD, target 6.91 (offset +0.06); DEM at your point 8.00 (resid +1.09); refined point DEM 6.92 (resid +0.01); moved 6 m; local slope 0.069; cells within 80 m matching ±0.2 m: 1116</description><styleUrl>#g</styleUrl><Point><coordinates>-4.3689772,53.1416200,0</coordinates></Point></Placemark>
<Placemark><name>R8 move</name><styleUrl>#l</styleUrl><LineString><coordinates>-4.3689046,53.1416583,0 -4.3689772,53.1416200,0</coordinates></LineString></Placemark>
<Placemark><name>R10 (Martin)</name><styleUrl>#y</styleUrl><Point><coordinates>-4.3712574,53.1399885,0</coordinates></Point></Placemark>
<Placemark><name>R10 refined</name><description>Site 10: Ranwell 4.38 m OD, target 4.44 (offset +0.06); DEM at your point 4.56 (resid +0.12); refined point DEM 4.45 (resid +0.01); moved 4 m; local slope 0.005; cells within 80 m matching ±0.2 m: 141</description><styleUrl>#g</styleUrl><Point><coordinates>-4.3712481,53.1399563,0</coordinates></Point></Placemark>
<Placemark><name>R10 move</name><styleUrl>#l</styleUrl><LineString><coordinates>-4.3712574,53.1399885,0 -4.3712481,53.1399563,0</coordinates></LineString></Placemark>
<Placemark><name>R11 (Martin)</name><styleUrl>#y</styleUrl><Point><coordinates>-4.3623975,53.1518235,0</coordinates></Point></Placemark>
<Placemark><name>R11 refined</name><description>Site 11: Ranwell 11.08 m OD, target 11.14 (offset +0.06); DEM at your point 11.02 (resid -0.11); refined point DEM 11.12 (resid -0.01); moved 11 m; local slope 0.015; cells within 80 m matching ±0.2 m: 2676</description><styleUrl>#g</styleUrl><Point><coordinates>-4.3622674,53.1517694,0</coordinates></Point></Placemark>
<Placemark><name>R11 move</name><styleUrl>#l</styleUrl><LineString><coordinates>-4.3623975,53.1518235,0 -4.3622674,53.1517694,0</coordinates></LineString></Placemark>
<Placemark><name>R12 (Martin)</name><styleUrl>#y</styleUrl><Point><coordinates>-4.3678602,53.1503959,0</coordinates></Point></Placemark>
<Placemark><name>R12 refined</name><description>Site 12: Ranwell 10.83 m OD, target 10.89 (offset +0.06); DEM at your point 11.59 (resid +0.70); refined point DEM 11.02 (resid +0.13); moved 42 m; local slope 0.012; cells within 80 m matching ±0.2 m: 11</description><styleUrl>#g</styleUrl><Point><coordinates>-4.3675645,53.1507291,0</coordinates></Point></Placemark>
<Placemark><name>R12 move</name><styleUrl>#l</styleUrl><LineString><coordinates>-4.3678602,53.1503959,0 -4.3675645,53.1507291,0</coordinates></LineString></Placemark>
<Placemark><name>R13 (Martin)</name><styleUrl>#y</styleUrl><Point><coordinates>-4.3687445,53.1505662,0</coordinates></Point></Placemark>
<Placemark><name>R13 refined</name><description>Site 13: Ranwell 11.41 m OD, target 11.47 (offset +0.06); DEM at your point 11.93 (resid +0.46); refined point DEM 11.47 (resid -0.00); moved 7 m; local slope 0.050; cells within 80 m matching ±0.2 m: 1005</description><styleUrl>#g</styleUrl><Point><coordinates>-4.3687787,53.1505071,0</coordinates></Point></Placemark>
<Placemark><name>R13 move</name><styleUrl>#l</styleUrl><LineString><coordinates>-4.3687445,53.1505662,0 -4.3687787,53.1505071,0</coordinates></LineString></Placemark>
<Placemark><name>R14 (Martin)</name><styleUrl>#y</styleUrl><Point><coordinates>-4.3620789,53.1505989,0</coordinates></Point></Placemark>
<Placemark><name>R14 refined</name><description>Site 14: Ranwell 10.65 m OD, target 10.71 (offset +0.06); DEM at your point 10.89 (resid +0.19); refined point DEM 10.81 (resid +0.10); moved 5 m; local slope 0.011; cells within 80 m matching ±0.2 m: 492</description><styleUrl>#g</styleUrl><Point><coordinates>-4.3620857,53.1506401,0</coordinates></Point></Placemark>
<Placemark><name>R14 move</name><styleUrl>#l</styleUrl><LineString><coordinates>-4.3620789,53.1505989,0 -4.3620857,53.1506401,0</coordinates></LineString></Placemark>
<Placemark><name>R15 (Martin)</name><styleUrl>#y</styleUrl><Point><coordinates>-4.3653640,53.1458520,0</coordinates></Point></Placemark>
<Placemark><name>R15 refined</name><description>Site 15: Ranwell 9.67 m OD, target 9.73 (offset +0.06); DEM at your point 9.67 (resid -0.06); refined point DEM 9.72 (resid -0.01); moved 3 m; local slope 0.020; cells within 80 m matching ±0.2 m: 2327</description><styleUrl>#g</styleUrl><Point><coordinates>-4.3653218,53.1458466,0</coordinates></Point></Placemark>
<Placemark><name>R15 move</name><styleUrl>#l</styleUrl><LineString><coordinates>-4.3653640,53.1458520,0 -4.3653218,53.1458466,0</coordinates></LineString></Placemark>
<Placemark><name>R16 (Martin)</name><styleUrl>#y</styleUrl><Point><coordinates>-4.3594266,53.1535871,0</coordinates></Point></Placemark>
<Placemark><name>R16 refined</name><description>Site 16: Ranwell 10.28 m OD, target 10.34 (offset +0.06); DEM at your point 10.15 (resid -0.19); refined point DEM 10.30 (resid -0.04); moved 11 m; local slope 0.010; cells within 80 m matching ±0.2 m: 2678</description><styleUrl>#g</styleUrl><Point><coordinates>-4.3593122,53.1535183,0</coordinates></Point></Placemark>
<Placemark><name>R16 move</name><styleUrl>#l</styleUrl><LineString><coordinates>-4.3594266,53.1535871,0 -4.3593122,53.1535183,0</coordinates></LineString></Placemark>
<Placemark><name>R18 (Martin)</name><styleUrl>#y</styleUrl><Point><coordinates>-4.3675440,53.1432093,0</coordinates></Point></Placemark>
<Placemark><name>R18 refined</name><description>Site 18: Ranwell 7.07 m OD, target 7.13 (offset +0.06); DEM at your point 7.16 (resid +0.03); refined point DEM 7.15 (resid +0.02); moved 2 m; local slope 0.004; cells within 80 m matching ±0.2 m: 1436</description><styleUrl>#g</styleUrl><Point><coordinates>-4.3675686,53.1431945,0</coordinates></Point></Placemark>
<Placemark><name>R18 move</name><styleUrl>#l</styleUrl><LineString><coordinates>-4.3675440,53.1432093,0 -4.3675686,53.1431945,0</coordinates></LineString></Placemark></Document></kml>