{"type": "FeatureCollection", "crs": {"type": "name", "properties": {"name": "urn:ogc:def:crs:EPSG::27700"}}, "features": [{"type": "Feature", "properties": {"basin": 1, "sites": [1, 11, 16], "sketch_groups": ["CG", "PL"], "floor_m": 7.45, "area_ha": 108.5}, "geometry": {"type": "Polygon", "coordinates": [[[241624.0, 364984.0], [241614.0, 364976.0], [241614.0, 364624.0], [241622.0, 364614.0], [241624.0, 364602.0], [241640.0, 364586.0], [241642.0, 364580.0], [241662.0, 364580.0], [241664.0, 364576.0], [241668.0, 364576.0], [241664.0, 364568.0], [241650.0, 364564.0], [241642.0, 364556.0], [241648.0, 364538.0], [241652.0, 364534.0], [241704.0, 364532.0], [241718.0, 364514.0], [241740.0, 364506.0], [241750.0, 364494.0], [241764.0, 364488.0], [241788.0, 364466.0], [241788.0, 364462.0], [241792.0, 364460.0], [241792.0, 364434.0], [241782.0, 364424.0], [241782.0, 364404.0], [241776.0, 364390.0], [241832.0, 364388.0], [241854.0, 364366.0], [241860.0, 364374.0], [241868.0, 364398.0], [241902.0, 364398.0], [241916.0, 364394.0], [241930.0, 364382.0], [241942.0, 364378.0], [241950.0, 364370.0], [241950.0, 364356.0], [241958.0, 364362.0], [241984.0, 364362.0], [242014.0, 364380.0], [242046.0, 364380.0], [242048.0, 364340.0], [242036.0, 364292.0], [242030.0, 364280.0], [242012.0, 364262.0], [242012.0, 364258.0], [241976.0, 364224.0], [241976.0, 364220.0], [241960.0, 364204.0], [241960.0, 364200.0], [241950.0, 364188.0], [241948.0, 364174.0], [241932.0, 364156.0], [241928.0, 364132.0], [241918.0, 364120.0], [241920.0, 364104.0], [241936.0, 364088.0], [241980.0, 364088.0], [241980.0, 364064.0], [241976.0, 364060.0], [241976.0, 364050.0], [241980.0, 364046.0], [241984.0, 364032.0], [241984.0, 364012.0], [241992.0, 364002.0], [242022.0, 364000.0], [242024.0, 363986.0], [242028.0, 363984.0], [242030.0, 363994.0], [242052.0, 364014.0], [242060.0, 364042.0], [242084.0, 364072.0], [242084.0, 364082.0], [242090.0, 364100.0], [242120.0, 364154.0], [242128.0, 364160.0], [242128.0, 364164.0], [242132.0, 364164.0], [242142.0, 364176.0], [242152.0, 364180.0], [242156.0, 364186.0], [242178.0, 364190.0], [242190.0, 364210.0], [242202.0, 364204.0], [242202.0, 364152.0], [242198.0, 364134.0], [242184.0, 364122.0], [242180.0, 364122.0], [242182.0, 364090.0], [242168.0, 364056.0], [242168.0, 364038.0], [242184.0, 364034.0], [242188.0, 364026.0], [242190.0, 363976.0], [242194.0, 363976.0], [242206.0, 363988.0], [242262.0, 363988.0], [242270.0, 363980.0], [242318.0, 363980.0], [242322.0, 363986.0], [242350.0, 363988.0], [242352.0, 364018.0], [242358.0, 364010.0], [242460.0, 364010.0], [242464.0, 364014.0], [242464.0, 364086.0], [242452.0, 364102.0], [242450.0, 364122.0], [242444.0, 364132.0], [242444.0, 364144.0], [242448.0, 364148.0], [242448.0, 364170.0], [242452.0, 364174.0], [242452.0, 364236.0], [242456.0, 364236.0], [242458.0, 364180.0], [242466.0, 364176.0], [242486.0, 364174.0], [242496.0, 364164.0], [242496.0, 364160.0], [242508.0, 364150.0], [242508.0, 364146.0], [242532.0, 364146.0], [242544.0, 364156.0], [242544.0, 364160.0], [242550.0, 364166.0], [242566.0, 364170.0], [242590.0, 364170.0], [242602.0, 364182.0], [242634.0, 364182.0], [242656.0, 364162.0], [242686.0, 364164.0], [242688.0, 364168.0], [242706.0, 364174.0], [242714.0, 364184.0], [242768.0, 364184.0], [242784.0, 364196.0], [242808.0, 364190.0], [242822.0, 364176.0], [242826.0, 364156.0], [242826.0, 364134.0], [242836.0, 364130.0], [242840.0, 364124.0], [242876.0, 364144.0], [242900.0, 364144.0], [242912.0, 364118.0], [242918.0, 364112.0], [242918.0, 364106.0], [242922.0, 364104.0], [242924.0, 364072.0], [242928.0, 364076.0], [242946.0, 364076.0], [242952.0, 364070.0], [242952.0, 364022.0], [242986.0, 364024.0], [242986.0, 364984.0], [241624.0, 364984.0]]]}}, {"type": "Feature", "properties": {"basin": 4, "sites": [4, 12, 13], "sketch_groups": ["CG"], "floor_m": 10.48, "area_ha": 62.9}, "geometry": {"type": "Polygon", "coordinates": [[[241326.0, 364984.0], [241314.0, 364978.0], [241296.0, 364976.0], [241290.0, 364964.0], [241260.0, 364934.0], [241248.0, 364900.0], [241234.0, 364888.0], [241234.0, 364856.0], [241210.0, 364852.0], [241194.0, 364844.0], [241194.0, 364760.0], [241190.0, 364756.0], [241206.0, 364756.0], [241208.0, 364752.0], [241212.0, 364752.0], [241212.0, 364748.0], [241220.0, 364742.0], [241224.0, 364734.0], [241224.0, 364726.0], [241246.0, 364712.0], [241240.0, 364708.0], [241240.0, 364680.0], [241234.0, 364668.0], [241224.0, 364660.0], [241212.0, 364634.0], [241188.0, 364606.0], [241230.0, 364606.0], [241264.0, 364600.0], [241284.0, 364600.0], [241290.0, 364596.0], [241294.0, 364572.0], [241300.0, 364568.0], [241300.0, 364544.0], [241286.0, 364520.0], [241284.0, 364506.0], [241274.0, 364496.0], [241262.0, 364474.0], [241250.0, 364464.0], [241250.0, 364428.0], [241222.0, 364402.0], [241220.0, 364330.0], [241232.0, 364330.0], [241250.0, 364338.0], [241268.0, 364338.0], [241274.0, 364318.0], [241272.0, 364284.0], [241260.0, 364262.0], [241246.0, 364248.0], [241244.0, 364202.0], [241248.0, 364208.0], [241270.0, 364208.0], [241296.0, 364226.0], [241300.0, 364226.0], [241312.0, 364214.0], [241314.0, 364208.0], [241358.0, 364206.0], [241364.0, 364188.0], [241368.0, 364186.0], [241368.0, 364142.0], [241366.0, 364068.0], [241358.0, 364066.0], [241356.0, 364062.0], [241376.0, 364062.0], [241384.0, 364058.0], [241392.0, 364044.0], [241392.0, 364026.0], [241388.0, 363994.0], [241374.0, 363936.0], [241356.0, 363896.0], [241380.0, 363896.0], [241398.0, 363890.0], [241404.0, 363884.0], [241404.0, 363848.0], [241408.0, 363854.0], [241462.0, 363852.0], [241462.0, 363820.0], [241470.0, 363822.0], [241474.0, 363818.0], [241474.0, 363812.0], [241516.0, 363814.0], [241526.0, 363802.0], [241534.0, 363772.0], [241558.0, 363772.0], [241558.0, 363676.0], [241554.0, 363674.0], [241620.0, 363672.0], [241632.0, 363684.0], [241632.0, 363688.0], [241638.0, 363690.0], [241652.0, 363706.0], [241658.0, 363700.0], [241672.0, 363696.0], [241682.0, 363688.0], [241688.0, 363692.0], [241724.0, 363692.0], [241730.0, 363680.0], [241736.0, 363678.0], [241740.0, 363686.0], [241742.0, 363708.0], [241754.0, 363724.0], [241754.0, 363756.0], [241758.0, 363770.0], [241764.0, 363776.0], [241764.0, 363780.0], [241788.0, 363804.0], [241796.0, 363824.0], [241804.0, 363832.0], [241824.0, 363840.0], [241862.0, 363842.0], [241870.0, 363846.0], [241874.0, 363852.0], [241878.0, 363852.0], [241882.0, 363858.0], [241886.0, 363858.0], [241898.0, 363868.0], [241902.0, 363886.0], [241918.0, 363902.0], [241938.0, 363912.0], [241952.0, 363926.0], [241954.0, 363934.0], [241958.0, 363936.0], [241964.0, 363948.0], [241964.0, 363954.0], [241970.0, 363958.0], [241972.0, 363964.0], [241976.0, 363964.0], [241980.0, 363970.0], [241994.0, 363978.0], [242026.0, 363978.0], [242022.0, 364000.0], [241996.0, 364000.0], [241984.0, 364012.0], [241984.0, 364032.0], [241980.0, 364046.0], [241976.0, 364050.0], [241976.0, 364060.0], [241980.0, 364064.0], [241980.0, 364088.0], [241936.0, 364088.0], [241920.0, 364104.0], [241918.0, 364120.0], [241926.0, 364128.0], [241932.0, 364156.0], [241948.0, 364174.0], [241950.0, 364188.0], [241960.0, 364200.0], [241960.0, 364204.0], [242030.0, 364280.0], [242042.0, 364310.0], [242044.0, 364332.0], [242048.0, 364340.0], [242048.0, 364374.0], [242046.0, 364380.0], [242014.0, 364380.0], [241984.0, 364362.0], [241958.0, 364362.0], [241950.0, 364356.0], [241950.0, 364370.0], [241942.0, 364378.0], [241930.0, 364382.0], [241920.0, 364392.0], [241902.0, 364398.0], [241868.0, 364398.0], [241860.0, 364374.0], [241854.0, 364366.0], [241832.0, 364388.0], [241776.0, 364390.0], [241782.0, 364404.0], [241782.0, 364424.0], [241792.0, 364434.0], [241792.0, 364460.0], [241788.0, 364462.0], [241788.0, 364466.0], [241764.0, 364488.0], [241750.0, 364494.0], [241740.0, 364506.0], [241718.0, 364514.0], [241704.0, 364532.0], [241652.0, 364534.0], [241648.0, 364538.0], [241642.0, 364556.0], [241650.0, 364564.0], [241664.0, 364568.0], [241668.0, 364576.0], [241664.0, 364576.0], [241662.0, 364580.0], [241642.0, 364580.0], [241640.0, 364586.0], [241624.0, 364602.0], [241622.0, 364614.0], [241614.0, 364624.0], [241614.0, 364976.0], [241624.0, 364984.0], [241326.0, 364984.0]]]}}, {"type": "Feature", "properties": {"basin": 13, "sites": [10], "sketch_groups": ["AS"], "floor_m": 4.77, "area_ha": 1.3}, "geometry": {"type": "Polygon", "coordinates": [[[241466.0, 363004.0], [241446.0, 362996.0], [241410.0, 362996.0], [241410.0, 362974.0], [241404.0, 362962.0], [241400.0, 362960.0], [241400.0, 362952.0], [241414.0, 362936.0], [241418.0, 362922.0], [241432.0, 362898.0], [241450.0, 362892.0], [241458.0, 362882.0], [241494.0, 362882.0], [241496.0, 362846.0], [241508.0, 362852.0], [241508.0, 362902.0], [241524.0, 362944.0], [241530.0, 362992.0], [241526.0, 363004.0], [241466.0, 363004.0]]]}}, {"type": "Feature", "properties": {"basin": 14, "sites": [3, 7, 8, 9, 18], "sketch_groups": ["AS"], "floor_m": 5.97, "area_ha": 12.6}, "geometry": {"type": "Polygon", "coordinates": [[[241828.0, 363430.0], [241814.0, 363424.0], [241780.0, 363424.0], [241772.0, 363420.0], [241768.0, 363414.0], [241764.0, 363414.0], [241764.0, 363410.0], [241756.0, 363404.0], [241756.0, 363400.0], [241742.0, 363384.0], [241736.0, 363366.0], [241724.0, 363350.0], [241724.0, 363346.0], [241704.0, 363328.0], [241694.0, 363304.0], [241672.0, 363286.0], [241670.0, 363270.0], [241662.0, 363252.0], [241624.0, 363218.0], [241616.0, 363200.0], [241606.0, 363192.0], [241594.0, 363150.0], [241560.0, 363120.0], [241560.0, 363068.0], [241556.0, 363058.0], [241538.0, 363042.0], [241536.0, 363022.0], [241526.0, 363010.0], [241530.0, 362976.0], [241524.0, 362944.0], [241508.0, 362902.0], [241508.0, 362852.0], [241500.0, 362850.0], [241516.0, 362840.0], [241516.0, 362814.0], [241504.0, 362790.0], [241504.0, 362784.0], [241516.0, 362770.0], [241528.0, 362766.0], [241542.0, 362754.0], [241562.0, 362756.0], [241586.0, 362780.0], [241590.0, 362780.0], [241606.0, 362794.0], [241636.0, 362798.0], [241650.0, 362806.0], [241652.0, 362826.0], [241656.0, 362834.0], [241660.0, 362836.0], [241672.0, 362858.0], [241678.0, 362862.0], [241678.0, 362866.0], [241686.0, 362872.0], [241686.0, 362876.0], [241696.0, 362884.0], [241696.0, 362888.0], [241716.0, 362910.0], [241730.0, 362942.0], [241742.0, 362954.0], [241756.0, 362988.0], [241762.0, 362992.0], [241766.0, 363002.0], [241776.0, 363010.0], [241776.0, 363014.0], [241766.0, 363022.0], [241766.0, 363040.0], [241770.0, 363042.0], [241782.0, 363066.0], [241788.0, 363070.0], [241798.0, 363090.0], [241818.0, 363110.0], [241822.0, 363160.0], [241830.0, 363180.0], [241846.0, 363198.0], [241862.0, 363232.0], [241866.0, 363234.0], [241868.0, 363302.0], [241876.0, 363308.0], [241876.0, 363314.0], [241880.0, 363316.0], [241880.0, 363336.0], [241872.0, 363348.0], [241872.0, 363364.0], [241868.0, 363368.0], [241874.0, 363376.0], [241874.0, 363410.0], [241868.0, 363414.0], [241844.0, 363412.0], [241828.0, 363426.0], [241828.0, 363430.0]]]}}, {"type": "Feature", "properties": {"basin": 20, "sites": [2, 5, 6, 14, 15], "sketch_groups": ["BS"], "floor_m": 4.11, "area_ha": 80.6}, "geometry": {"type": "Polygon", "coordinates": [[[242190.0, 364210.0], [242178.0, 364190.0], [242156.0, 364186.0], [242152.0, 364180.0], [242142.0, 364176.0], [242132.0, 364164.0], [242128.0, 364164.0], [242128.0, 364160.0], [242120.0, 364154.0], [242090.0, 364100.0], [242084.0, 364082.0], [242084.0, 364072.0], [242060.0, 364042.0], [242052.0, 364014.0], [242030.0, 363994.0], [242026.0, 363978.0], [241994.0, 363978.0], [241980.0, 363970.0], [241976.0, 363964.0], [241972.0, 363964.0], [241970.0, 363958.0], [241964.0, 363954.0], [241964.0, 363948.0], [241958.0, 363936.0], [241954.0, 363934.0], [241952.0, 363926.0], [241938.0, 363912.0], [241918.0, 363902.0], [241902.0, 363886.0], [241898.0, 363868.0], [241886.0, 363858.0], [241882.0, 363858.0], [241878.0, 363852.0], [241874.0, 363852.0], [241870.0, 363846.0], [241862.0, 363842.0], [241824.0, 363840.0], [241804.0, 363832.0], [241796.0, 363824.0], [241788.0, 363804.0], [241764.0, 363780.0], [241764.0, 363776.0], [241758.0, 363770.0], [241754.0, 363756.0], [241754.0, 363724.0], [241742.0, 363708.0], [241740.0, 363686.0], [241736.0, 363678.0], [241730.0, 363680.0], [241724.0, 363692.0], [241688.0, 363692.0], [241682.0, 363688.0], [241676.0, 363694.0], [241666.0, 363696.0], [241652.0, 363706.0], [241638.0, 363690.0], [241632.0, 363688.0], [241632.0, 363684.0], [241620.0, 363672.0], [241558.0, 363672.0], [241562.0, 363668.0], [241562.0, 363646.0], [241554.0, 363626.0], [241554.0, 363602.0], [241530.0, 363600.0], [241568.0, 363600.0], [241578.0, 363596.0], [241586.0, 363588.0], [241590.0, 363560.0], [241596.0, 363552.0], [241596.0, 363492.0], [241616.0, 363492.0], [241628.0, 363498.0], [241638.0, 363498.0], [241652.0, 363484.0], [241666.0, 363484.0], [241676.0, 363494.0], [241676.0, 363498.0], [241722.0, 363544.0], [241726.0, 363544.0], [241752.0, 363570.0], [241756.0, 363570.0], [241764.0, 363550.0], [241792.0, 363538.0], [241800.0, 363530.0], [241804.0, 363502.0], [241824.0, 363490.0], [241824.0, 363432.0], [241828.0, 363430.0], [241828.0, 363426.0], [241844.0, 363412.0], [241868.0, 363414.0], [241874.0, 363410.0], [241874.0, 363376.0], [241868.0, 363368.0], [241872.0, 363364.0], [241872.0, 363348.0], [241880.0, 363336.0], [241880.0, 363320.0], [241886.0, 363334.0], [241902.0, 363352.0], [241902.0, 363356.0], [241910.0, 363362.0], [241910.0, 363366.0], [241942.0, 363396.0], [241946.0, 363396.0], [241966.0, 363412.0], [241986.0, 363420.0], [241992.0, 363434.0], [242030.0, 363434.0], [242034.0, 363442.0], [242040.0, 363446.0], [242040.0, 363450.0], [242052.0, 363462.0], [242068.0, 363470.0], [242090.0, 363490.0], [242100.0, 363494.0], [242130.0, 363494.0], [242142.0, 363478.0], [242142.0, 363436.0], [242124.0, 363366.0], [242120.0, 363362.0], [242118.0, 363352.0], [242114.0, 363350.0], [242106.0, 363324.0], [242100.0, 363316.0], [242106.0, 363298.0], [242138.0, 363300.0], [242150.0, 363312.0], [242150.0, 363316.0], [242162.0, 363326.0], [242162.0, 363330.0], [242174.0, 363340.0], [242174.0, 363344.0], [242182.0, 363350.0], [242190.0, 363364.0], [242232.0, 363406.0], [242236.0, 363406.0], [242258.0, 363426.0], [242258.0, 363430.0], [242264.0, 363434.0], [242264.0, 363456.0], [242268.0, 363462.0], [242270.0, 363480.0], [242276.0, 363496.0], [242282.0, 363502.0], [242306.0, 363510.0], [242312.0, 363516.0], [242322.0, 363540.0], [242356.0, 363538.0], [242354.0, 363458.0], [242376.0, 363414.0], [242376.0, 363408.0], [242364.0, 363392.0], [242360.0, 363362.0], [242350.0, 363342.0], [242322.0, 363316.0], [242322.0, 363312.0], [242312.0, 363300.0], [242310.0, 363288.0], [242302.0, 363272.0], [242302.0, 363258.0], [242294.0, 363242.0], [242294.0, 363210.0], [242308.0, 363198.0], [242308.0, 363180.0], [242344.0, 363180.0], [242360.0, 363188.0], [242370.0, 363184.0], [242378.0, 363170.0], [242380.0, 363122.0], [242388.0, 363112.0], [242402.0, 363108.0], [242408.0, 363096.0], [242408.0, 363062.0], [242404.0, 363062.0], [242398.0, 363056.0], [242370.0, 363058.0], [242366.0, 363044.0], [242330.0, 363014.0], [242300.0, 363006.0], [242282.0, 363006.0], [242262.0, 362996.0], [242234.0, 362996.0], [242234.0, 362988.0], [242228.0, 362982.0], [242230.0, 362910.0], [242226.0, 362906.0], [242216.0, 362874.0], [242210.0, 362866.0], [242210.0, 362840.0], [242206.0, 362838.0], [242206.0, 362782.0], [242174.0, 362736.0], [242174.0, 362684.0], [242164.0, 362674.0], [242160.0, 362660.0], [242142.0, 362644.0], [242140.0, 362616.0], [242128.0, 362594.0], [242154.0, 362556.0], [242194.0, 362554.0], [242194.0, 362558.0], [242202.0, 362566.0], [242206.0, 362566.0], [242222.0, 362578.0], [242234.0, 362602.0], [242238.0, 362604.0], [242242.0, 362616.0], [242254.0, 362630.0], [242260.0, 362646.0], [242268.0, 362654.0], [242278.0, 362656.0], [242284.0, 362662.0], [242290.0, 362662.0], [242310.0, 362672.0], [242318.0, 362664.0], [242336.0, 362664.0], [242338.0, 362630.0], [242400.0, 362632.0], [242408.0, 362636.0], [242412.0, 362642.0], [242416.0, 362642.0], [242418.0, 362626.0], [242422.0, 362622.0], [242422.0, 362598.0], [242428.0, 362582.0], [242428.0, 362544.0], [242480.0, 362544.0], [242480.0, 362548.0], [242484.0, 362550.0], [242484.0, 362554.0], [242488.0, 362556.0], [242490.0, 362564.0], [242494.0, 362566.0], [242496.0, 362574.0], [242504.0, 362584.0], [242508.0, 362610.0], [242520.0, 362640.0], [242520.0, 362654.0], [242526.0, 362668.0], [242536.0, 362678.0], [242536.0, 362682.0], [242550.0, 362696.0], [242554.0, 362696.0], [242568.0, 362712.0], [242578.0, 362736.0], [242582.0, 362738.0], [242588.0, 362750.0], [242596.0, 362774.0], [242622.0, 362806.0], [242622.0, 362866.0], [242592.0, 362858.0], [242546.0, 362858.0], [242540.0, 362854.0], [242540.0, 362938.0], [242552.0, 362954.0], [242552.0, 362974.0], [242546.0, 362996.0], [242564.0, 363018.0], [242568.0, 363028.0], [242568.0, 363040.0], [242576.0, 363056.0], [242596.0, 363068.0], [242598.0, 363092.0], [242606.0, 363106.0], [242614.0, 363140.0], [242620.0, 363152.0], [242626.0, 363156.0], [242626.0, 363160.0], [242634.0, 363166.0], [242638.0, 363174.0], [242638.0, 363230.0], [242634.0, 363230.0], [242628.0, 363236.0], [242624.0, 363252.0], [242628.0, 363254.0], [242634.0, 363272.0], [242642.0, 363284.0], [242650.0, 363312.0], [242656.0, 363316.0], [242668.0, 363346.0], [242672.0, 363348.0], [242674.0, 363356.0], [242688.0, 363372.0], [242688.0, 363376.0], [242698.0, 363386.0], [242714.0, 363394.0], [242738.0, 363394.0], [242744.0, 363400.0], [242734.0, 363412.0], [242736.0, 363452.0], [242754.0, 363486.0], [242776.0, 363508.0], [242784.0, 363524.0], [242792.0, 363530.0], [242814.0, 363574.0], [242818.0, 363576.0], [242820.0, 363586.0], [242838.0, 363608.0], [242840.0, 363638.0], [242836.0, 363642.0], [242836.0, 363662.0], [242832.0, 363672.0], [242832.0, 363684.0], [242824.0, 363694.0], [242820.0, 363706.0], [242808.0, 363718.0], [242808.0, 363736.0], [242798.0, 363756.0], [242772.0, 363756.0], [242754.0, 363748.0], [242712.0, 363748.0], [242712.0, 363740.0], [242708.0, 363734.0], [242708.0, 363744.0], [242620.0, 363742.0], [242618.0, 363760.0], [242614.0, 363768.0], [242550.0, 363770.0], [242552.0, 363800.0], [242540.0, 363834.0], [242526.0, 363846.0], [242516.0, 363850.0], [242512.0, 363856.0], [242492.0, 363856.0], [242492.0, 363884.0], [242496.0, 363888.0], [242496.0, 363944.0], [242484.0, 363962.0], [242476.0, 363990.0], [242458.0, 364010.0], [242358.0, 364010.0], [242352.0, 364018.0], [242350.0, 363988.0], [242322.0, 363986.0], [242318.0, 363980.0], [242270.0, 363980.0], [242262.0, 363988.0], [242206.0, 363988.0], [242194.0, 363976.0], [242190.0, 363976.0], [242190.0, 364018.0], [242186.0, 364032.0], [242168.0, 364038.0], [242170.0, 364064.0], [242182.0, 364090.0], [242180.0, 364122.0], [242184.0, 364122.0], [242198.0, 364134.0], [242202.0, 364152.0], [242202.0, 364204.0], [242190.0, 364210.0]]]}}]}