<?xml version="1.0" encoding="utf-8" ?>
<kml xmlns="http://www.opengis.net/kml/2.2">
<Document id="root_doc">
<Schema name="ranwell_ridge__ranwell_ridge" id="ranwell_ridge__ranwell_ridge">
	<SimpleField name="timestamp" type="string"></SimpleField>
	<SimpleField name="begin" type="string"></SimpleField>
	<SimpleField name="end" type="string"></SimpleField>
	<SimpleField name="altitudeMode" type="string"></SimpleField>
	<SimpleField name="tessellate" type="int"></SimpleField>
	<SimpleField name="extrude" type="int"></SimpleField>
	<SimpleField name="visibility" type="int"></SimpleField>
	<SimpleField name="drawOrder" type="int"></SimpleField>
	<SimpleField name="icon" type="string"></SimpleField>
	<SimpleField name="id" type="float"></SimpleField>
	<SimpleField name="ridge" type="float"></SimpleField>
</Schema>
<Folder><name>ranwell_ridge__ranwell_ridge</name>
  <Placemark>
	<name>ist slack</name>
	<Style><LineStyle><color>ff0000ff</color></LineStyle><PolyStyle><fill>0</fill></PolyStyle></Style>
      <LineString><coordinates>-4.36452694542069,53.1452438216194 -4.36500084490171,53.1449744784843 -4.36527177315156,53.1451160097294 -4.36553959971305,53.1452010961364 -4.3653235993304,53.1453749067882 -4.36503125214656,53.1455276318352 -4.36533290896911,53.1455442394025 -4.36570780768669,53.1455254868509 -4.36582418810906,53.1455909805274 -4.36589417356828,53.1458382152029 -4.3657357415707,53.1460334845221 -4.36586205619593,53.1462795995144 -4.36599597356631,53.146322142076 -4.36667129935293,53.1462974138124 -4.36716631527005,53.1464118822405 -4.36708796177751,53.1466959700649 -4.36687196041877,53.1468697835004 -4.36601367623109,53.147327594735 -4.36550173810156,53.1472473613133 -4.36480311564338,53.1475324726311 -4.36431475325228,53.1478812101208 -4.36399599782932,53.1482378780193 -4.36354190443451,53.1488684606706 -4.3633157831303,53.1492006846546 -4.36310967645202,53.1495551131103 -4.3628208384313,53.1501146045104 -4.36266795769947,53.1504114696205 -4.36221958214314,53.1508046088025 -4.36170928457212,53.1510972644792 -4.36174578540078,53.1507349031231 -4.3615154878014,53.1506490634009 -4.36180868504055,53.1501685970104 -4.36212499298889,53.1497667792792 -4.36161551148637,53.1497316848575 -4.3618210115446,53.1493659699899 -4.36198009312522,53.1491819945083 -4.36145122135207,53.1491359830822 -4.36169241570311,53.1487356566979 -4.36223714094639,53.1483858116365 -4.3624977209825,53.1479963998816 -4.36291285207827,53.147683027405 -4.36350379062414,53.1474904751466 -4.36399294250516,53.1468139913684 -4.36423207452786,53.1467188319768 -4.36413277463361,53.1462800588103 -4.36383562315419,53.1460034317407 -4.36422512558597,53.1455662504641 -4.36445432362391,53.1452904690999 -4.36450878998624,53.1452554834935 -4.36450878998624,53.1452554834935</coordinates></LineString>
  </Placemark>
  <Placemark>
	<name>2nd slack</name>
	<Style><LineStyle><color>ff0000ff</color></LineStyle><PolyStyle><fill>0</fill></PolyStyle></Style>
      <LineString><coordinates>-4.36920932378673,53.1417829487178 -4.36930182579872,53.1420975405273 -4.36871396401097,53.1426856029533 -4.36812173703607,53.1431946408451 -4.3671820846665,53.1438801041857 -4.36694918528017,53.1440881576015 -4.3667164297037,53.1439571722471 -4.36633657818229,53.1438856171374 -4.36611949667757,53.1436978130884 -4.36633300214217,53.1434788457312 -4.36626115591575,53.143197744696 -4.36611917774546,53.1430084473992 -4.36587013868716,53.142922988901 -4.36638853231848,53.1424380328643 -4.3665520635355,53.141994034995 -4.36702233318559,53.1413179127529 -4.36744806761935,53.1408573969744 -4.36790933931744,53.1407013046014 -4.36793646360967,53.1401696090007 -4.36825947733774,53.1398919529334 -4.3688366137315,53.1394510212464 -4.36931539541068,53.1392719722901 -4.36926902043606,53.1394537146657 -4.36869561690391,53.1399623813447 -4.36906225725541,53.1401359024179 -4.36964734594799,53.1401807598197 -4.36993777547467,53.1399941574575 -4.37006160813503,53.1401951129001 -4.37004582265525,53.140590969074 -4.36931724908807,53.1410123191418 -4.36918819040126,53.1413991289473 -4.36918819040126,53.1413991289473</coordinates></LineString>
  </Placemark>
</Folder>
</Document></kml>
