<?xml version="1.0" encoding="UTF-8"?><kml xmlns="http://www.opengis.net/kml/2.2"><Document><name>DEM watershed basins (10 m smooth, h=1.0 m) holding the Ranwell sites</name>
<Style id="b"><LineStyle><color>ffff8800</color><width>2</width></LineStyle><PolyStyle><color>3300ffff</color></PolyStyle></Style>
<Style id="p"><IconStyle><scale>1.0</scale><color>ff00ff00</color><Icon><href>http://maps.google.com/mapfiles/kml/shapes/placemark_circle.png</href></Icon></IconStyle></Style>
<Placemark><name>basin 1: sites [1, 11, 16] (CG/PL)</name><styleUrl>#b</styleUrl><Polygon><outerBoundaryIs><LinearRing><coordinates>-4.370184,53.158364,0 -4.370329,53.158290,0 -4.370155,53.155128,0 -4.370031,53.155041,0 -4.369995,53.154933,0 -4.369748,53.154795,0 -4.369715,53.154741,0 -4.369416,53.154747,0 -4.369384,53.154712,0 -4.369324,53.154713,0 -4.369380,53.154640,0 -4.369587,53.154600,0 -4.369703,53.154526,0 -4.369604,53.154366,0 -4.369543,53.154331,0 -4.368765,53.154329,0 -4.368547,53.154171,0 -4.368214,53.154106,0 -4.368059,53.154001,0 -4.367847,53.153951,0 -4.367477,53.153761,0 -4.367475,53.153725,0 -4.367414,53.153708,0 -4.367402,53.153475,0 -4.367546,53.153382,0 -4.367536,53.153202,0 -4.367619,53.153075,0 -4.366781,53.153073,0 -4.366442,53.152882,0 -4.366356,53.152956,0 -4.366248,53.153174,0 -4.365740,53.153184,0 -4.365529,53.153152,0 -4.365314,53.153049,0 -4.365133,53.153016,0 -4.365009,53.152947,0 -4.365002,53.152821,0 -4.364886,53.152877,0 -4.364497,53.152885,0 -4.364058,53.153056,0 -4.363580,53.153065,0 -4.363530,53.152706,0 -4.363686,53.152272,0 -4.363770,53.152162,0 -4.364030,53.151995,0 -4.364028,53.151959,0 -4.364549,53.151643,0 -4.364547,53.151607,0 -4.364778,53.151459,0 -4.364776,53.151423,0 -4.364919,53.151312,0 -4.364942,53.151186,0 -4.365173,53.151019,0 -4.365220,53.150803,0 -4.365364,53.150692,0 -4.365326,53.150549,0 -4.365079,53.150410,0 -4.364422,53.150423,0 -4.364410,53.150207,0 -4.364468,53.150170,0 -4.364463,53.150080,0 -4.364401,53.150046,0 -4.364334,53.149921,0 -4.364325,53.149742,0 -4.364200,53.149654,0 -4.363751,53.149645,0 -4.363714,53.149520,0 -4.363653,53.149503,0 -4.363628,53.149594,0 -4.363310,53.149780,0 -4.363204,53.150034,0 -4.362860,53.150310,0 -4.362865,53.150400,0 -4.362784,53.150563,0 -4.362363,53.151057,0 -4.362246,53.151113,0 -4.362248,53.151149,0 -4.362189,53.151151,0 -4.362045,53.151261,0 -4.361898,53.151300,0 -4.361841,53.151355,0 -4.361514,53.151398,0 -4.361345,53.151581,0 -4.361162,53.151531,0 -4.361137,53.151064,0 -4.361188,53.150901,0 -4.361391,53.150789,0 -4.361451,53.150788,0 -4.361405,53.150501,0 -4.361597,53.150191,0 -4.361589,53.150030,0 -4.361348,53.149998,0 -4.361284,53.149928,0 -4.361229,53.149479,0 -4.361170,53.149480,0 -4.360996,53.149592,0 -4.360160,53.149608,0 -4.360036,53.149539,0 -4.359319,53.149553,0 -4.359262,53.149608,0 -4.358845,53.149634,0 -4.358830,53.149904,0 -4.358736,53.149834,0 -4.357212,53.149865,0 -4.357155,53.149902,0 -4.357190,53.150548,0 -4.357377,53.150689,0 -4.357417,53.150868,0 -4.357511,53.150956,0 -4.357517,53.151063,0 -4.357460,53.151100,0 -4.357470,53.151298,0 -4.357413,53.151335,0 -4.357443,53.151892,0 -4.357383,53.151893,0 -4.357326,53.151391,0 -4.357204,53.151357,0 -4.356905,53.151345,0 -4.356750,53.151258,0 -4.356748,53.151222,0 -4.356564,53.151136,0 -4.356562,53.151100,0 -4.356204,53.151107,0 -4.356029,53.151201,0 -4.356031,53.151237,0 -4.355945,53.151292,0 -4.355707,53.151333,0 -4.355349,53.151340,0 -4.355176,53.151451,0 -4.354697,53.151461,0 -4.354359,53.151288,0 -4.353912,53.151315,0 -4.353884,53.151351,0 -4.353618,53.151410,0 -4.353503,53.151502,0 -4.352696,53.151518,0 -4.352463,53.151631,0 -4.352102,53.151584,0 -4.351886,53.151463,0 -4.351816,53.151284,0 -4.351805,53.151086,0 -4.351654,53.151053,0 -4.351591,53.151001,0 -4.351063,53.151191,0 -4.350705,53.151198,0 -4.350513,53.150968,0 -4.350420,53.150916,0 -4.350417,53.150862,0 -4.350356,53.150845,0 -4.350311,53.150559,0 -4.350253,53.150596,0 -4.349984,53.150601,0 -4.349892,53.150549,0 -4.349868,53.150118,0 -4.349361,53.150146,0 -4.349832,53.158768,0 -4.370184,53.158364,0</coordinates></LinearRing></outerBoundaryIs></Polygon></Placemark>
<Placemark><name>basin 4: sites [4, 12, 13] (CG)</name><styleUrl>#b</styleUrl><Polygon><outerBoundaryIs><LinearRing><coordinates>-4.374637,53.158276,0 -4.374813,53.158218,0 -4.375081,53.158195,0 -4.375165,53.158085,0 -4.375598,53.157807,0 -4.375760,53.157498,0 -4.375964,53.157386,0 -4.375948,53.157099,0 -4.376304,53.157055,0 -4.376539,53.156979,0 -4.376498,53.156224,0 -4.376556,53.156187,0 -4.376317,53.156192,0 -4.376285,53.156157,0 -4.376225,53.156158,0 -4.376223,53.156122,0 -4.376100,53.156071,0 -4.376037,53.156000,0 -4.376033,53.155928,0 -4.375697,53.155809,0 -4.375785,53.155771,0 -4.375771,53.155520,0 -4.375854,53.155410,0 -4.376000,53.155335,0 -4.376166,53.155098,0 -4.376511,53.154840,0 -4.375883,53.154852,0 -4.375373,53.154808,0 -4.375074,53.154814,0 -4.374982,53.154780,0 -4.374910,53.154566,0 -4.374819,53.154532,0 -4.374807,53.154316,0 -4.375004,53.154096,0 -4.375027,53.153970,0 -4.375172,53.153877,0 -4.375340,53.153676,0 -4.375514,53.153583,0 -4.375496,53.153259,0 -4.375902,53.153018,0 -4.375896,53.152370,0 -4.375717,53.152374,0 -4.375452,53.152451,0 -4.375183,53.152456,0 -4.375083,53.152279,0 -4.375096,53.151973,0 -4.375265,53.151771,0 -4.375467,53.151642,0 -4.375474,53.151228,0 -4.375417,53.151283,0 -4.375088,53.151289,0 -4.374709,53.151459,0 -4.374649,53.151460,0 -4.374464,53.151356,0 -4.374431,53.151303,0 -4.373773,53.151298,0 -4.373674,53.151138,0 -4.373613,53.151121,0 -4.373592,53.150726,0 -4.373585,53.150061,0 -4.373703,53.150040,0 -4.373731,53.150004,0 -4.373432,53.150010,0 -4.373311,53.149976,0 -4.373185,53.149853,0 -4.373176,53.149691,0 -4.373220,53.149403,0 -4.373400,53.148878,0 -4.373649,53.148513,0 -4.373290,53.148520,0 -4.373019,53.148472,0 -4.372926,53.148419,0 -4.372908,53.148096,0 -4.372851,53.148151,0 -4.372044,53.148149,0 -4.372028,53.147862,0 -4.371909,53.147882,0 -4.371848,53.147848,0 -4.371845,53.147794,0 -4.371218,53.147824,0 -4.371063,53.147719,0 -4.370928,53.147452,0 -4.370570,53.147459,0 -4.370522,53.146597,0 -4.370581,53.146578,0 -4.369594,53.146580,0 -4.369421,53.146691,0 -4.369423,53.146727,0 -4.369334,53.146747,0 -4.369133,53.146895,0 -4.369040,53.146843,0 -4.368829,53.146811,0 -4.368676,53.146742,0 -4.368588,53.146780,0 -4.368051,53.146790,0 -4.367955,53.146684,0 -4.367864,53.146668,0 -4.367809,53.146741,0 -4.367790,53.146939,0 -4.367618,53.147087,0 -4.367634,53.147374,0 -4.367581,53.147501,0 -4.367495,53.147557,0 -4.367497,53.147593,0 -4.367150,53.147815,0 -4.367040,53.147997,0 -4.366925,53.148071,0 -4.366630,53.148149,0 -4.366063,53.148178,0 -4.365946,53.148217,0 -4.365889,53.148272,0 -4.365829,53.148273,0 -4.365772,53.148328,0 -4.365713,53.148329,0 -4.365538,53.148423,0 -4.365487,53.148586,0 -4.365256,53.148734,0 -4.364962,53.148830,0 -4.364760,53.148960,0 -4.364734,53.149032,0 -4.364675,53.149051,0 -4.364592,53.149161,0 -4.364595,53.149215,0 -4.364507,53.149252,0 -4.364480,53.149307,0 -4.364420,53.149308,0 -4.364364,53.149363,0 -4.364158,53.149439,0 -4.363680,53.149449,0 -4.363751,53.149645,0 -4.364139,53.149637,0 -4.364325,53.149742,0 -4.364334,53.149921,0 -4.364401,53.150046,0 -4.364463,53.150080,0 -4.364468,53.150170,0 -4.364410,53.150207,0 -4.364422,53.150423,0 -4.365079,53.150410,0 -4.365326,53.150549,0 -4.365364,53.150692,0 -4.365248,53.150766,0 -4.365173,53.151019,0 -4.364942,53.151186,0 -4.364919,53.151312,0 -4.364776,53.151423,0 -4.364778,53.151459,0 -4.363770,53.152162,0 -4.363605,53.152435,0 -4.363586,53.152633,0 -4.363530,53.152706,0 -4.363547,53.153012,0 -4.363580,53.153065,0 -4.364058,53.153056,0 -4.364497,53.152885,0 -4.364886,53.152877,0 -4.365002,53.152821,0 -4.365009,53.152947,0 -4.365133,53.153016,0 -4.365314,53.153049,0 -4.365468,53.153135,0 -4.365740,53.153184,0 -4.366248,53.153174,0 -4.366356,53.152956,0 -4.366442,53.152882,0 -4.366781,53.153073,0 -4.367619,53.153075,0 -4.367536,53.153202,0 -4.367546,53.153382,0 -4.367402,53.153475,0 -4.367414,53.153708,0 -4.367475,53.153725,0 -4.367477,53.153761,0 -4.367847,53.153951,0 -4.368059,53.154001,0 -4.368214,53.154106,0 -4.368547,53.154171,0 -4.368765,53.154329,0 -4.369543,53.154331,0 -4.369604,53.154366,0 -4.369703,53.154526,0 -4.369587,53.154600,0 -4.369380,53.154640,0 -4.369324,53.154713,0 -4.369384,53.154712,0 -4.369416,53.154747,0 -4.369715,53.154741,0 -4.369748,53.154795,0 -4.369995,53.154933,0 -4.370031,53.155041,0 -4.370155,53.155128,0 -4.370329,53.158290,0 -4.370184,53.158364,0 -4.374637,53.158276,0</coordinates></LinearRing></outerBoundaryIs></Polygon></Placemark>
<Placemark><name>basin 13: sites [10] (AS)</name><styleUrl>#b</styleUrl><Polygon><outerBoundaryIs><LinearRing><coordinates>-4.371564,53.140534,0 -4.371859,53.140457,0 -4.372397,53.140446,0 -4.372386,53.140248,0 -4.372469,53.140139,0 -4.372528,53.140120,0 -4.372524,53.140048,0 -4.372307,53.139908,0 -4.372240,53.139784,0 -4.372019,53.139572,0 -4.371748,53.139524,0 -4.371623,53.139436,0 -4.371085,53.139447,0 -4.371038,53.139124,0 -4.370862,53.139182,0 -4.370886,53.139631,0 -4.370668,53.140013,0 -4.370602,53.140446,0 -4.370668,53.140552,0 -4.371564,53.140534,0</coordinates></LinearRing></outerBoundaryIs></Polygon></Placemark>
<Placemark><name>basin 14: sites [3, 7, 8, 9, 18] (AS)</name><styleUrl>#b</styleUrl><Polygon><outerBoundaryIs><LinearRing><coordinates>-4.366368,53.144468,0 -4.366574,53.144410,0 -4.367082,53.144400,0 -4.367199,53.144362,0 -4.367256,53.144307,0 -4.367316,53.144305,0 -4.367314,53.144269,0 -4.367430,53.144213,0 -4.367428,53.144177,0 -4.367629,53.144029,0 -4.367710,53.143866,0 -4.367882,53.143719,0 -4.367880,53.143683,0 -4.368169,53.143515,0 -4.368307,53.143297,0 -4.368627,53.143128,0 -4.368649,53.142984,0 -4.368759,53.142820,0 -4.369310,53.142503,0 -4.369421,53.142339,0 -4.369566,53.142265,0 -4.369724,53.141884,0 -4.370217,53.141604,0 -4.370192,53.141137,0 -4.370247,53.141046,0 -4.370507,53.140897,0 -4.370527,53.140717,0 -4.370671,53.140606,0 -4.370594,53.140302,0 -4.370668,53.140013,0 -4.370886,53.139631,0 -4.370862,53.139182,0 -4.370980,53.139161,0 -4.370736,53.139076,0 -4.370723,53.138843,0 -4.370891,53.138624,0 -4.370888,53.138570,0 -4.370701,53.138448,0 -4.370520,53.138415,0 -4.370305,53.138312,0 -4.370008,53.138336,0 -4.369661,53.138558,0 -4.369601,53.138560,0 -4.369369,53.138690,0 -4.368923,53.138735,0 -4.368718,53.138811,0 -4.368698,53.138991,0 -4.368642,53.139064,0 -4.368583,53.139083,0 -4.368415,53.139284,0 -4.368327,53.139322,0 -4.368329,53.139358,0 -4.368213,53.139414,0 -4.368215,53.139450,0 -4.368069,53.139525,0 -4.368071,53.139561,0 -4.367784,53.139765,0 -4.367590,53.140056,0 -4.367417,53.140167,0 -4.367225,53.140477,0 -4.367137,53.140515,0 -4.367082,53.140606,0 -4.366937,53.140681,0 -4.366939,53.140716,0 -4.367092,53.140785,0 -4.367101,53.140947,0 -4.367042,53.140966,0 -4.366875,53.141185,0 -4.366787,53.141223,0 -4.366648,53.141406,0 -4.366359,53.141591,0 -4.366324,53.142041,0 -4.366214,53.142223,0 -4.365984,53.142390,0 -4.365762,53.142700,0 -4.365703,53.142719,0 -4.365707,53.143330,0 -4.365590,53.143387,0 -4.365593,53.143441,0 -4.365535,53.143460,0 -4.365544,53.143639,0 -4.365670,53.143745,0 -4.365678,53.143888,0 -4.365739,53.143923,0 -4.365654,53.143997,0 -4.365671,53.144302,0 -4.365762,53.144336,0 -4.366120,53.144311,0 -4.366366,53.144432,0 -4.366368,53.144468,0</coordinates></LinearRing></outerBoundaryIs></Polygon></Placemark>
<Placemark><name>basin 20: sites [2, 5, 6, 14, 15] (BS)</name><styleUrl>#b</styleUrl><Polygon><outerBoundaryIs><LinearRing><coordinates>-4.361345,53.151581,0 -4.361514,53.151398,0 -4.361841,53.151355,0 -4.361898,53.151300,0 -4.362045,53.151261,0 -4.362189,53.151151,0 -4.362248,53.151149,0 -4.362246,53.151113,0 -4.362363,53.151057,0 -4.362784,53.150563,0 -4.362865,53.150400,0 -4.362860,53.150310,0 -4.363204,53.150034,0 -4.363310,53.149780,0 -4.363628,53.149594,0 -4.363680,53.149449,0 -4.364158,53.149439,0 -4.364364,53.149363,0 -4.364420,53.149308,0 -4.364480,53.149307,0 -4.364507,53.149252,0 -4.364595,53.149215,0 -4.364592,53.149161,0 -4.364675,53.149051,0 -4.364734,53.149032,0 -4.364760,53.148960,0 -4.364962,53.148830,0 -4.365256,53.148734,0 -4.365487,53.148586,0 -4.365538,53.148423,0 -4.365713,53.148329,0 -4.365772,53.148328,0 -4.365829,53.148273,0 -4.365889,53.148272,0 -4.365946,53.148217,0 -4.366063,53.148178,0 -4.366630,53.148149,0 -4.366925,53.148071,0 -4.367040,53.147997,0 -4.367150,53.147815,0 -4.367497,53.147593,0 -4.367495,53.147557,0 -4.367581,53.147501,0 -4.367634,53.147374,0 -4.367618,53.147087,0 -4.367790,53.146939,0 -4.367809,53.146741,0 -4.367864,53.146668,0 -4.367955,53.146684,0 -4.368051,53.146790,0 -4.368588,53.146780,0 -4.368676,53.146742,0 -4.368769,53.146794,0 -4.368919,53.146809,0 -4.369133,53.146895,0 -4.369334,53.146747,0 -4.369423,53.146727,0 -4.369421,53.146691,0 -4.369594,53.146580,0 -4.370520,53.146561,0 -4.370459,53.146527,0 -4.370448,53.146329,0 -4.370557,53.146147,0 -4.370546,53.145931,0 -4.370903,53.145906,0 -4.370335,53.145918,0 -4.370184,53.145885,0 -4.370061,53.145815,0 -4.369987,53.145565,0 -4.369893,53.145495,0 -4.369864,53.144956,0 -4.369565,53.144962,0 -4.369389,53.145019,0 -4.369239,53.145022,0 -4.369023,53.144901,0 -4.368814,53.144905,0 -4.368670,53.144998,0 -4.368672,53.145034,0 -4.368007,53.145460,0 -4.367948,53.145462,0 -4.367572,53.145703,0 -4.367512,53.145704,0 -4.367383,53.145527,0 -4.366959,53.145427,0 -4.366835,53.145358,0 -4.366762,53.145108,0 -4.366457,53.145006,0 -4.366428,53.144485,0 -4.366368,53.144468,0 -4.366366,53.144432,0 -4.366120,53.144311,0 -4.365762,53.144336,0 -4.365671,53.144302,0 -4.365654,53.143997,0 -4.365739,53.143923,0 -4.365678,53.143888,0 -4.365670,53.143745,0 -4.365544,53.143639,0 -4.365537,53.143496,0 -4.365454,53.143623,0 -4.365224,53.143790,0 -4.365226,53.143825,0 -4.365109,53.143882,0 -4.365111,53.143918,0 -4.364648,53.144197,0 -4.364588,53.144198,0 -4.364297,53.144347,0 -4.364003,53.144425,0 -4.363920,53.144553,0 -4.363352,53.144564,0 -4.363296,53.144637,0 -4.363209,53.144675,0 -4.363211,53.144711,0 -4.363037,53.144822,0 -4.362802,53.144899,0 -4.362484,53.145085,0 -4.362336,53.145124,0 -4.361888,53.145133,0 -4.361701,53.144992,0 -4.361680,53.144615,0 -4.361914,53.143981,0 -4.361972,53.143944,0 -4.361997,53.143854,0 -4.362056,53.143834,0 -4.362163,53.143599,0 -4.362248,53.143525,0 -4.362150,53.143365,0 -4.361673,53.143393,0 -4.361500,53.143504,0 -4.361501,53.143540,0 -4.361327,53.143633,0 -4.361329,53.143669,0 -4.361155,53.143762,0 -4.361157,53.143798,0 -4.361040,53.143855,0 -4.360928,53.143983,0 -4.360321,53.144372,0 -4.360261,53.144374,0 -4.359942,53.144560,0 -4.359944,53.144596,0 -4.359857,53.144633,0 -4.359868,53.144831,0 -4.359811,53.144886,0 -4.359790,53.145048,0 -4.359708,53.145194,0 -4.359621,53.145249,0 -4.359267,53.145328,0 -4.359180,53.145384,0 -4.359043,53.145603,0 -4.358534,53.145595,0 -4.358524,53.144876,0 -4.358174,53.144487,0 -4.358171,53.144433,0 -4.358342,53.144286,0 -4.358387,53.144015,0 -4.358527,53.143833,0 -4.358932,53.143591,0 -4.358930,53.143555,0 -4.359074,53.143444,0 -4.359098,53.143336,0 -4.359209,53.143190,0 -4.359202,53.143064,0 -4.359314,53.142918,0 -4.359298,53.142630,0 -4.359083,53.142527,0 -4.359074,53.142365,0 -4.358537,53.142376,0 -4.358302,53.142452,0 -4.358150,53.142419,0 -4.358024,53.142296,0 -4.357970,53.141866,0 -4.357846,53.141778,0 -4.357635,53.141746,0 -4.357539,53.141640,0 -4.357523,53.141335,0 -4.357582,53.141334,0 -4.357669,53.141278,0 -4.358088,53.141288,0 -4.358141,53.141161,0 -4.358664,53.140881,0 -4.359108,53.140800,0 -4.359377,53.140795,0 -4.359671,53.140699,0 -4.360089,53.140691,0 -4.360085,53.140619,0 -4.360172,53.140563,0 -4.360106,53.139917,0 -4.360164,53.139880,0 -4.360298,53.139590,0 -4.360384,53.139516,0 -4.360371,53.139282,0 -4.360429,53.139263,0 -4.360402,53.138760,0 -4.360857,53.138338,0 -4.360832,53.137871,0 -4.360976,53.137778,0 -4.361029,53.137651,0 -4.361290,53.137502,0 -4.361306,53.137250,0 -4.361474,53.137049,0 -4.361067,53.136715,0 -4.360469,53.136709,0 -4.360471,53.136745,0 -4.360355,53.136819,0 -4.360295,53.136820,0 -4.360062,53.136933,0 -4.359895,53.137152,0 -4.359836,53.137171,0 -4.359782,53.137280,0 -4.359610,53.137409,0 -4.359528,53.137555,0 -4.359413,53.137629,0 -4.359264,53.137650,0 -4.359178,53.137706,0 -4.359088,53.137707,0 -4.358794,53.137803,0 -4.358671,53.137734,0 -4.358402,53.137739,0 -4.358356,53.137434,0 -4.357431,53.137471,0 -4.357313,53.137509,0 -4.357256,53.137564,0 -4.357197,53.137565,0 -4.357159,53.137422,0 -4.357097,53.137387,0 -4.357085,53.137172,0 -4.356988,53.137030,0 -4.356969,53.136689,0 -4.356192,53.136704,0 -4.356194,53.136740,0 -4.356136,53.136759,0 -4.356138,53.136795,0 -4.356079,53.136814,0 -4.356053,53.136886,0 -4.355994,53.136906,0 -4.355968,53.136978,0 -4.355854,53.137070,0 -4.355807,53.137305,0 -4.355642,53.137578,0 -4.355649,53.137704,0 -4.355566,53.137831,0 -4.355422,53.137924,0 -4.355424,53.137960,0 -4.355222,53.138090,0 -4.355162,53.138091,0 -4.354961,53.138239,0 -4.354823,53.138457,0 -4.354764,53.138476,0 -4.354681,53.138586,0 -4.354573,53.138804,0 -4.354200,53.139099,0 -4.354230,53.139638,0 -4.354674,53.139557,0 -4.355361,53.139544,0 -4.355449,53.139506,0 -4.355490,53.140260,0 -4.355319,53.140408,0 -4.355329,53.140587,0 -4.355429,53.140783,0 -4.355171,53.140986,0 -4.355116,53.141077,0 -4.355122,53.141185,0 -4.355010,53.141331,0 -4.354718,53.141444,0 -4.354699,53.141661,0 -4.354587,53.141789,0 -4.354484,53.142096,0 -4.354400,53.142206,0 -4.354313,53.142244,0 -4.354315,53.142280,0 -4.354198,53.142336,0 -4.354142,53.142409,0 -4.354170,53.142912,0 -4.354230,53.142911,0 -4.354322,53.142963,0 -4.354390,53.143105,0 -4.354331,53.143124,0 -4.354250,53.143288,0 -4.354137,53.143398,0 -4.354031,53.143652,0 -4.353943,53.143690,0 -4.353779,53.143963,0 -4.353720,53.143982,0 -4.353694,53.144054,0 -4.353493,53.144202,0 -4.353495,53.144238,0 -4.353350,53.144331,0 -4.353115,53.144407,0 -4.352757,53.144414,0 -4.352670,53.144470,0 -4.352825,53.144575,0 -4.352815,53.144935,0 -4.352563,53.145245,0 -4.352245,53.145449,0 -4.352133,53.145595,0 -4.352017,53.145652,0 -4.351710,53.146053,0 -4.351651,53.146073,0 -4.351626,53.146163,0 -4.351368,53.146366,0 -4.351353,53.146636,0 -4.351414,53.146671,0 -4.351424,53.146850,0 -4.351489,53.146939,0 -4.351495,53.147047,0 -4.351619,53.147134,0 -4.351685,53.147241,0 -4.351870,53.147345,0 -4.351879,53.147507,0 -4.352038,53.147683,0 -4.352426,53.147676,0 -4.352691,53.147598,0 -4.353319,53.147586,0 -4.353315,53.147514,0 -4.353372,53.147459,0 -4.353377,53.147549,0 -4.354690,53.147505,0 -4.354729,53.147666,0 -4.354793,53.147737,0 -4.355750,53.147736,0 -4.355735,53.148006,0 -4.355931,53.148308,0 -4.356146,53.148411,0 -4.356297,53.148444,0 -4.356360,53.148497,0 -4.356659,53.148491,0 -4.356672,53.148742,0 -4.356615,53.148780,0 -4.356642,53.149282,0 -4.356830,53.149441,0 -4.356964,53.149690,0 -4.357242,53.149864,0 -4.358736,53.149834,0 -4.358830,53.149904,0 -4.358845,53.149634,0 -4.359262,53.149608,0 -4.359319,53.149553,0 -4.360036,53.149539,0 -4.360160,53.149608,0 -4.360996,53.149592,0 -4.361170,53.149480,0 -4.361229,53.149479,0 -4.361250,53.149857,0 -4.361317,53.149981,0 -4.361589,53.150030,0 -4.361571,53.150264,0 -4.361405,53.150501,0 -4.361451,53.150788,0 -4.361391,53.150789,0 -4.361188,53.150901,0 -4.361137,53.151064,0 -4.361162,53.151531,0 -4.361345,53.151581,0</coordinates></LinearRing></outerBoundaryIs></Polygon></Placemark>
<Placemark><name>R1 (PL)</name><styleUrl>#p</styleUrl><Point><coordinates>-4.3556000,53.1550502,0</coordinates></Point></Placemark>
<Placemark><name>R2 (BS)</name><styleUrl>#p</styleUrl><Point><coordinates>-4.3620333,53.1508030,0</coordinates></Point></Placemark>
<Placemark><name>R3 (AS)</name><styleUrl>#p</styleUrl><Point><coordinates>-4.3679203,53.1427919,0</coordinates></Point></Placemark>
<Placemark><name>R4 (CG)</name><styleUrl>#p</styleUrl><Point><coordinates>-4.3661141,53.1523943,0</coordinates></Point></Placemark>
<Placemark><name>R5 (BS)</name><styleUrl>#p</styleUrl><Point><coordinates>-4.3628955,53.1497546,0</coordinates></Point></Placemark>
<Placemark><name>R6 (BS)</name><styleUrl>#p</styleUrl><Point><coordinates>-4.3627471,53.1480331,0</coordinates></Point></Placemark>
<Placemark><name>R7 (AS)</name><styleUrl>#p</styleUrl><Point><coordinates>-4.3667272,53.1427688,0</coordinates></Point></Placemark>
<Placemark><name>R8 (AS)</name><styleUrl>#p</styleUrl><Point><coordinates>-4.3689046,53.1416583,0</coordinates></Point></Placemark>
<Placemark><name>R9 (AS)</name><styleUrl>#p</styleUrl><Point><coordinates>-4.3693174,53.1403571,0</coordinates></Point></Placemark>
<Placemark><name>R10 (AS)</name><styleUrl>#p</styleUrl><Point><coordinates>-4.3712574,53.1399885,0</coordinates></Point></Placemark>
<Placemark><name>R11 (CG)</name><styleUrl>#p</styleUrl><Point><coordinates>-4.3623975,53.1518235,0</coordinates></Point></Placemark>
<Placemark><name>R12 (CG)</name><styleUrl>#p</styleUrl><Point><coordinates>-4.3678602,53.1503959,0</coordinates></Point></Placemark>
<Placemark><name>R13 (CG)</name><styleUrl>#p</styleUrl><Point><coordinates>-4.3687445,53.1505662,0</coordinates></Point></Placemark>
<Placemark><name>R14 (BS)</name><styleUrl>#p</styleUrl><Point><coordinates>-4.3620789,53.1505989,0</coordinates></Point></Placemark>
<Placemark><name>R15 (BS)</name><styleUrl>#p</styleUrl><Point><coordinates>-4.3653640,53.1458520,0</coordinates></Point></Placemark>
<Placemark><name>R16 (PL)</name><styleUrl>#p</styleUrl><Point><coordinates>-4.3594266,53.1535871,0</coordinates></Point></Placemark>
<Placemark><name>R18 (AS)</name><styleUrl>#p</styleUrl><Point><coordinates>-4.3675440,53.1432093,0</coordinates></Point></Placemark></Document></kml>