<?xml version="1.0" encoding="UTF-8"?><kml xmlns="http://www.opengis.net/kml/2.2"><Document><name>Ranwell 1959 sites — from Martin's georeferenced sketch (17 sites)</name>
<Style id="g"><IconStyle><scale>1.1</scale><color>ff00ff00</color><Icon><href>http://maps.google.com/mapfiles/kml/shapes/placemark_circle.png</href></Icon></IconStyle></Style>
  <Placemark><name>R1</name><description>Site 1: numeral centre read from the georeferenced sketch (tif px 740,492); OSGB E 242681 N 364648. Drag onto the slack if needed.</description><styleUrl>#g</styleUrl><Point><coordinates>-4.3542219,53.1556579,0</coordinates></Point></Placemark>
  <Placemark><name>R2</name><description>Site 2: numeral centre read from the georeferenced sketch (tif px 455,710); OSGB E 242045 N 364161. Drag onto the slack if needed.</description><styleUrl>#g</styleUrl><Point><coordinates>-4.3634938,53.1510958,0</coordinates></Point></Placemark>
  <Placemark><name>R3</name><description>Site 3: numeral centre read from the georeferenced sketch (tif px 312,1120); OSGB E 241725 N 363245. Drag onto the slack if needed.</description><styleUrl>#g</styleUrl><Point><coordinates>-4.3678134,53.1427753,0</coordinates></Point></Placemark>
  <Placemark><name>R4</name><description>Site 4: numeral centre read from the georeferenced sketch (tif px 307,545); OSGB E 241714 N 364529. Drag onto the slack if needed.</description><styleUrl>#g</styleUrl><Point><coordinates>-4.3686153,53.1543079,0</coordinates></Point></Placemark>
  <Placemark><name>R5</name><description>Site 5: numeral centre read from the georeferenced sketch (tif px 431,775); OSGB E 241991 N 364016. Drag onto the slack if needed.</description><styleUrl>#g</styleUrl><Point><coordinates>-4.3642231,53.1497758,0</coordinates></Point></Placemark>
  <Placemark><name>R6</name><description>Site 6: numeral centre read from the georeferenced sketch (tif px 445,845); OSGB E 242022 N 363859. Drag onto the slack if needed.</description><styleUrl>#g</styleUrl><Point><coordinates>-4.3636787,53.1483807,0</coordinates></Point></Placemark>
  <Placemark><name>R7</name><description>Site 7: numeral centre read from the georeferenced sketch (tif px 329,1120); OSGB E 241763 N 363245. Drag onto the slack if needed.</description><styleUrl>#g</styleUrl><Point><coordinates>-4.3672462,53.1427866,0</coordinates></Point></Placemark>
  <Placemark><name>R8</name><description>Site 8: numeral centre read from the georeferenced sketch (tif px 310,1162); OSGB E 241721 N 363151. Drag onto the slack if needed.</description><styleUrl>#g</styleUrl><Point><coordinates>-4.3678338,53.1419314,0</coordinates></Point></Placemark>
  <Placemark><name>R9</name><description>Site 9: numeral centre read from the georeferenced sketch (tif px 287,1234); OSGB E 241669 N 362990. Drag onto the slack if needed.</description><styleUrl>#g</styleUrl><Point><coordinates>-4.3685217,53.1404716,0</coordinates></Point></Placemark>
  <Placemark><name>R10</name><description>Site 10: numeral centre read from the georeferenced sketch (tif px 250,1295); OSGB E 241587 N 362854. Drag onto the slack if needed.</description><styleUrl>#g</styleUrl><Point><coordinates>-4.3696888,53.1392232,0</coordinates></Point></Placemark>
  <Placemark><name>R11</name><description>Site 11: numeral centre read from the georeferenced sketch (tif px 457,627); OSGB E 242049 N 364346. Drag onto the slack if needed.</description><styleUrl>#g</styleUrl><Point><coordinates>-4.3635186,53.1527623,0</coordinates></Point></Placemark>
  <Placemark><name>R12</name><description>Site 12: numeral centre read from the georeferenced sketch (tif px 258,652); OSGB E 241604 N 364290. Drag onto the slack if needed.</description><styleUrl>#g</styleUrl><Point><coordinates>-4.3701324,53.1521287,0</coordinates></Point></Placemark>
  <Placemark><name>R13</name><description>Site 13: numeral centre read from the georeferenced sketch (tif px 225,617); OSGB E 241531 N 364369. Drag onto the slack if needed.</description><styleUrl>#g</styleUrl><Point><coordinates>-4.3712725,53.1528089,0</coordinates></Point></Placemark>
  <Placemark><name>R14</name><description>Site 14: numeral centre read from the georeferenced sketch (tif px 450,729); OSGB E 242033 N 364118. Drag onto the slack if needed.</description><styleUrl>#g</styleUrl><Point><coordinates>-4.3636398,53.1507113,0</coordinates></Point></Placemark>
  <Placemark><name>R15</name><description>Site 15: numeral centre read from the georeferenced sketch (tif px 324,946); OSGB E 241752 N 363634. Drag onto the slack if needed.</description><styleUrl>#g</styleUrl><Point><coordinates>-4.3676051,53.1462741,0</coordinates></Point></Placemark>
  <Placemark><name>R16</name><description>Site 16: numeral centre read from the georeferenced sketch (tif px 632,530); OSGB E 242440 N 364563. Drag onto the slack if needed.</description><styleUrl>#g</styleUrl><Point><coordinates>-4.3577848,53.1548242,0</coordinates></Point></Placemark>
  <Placemark><name>R18</name><description>Site 18: numeral centre read from the georeferenced sketch (tif px 322,1097); OSGB E 241747 N 363296. Drag onto the slack if needed.</description><styleUrl>#g</styleUrl><Point><coordinates>-4.3675051,53.1432434,0</coordinates></Point></Placemark>
</Document></kml>