<?xml version="1.0" encoding="UTF-8"?>
<kml xmlns="http://www.opengis.net/kml/2.2" xmlns:gx="http://www.google.com/kml/ext/2.2" xmlns:kml="http://www.opengis.net/kml/2.2" xmlns:atom="http://www.w3.org/2005/Atom">
<Document>
	<name>Scrape A.kml</name>
	<StyleMap id="m_ylw-pushpin">
		<Pair>
			<key>normal</key>
			<styleUrl>#s_ylw-pushpin</styleUrl>
		</Pair>
		<Pair>
			<key>highlight</key>
			<styleUrl>#s_ylw-pushpin_hl</styleUrl>
		</Pair>
	</StyleMap>
	<Style id="s_ylw-pushpin">
		<IconStyle>
			<scale>1.1</scale>
			<Icon>
				<href>http://maps.google.com/mapfiles/kml/pushpin/ylw-pushpin.png</href>
			</Icon>
			<hotSpot x="20" y="2" xunits="pixels" yunits="pixels"/>
		</IconStyle>
	</Style>
	<Style id="s_ylw-pushpin_hl">
		<IconStyle>
			<scale>1.3</scale>
			<Icon>
				<href>http://maps.google.com/mapfiles/kml/pushpin/ylw-pushpin.png</href>
			</Icon>
			<hotSpot x="20" y="2" xunits="pixels" yunits="pixels"/>
		</IconStyle>
	</Style>
	<Placemark>
		<name>Scrape A</name>
		<description>2015</description>
		<styleUrl>#m_ylw-pushpin</styleUrl>
		<gx:balloonVisibility>1</gx:balloonVisibility>
		<LineString>
			<tessellate>1</tessellate>
			<coordinates>
				-4.374322948229866,53.13948774252376,0 -4.374273480200354,53.13949485236207,0 -4.374252903180875,53.13950450557939,0 -4.374236392868038,53.1395068745082,0 -4.374211631542528,53.13951408560538,0 -4.374203383680156,53.13952137098143,0 -4.374186851347273,53.13952618709118,0 -4.374174443783106,53.13953591496902,0 -4.374174441043808,53.13954571109574,0 -4.374174438156517,53.13955552404407,0 -4.37417443477864,53.13956781346936,0 -4.374174429964571,53.13958506319334,0 -4.374174427065329,53.1395974135415,0 -4.374174423666358,53.13960976377555,0 -4.374170245634498,53.13963204732165,0 -4.374170237902443,53.13964446889991,0 -4.37416605176002,53.13965441387692,0 -4.374161859021264,53.13966437525094,0 -4.374153472867713,53.13967434151211,0 -4.374149274694843,53.13967933098944,0 -4.374140853136012,53.13969433374871,0 -4.374132411205478,53.13970937303822,0 -4.374123959722894,53.13972192977457,0 -4.374119709570015,53.13973200060787,0 -4.3741070349504,53.13974206413423,0 -4.374090110617516,53.13975466269497,0 -4.374081606003003,53.13976477389552,0 -4.374073087638789,53.13977490167888,0 -4.374064555547835,53.13978504548297,0 -4.374051758019299,53.13979774202709,0 -4.374043193253772,53.13980792299677,0 -4.37403881853975,53.13982069162821,0 -4.374034464970905,53.13983092255437,0 -4.374034343995945,53.13984119002734,0 -4.374021450965541,53.13985404191484,0 -4.374012816480385,53.1398643484776,0 -4.374008419662765,53.13987468645383,0 -4.373999759425917,53.13988502814466,0 -4.373999642079744,53.13989281732683,0 -4.373986699365354,53.13990317562428,0 -4.373982265788039,53.13991358024005,0 -4.373973510449005,53.13992660025664,0 -4.373969056839094,53.13993704555342,0 -4.373968826630811,53.13995014650557,0 -4.373960078299862,53.13996061744775,0 -4.373951365034113,53.13996847453515,0 -4.373946825540383,53.1399816282288,0 -4.373938088853969,53.13998951239106,0 -4.373929229414166,53.14000270655923,0 -4.373920228787103,53.14002125889779,0 -4.373906948500083,53.1400372071489,0 -4.373898012933665,53.14005052935853,0 -4.373893252533062,53.14006923098439,0 -4.373880016069467,53.1400799445538,0 -4.373858234865866,53.14008530889962,0 -4.373840765786243,53.14009067764859,0 -4.373823281172716,53.14009605128946,0 -4.373805780700975,53.1401014296899,0 -4.373792601898535,53.14010681301207,0 -4.373774982036416,53.14011489662534,0 -4.373757432508855,53.14012029125111,0 -4.373744114384022,53.14012839289072,0 -4.373726430425994,53.14013650555101,0 -4.373708722499239,53.14014462923038,0 -4.373690881469376,53.14015547730548,0 -4.373673235097072,53.14016090897162,0 -4.373655455465634,53.14016906544111,0 -4.373628415552876,53.14018817773798,0 -4.373614910454067,53.14019642606525,0 -4.373579223297517,53.14021022030932,0 -4.373552340587009,53.14022132490851,0 -4.373534345384441,53.14022964658756,0 -4.373511940305649,53.14023797466401,0 -4.373493892255334,53.1402463152266,0 -4.373484602284901,53.14025466756748,0 -4.373466506870905,53.14026303214275,0 -4.37345278379388,53.14027140927823,0 -4.373425462613642,53.14028539882032,0 -4.373406893244709,53.14029942260288,0 -4.373388667798906,53.14030785402969,0 -4.373370215676177,53.14031911527415,0 -4.373356352616517,53.1403275756819,0 -4.373342262129159,53.14033887493125,0 -4.373323714052045,53.14035019705839,0 -4.373309778980908,53.14035870359049,0 -4.3732956037855,53.14037006542945,0 -4.373281177319709,53.14038429924338,0 -4.373266941946049,53.14039571194333,0 -4.373252447276254,53.14041000947314,0 -4.37323792854184,53.14042432075485,0 -4.373223624157503,53.14043577539573,0 -4.37320929181567,53.14044725265563,0 -4.373203859821995,53.14045877679114,0 -4.373198416486023,53.14047032273999,0 -4.373188489723761,53.14048187938553,0 -4.373178543286937,53.14049345897008,0 -4.373173058575751,53.14050507357346,0 -4.373158335427261,53.14051960292095,0 -4.373143592117287,53.14053414447449,0 -4.373138074736965,53.14054580685574,0 -4.373132804990107,53.14055456535615,0 -4.37312700804716,53.14056919994452,0 -4.372850249959043,53.14083510277883,0 -4.372687506848406,53.14105729755475,0 -4.372741820991609,53.14114623916215,0 -4.372909639766406,53.14112711368426,0 -4.373177826847239,53.14087750321431,0 -4.373170378993705,53.14074850108467,0 -4.373189123956347,53.14063444285105,0 -4.37347867688676,53.14050177700053,0 -4.373730564242883,53.14048958790976,0 -4.373870982373676,53.14026278786162,0 -4.37387134471763,53.14024892023357,0 -4.373875950868981,53.14024060506852,0 -4.373876313116273,53.14022676379747,0 -4.373922836831433,53.140101425483,0 -4.374080254788573,53.13993220168631,0 -4.374279777754822,53.13975268307953,0 -4.374434380097219,53.13967547700976,0 -4.374406570159307,53.13953925086665,0 
			</coordinates>
		</LineString>
		<atom:link rel="app" href="https://www.google.com/earth/about/versions/#earth-pro" title="Google Earth Pro 7.3.7.1155"></atom:link>
	</Placemark>
</Document>
</kml>
