<?xml version="1.0" encoding="UTF-8"?>
<kml xmlns="http://www.opengis.net/kml/2.2" xmlns:gx="http://www.google.com/kml/ext/2.2" xmlns:kml="http://www.opengis.net/kml/2.2" xmlns:atom="http://www.w3.org/2005/Atom">
<Document>
	<name>sea ridge.kml</name>
	<StyleMap id="m_ylw-pushpin">
		<Pair>
			<key>normal</key>
			<styleUrl>#s_ylw-pushpin</styleUrl>
		</Pair>
		<Pair>
			<key>highlight</key>
			<styleUrl>#s_ylw-pushpin_hl</styleUrl>
		</Pair>
	</StyleMap>
	<Style id="s_ylw-pushpin">
		<IconStyle>
			<scale>1.1</scale>
			<Icon>
				<href>http://maps.google.com/mapfiles/kml/pushpin/ylw-pushpin.png</href>
			</Icon>
			<hotSpot x="20" y="2" xunits="pixels" yunits="pixels"/>
		</IconStyle>
	</Style>
	<Style id="s_ylw-pushpin_hl">
		<IconStyle>
			<scale>1.3</scale>
			<Icon>
				<href>http://maps.google.com/mapfiles/kml/pushpin/ylw-pushpin.png</href>
			</Icon>
			<hotSpot x="20" y="2" xunits="pixels" yunits="pixels"/>
		</IconStyle>
	</Style>
	<Placemark>
		<name>sea ridge</name>
		<snippet></snippet>
		<styleUrl>#m_ylw-pushpin</styleUrl>
		<MultiGeometry>
			<Polygon>
				<tessellate>1</tessellate>
				<outerBoundaryIs>
					<LinearRing>
						<coordinates>
							-4.386465214937139,53.14291054930944,0 -4.387015457633677,53.14278201837906,0 -4.38748596164265,53.14266659549563,0 -4.387911366832224,53.14244878139321,0 -4.388336381002322,53.142231153654,0 -4.388560303550686,53.14214819482194,0 -4.389007978087866,53.14198233406508,0 -4.389590026727372,53.1417385905992,0 -4.389996873585256,53.14168242145831,0 -4.39046287055222,53.14156468647981,0 -4.390823978415021,53.14140704714438,0 -4.391138272835891,53.14114759593334,0 -4.391556730730476,53.14092833432301,0 -4.391730408657995,53.14074231905651,0 -4.392042673794544,53.14048343168177,0 -4.392110967839123,53.14025819300159,0 -4.392226191021479,53.14013463361795,0 -4.392328238136717,53.13979775535881,0 -4.392430034858389,53.13946169381605,0 -4.392497758440581,53.1392381046043,0 -4.392484584291929,53.13902591733446,0 -4.392552147914476,53.1388030418498,0 -4.392458298437636,53.13860255986367,0 -4.391974356882277,53.13866865153832,0 -4.391409758517765,53.13874572539655,0 -4.391167788085435,53.13877876660091,0 -4.390868280617478,53.13887295703223,0 -4.390326579131231,53.13900023596445,0 -4.390188191752284,53.13907246474352,0 -4.389726861346368,53.13918881146412,0 -4.389588293153668,53.13926110950155,0 -4.389288160142364,53.13935548617921,0 -4.388871853872137,53.13957266415563,0 -4.388535892682519,53.13977905116884,0 -4.388257762434707,53.13992414623911,0 -4.387907941958,53.1402938105375,0 -4.387629102997129,53.14043935239634,0 -4.387512134694695,53.14056288017726,0 -4.387277916969351,53.14081023009102,0 -4.387160078271402,53.14093357096998,0 -4.386701228270357,53.14126316199444,0 -4.386257146946503,53.14143035109647,0 -4.385894124530615,53.14158668195552,0 -4.385568634468831,53.1416307088437,0 -4.385264898458669,53.14172543251975,0 -4.384982747924502,53.14187092603883,0 -4.384700403694656,53.14201652845475,0 -4.384648214136201,53.14229538143113,0 -4.386465214937139,53.14291054930944,0 
						</coordinates>
					</LinearRing>
				</outerBoundaryIs>
			</Polygon>
			<Polygon>
				<tessellate>1</tessellate>
				<outerBoundaryIs>
					<LinearRing>
						<coordinates>
							-4.383594994964025,53.14163564038934,0 -4.384057296345212,53.1415148814086,0 -4.384462689165455,53.1414589101258,0 -4.384684899608351,53.14137535199166,0 -4.385107414885247,53.14115781563871,0 -4.385285954683233,53.14097345795017,0 -4.385706779865214,53.14075552785415,0 -4.386067476822905,53.14059877272905,0 -4.386369195393254,53.14050387165128,0 -4.386670786455758,53.14040900051997,0 -4.386868912902017,53.14027461214901,0 -4.387102940776306,53.14002824862971,0 -4.387569848979976,53.13953671772465,0 -4.387860874601039,53.13923030170834,0 -4.38809328046727,53.13898562852499,0 -4.388383257169391,53.13868034011363,0 -4.388579559877908,53.13854741802914,0 -4.388810860096497,53.13830383447844,0 -4.389064483415823,53.13811040146744,0 -4.389260151671801,53.13797794532533,0 -4.389570745347849,53.13772430893397,0 -4.389823414363939,53.13753161737061,0 -4.390155943297918,53.13732821228362,0 -4.390350693330628,53.13719638417574,0 -4.390533822074977,53.13685619892667,0 -4.390762287512196,53.13661530049429,0 -4.390910476402494,53.13638569730318,0 -4.390921638443686,53.13622736322412,0 -4.390966802657214,53.13596028147384,0 -4.390955040953104,53.1357535177971,0 -4.390863648199389,53.13555797255557,0 -4.390556395159448,53.13544412502565,0 -4.390317587468267,53.13547673822844,0 -4.389885215749918,53.13563962646359,0 -4.38955472976422,53.13584068092596,0 -4.389166633666711,53.13610186647006,0 -4.388915041807515,53.13629256870831,0 -4.38866314209001,53.13648351711323,0 -4.388490830996806,53.13666378867514,0 -4.388318308993552,53.136844275953,0 -4.388087954420846,53.1370852620946,0 -4.387754834411939,53.1372881187209,0 -4.387421313102749,53.1374912187783,0 -4.387225449145745,53.13762310820201,0 -4.387015854648178,53.13791496154138,0 -4.38670338991496,53.13816859772849,0 -4.386528944272259,53.13835086591922,0 -4.386412540939187,53.13847251216174,0 -4.386121085847315,53.13877699452016,0 -4.385887494479706,53.13902105427822,0 -4.385631491043886,53.13921535201948,0 -4.38545578654037,53.13939888905204,0 -4.385301850693111,53.13963292786558,0 -4.38512569198563,53.13981697409035,0 -4.384993223141965,53.14010215802013,0 -4.384838529769993,53.14033734724717,0 -4.384683585634731,53.14057291209635,0 -4.384506469979649,53.14075812575737,0 -4.384042297841053,53.14087512996704,0 -4.383717954053235,53.1409190170376,0 -4.383313255680322,53.14097469297207,0 -4.382827236720605,53.14104102844755,0 -4.382648847183952,53.14122667723856,0 -4.38252992617754,53.14135061110065,0 -4.382346801593523,53.14153175750479,0 -4.383594994964025,53.14163564038934,0 
						</coordinates>
					</LinearRing>
				</outerBoundaryIs>
			</Polygon>
			<Polygon>
				<tessellate>1</tessellate>
				<outerBoundaryIs>
					<LinearRing>
						<coordinates>
							-4.381939385418557,53.1403586578196,0 -4.38211756231939,53.14017420951962,0 -4.382435443437468,53.1399176244088,0 -4.382774257783977,53.13971171864425,0 -4.38306965069232,53.13940570962047,0 -4.383444871489804,53.13908933757397,0 -4.383878072920131,53.13871270258682,0 -4.384353567262251,53.13843656653021,0 -4.38476984445126,53.13822154561529,0 -4.385185578886098,53.13800678311031,0 -4.385462481872998,53.13786375510279,0 -4.385637156740968,53.13768222667853,0 -4.386029783377941,53.13741869248285,0 -4.386501716371045,53.1371446439524,0 -4.387017125528758,53.1369695921113,0 -4.387350149417384,53.13676726538019,0 -4.387625165354628,53.13662524514923,0 -4.387797897508237,53.1364451108581,0 -4.388027875117194,53.13620526828812,0 -4.388279796672821,53.13601475873611,0 -4.389944771996952,53.13449386318444,0 -4.388577425794518,53.13426933064927,0 -4.387280233525957,53.13419007092985,0 -4.384985941058289,53.13506786292609,0 -4.383094995885725,53.13651473026979,0 -4.380897413031663,53.13749141445749,0 -4.379806003495207,53.13811095359301,0 -4.378831808259696,53.13882138540342,0 -4.378170179098927,53.13885906823216,0 -4.381939385418557,53.1403586578196,0 
						</coordinates>
					</LinearRing>
				</outerBoundaryIs>
			</Polygon>
			<Polygon>
				<tessellate>1</tessellate>
				<outerBoundaryIs>
					<LinearRing>
						<coordinates>
							-4.369803169973753,53.13504751391413,0 -4.370298117125857,53.13482824255105,0 -4.371143718123011,53.13466234397895,0 -4.371772106248955,53.13457661599708,0 -4.372636139747943,53.13445873904141,0 -4.373500183840427,53.13434088252966,0 -4.3738143829975,53.13429801302947,0 -4.374187921086969,53.13419652755204,0 -4.374777549183207,53.13401508662704,0 -4.375445178844663,53.13382308835996,0 -4.376033837868079,53.13364193505944,0 -4.376327980786781,53.1335514019633,0 -4.376700431955177,53.13345021742689,0 -4.377072731132374,53.13334906718788,0 -4.377366506044821,53.1332586518999,0 -4.377718670349839,53.13310999970351,0 -4.377992240980937,53.13297215403636,0 -4.378323930761779,53.13277626353021,0 -4.378655243389741,53.13258062330131,0 -4.378829860868187,53.13240659360975,0 -4.379198539831506,53.13210633199387,0 -4.379450625448956,53.13192219576263,0 -4.37978022252357,53.13172745131834,0 -4.38028598322282,53.13155899010622,0 -4.380733743558349,53.13144827753251,0 -4.381238822264119,53.13127993842936,0 -4.381607991944914,53.13117988554956,0 -4.381821262015397,53.13110110013569,0 -4.382247571029977,53.13094363221306,0 -4.382730737114729,53.13072888622766,0 -4.383134758658479,53.1305245784396,0 -4.383481964317343,53.13037810065635,0 -4.383828933268683,53.13023173268124,0 -4.383978378198684,53.1300135531569,0 -4.384050011867132,53.12980631066869,0 -4.384220092318573,53.12963522186566,0 -4.384467306416426,53.12945373466164,0 -4.384693307784566,53.12922618459927,0 -4.384841573342407,53.12900954833353,0 -4.38514425335598,53.12877213450927,0 -4.38533406420376,53.12864829230801,0 -4.385228807351016,53.12841817123113,0 -4.384337710865186,53.12844217698768,0 -4.384008176145484,53.12843836909482,0 -4.38377666256184,53.12846996872444,0 -4.383488652346354,53.12855810430275,0 -4.383030719205706,53.12881602040524,0 -4.382783414071065,53.12899652885896,0 -4.382515295785392,53.12913107596486,0 -4.382076251046188,53.12943616646012,0 -4.381652571331406,53.12959218426221,0 -4.38134285210498,53.12963446876742,0 -4.38113088786555,53.1297125434761,0 -4.380706638496974,53.12986873629858,0 -4.380204561106801,53.13003565007718,0 -4.379702082616454,53.13020271310074,0 -4.379044371889443,53.13039126298998,0 -4.378172571011914,53.13065799917452,0 -4.376989082870328,53.1309674367586,0 -4.375998456553161,53.13134974169223,0 -4.374790200032036,53.13201022006722,0 -4.370634853470525,53.13292530261825,0 -4.369183501642157,53.13342259023835,0 -4.368161924074268,53.13376186933045,0 -4.367710864241103,53.13387342200546,0 -4.369803169973753,53.13504751391413,0 
						</coordinates>
					</LinearRing>
				</outerBoundaryIs>
			</Polygon>
		</MultiGeometry>
		<atom:link rel="app" href="https://www.google.com/earth/about/versions/#earth-pro" title="Google Earth Pro 7.3.7.1155"></atom:link>
	</Placemark>
</Document>
</kml>
