<?xml version="1.0" encoding="UTF-8"?>
<kml xmlns="http://www.opengis.net/kml/2.2"><Document><name>seabed_control 2026-09-11</name>
<Placemark><name>SC001</name><Point><coordinates>-4.36668093,53.12862416,0</coordinates></Point></Placemark>
<Placemark><name>SC002</name><Point><coordinates>-4.37378858,53.13044977,0</coordinates></Point></Placemark>
<Placemark><name>SC003</name><Point><coordinates>-4.37610081,53.12984022,0</coordinates></Point></Placemark>
<Placemark><name>SC004</name><Point><coordinates>-4.37138243,53.13079976,0</coordinates></Point></Placemark>
<Placemark><name>SC005</name><Point><coordinates>-4.38481573,53.13214331,0</coordinates></Point></Placemark>
<Placemark><name>SC006</name><Point><coordinates>-4.36710330,53.13014408,0</coordinates></Point></Placemark>
<Placemark><name>SC007</name><Point><coordinates>-4.36640171,53.13530337,0</coordinates></Point></Placemark>
<Placemark><name>SC008</name><Point><coordinates>-4.37700102,53.12785298,0</coordinates></Point></Placemark>
<Placemark><name>SC009</name><Point><coordinates>-4.38734145,53.13083115,0</coordinates></Point></Placemark>
<Placemark><name>SC010</name><Point><coordinates>-4.38853133,53.13366606,0</coordinates></Point></Placemark>
<Placemark><name>SC011</name><Point><coordinates>-4.37869391,53.12710020,0</coordinates></Point></Placemark>
<Placemark><name>SC012</name><Point><coordinates>-4.36995478,53.12735736,0</coordinates></Point></Placemark>
<Placemark><name>SC013</name><Point><coordinates>-4.36830893,53.13631119,0</coordinates></Point></Placemark>
<Placemark><name>SC014</name><Point><coordinates>-4.38205235,53.13400402,0</coordinates></Point></Placemark>
<Placemark><name>SC015</name><Point><coordinates>-4.37241132,53.12955780,0</coordinates></Point></Placemark>
<Placemark><name>SC016</name><Point><coordinates>-4.36415025,53.12763749,0</coordinates></Point></Placemark>
<Placemark><name>SC017</name><Point><coordinates>-4.38573060,53.13089551,0</coordinates></Point></Placemark>
<Placemark><name>SC018</name><Point><coordinates>-4.38531868,53.13371956,0</coordinates></Point></Placemark>
<Placemark><name>SC019</name><Point><coordinates>-4.38361249,53.12781160,0</coordinates></Point></Placemark>
<Placemark><name>SC020</name><Point><coordinates>-4.37150516,53.12799764,0</coordinates></Point></Placemark>
<Placemark><name>SC021</name><Point><coordinates>-4.37531494,53.13484708,0</coordinates></Point></Placemark>
<Placemark><name>SC022</name><Point><coordinates>-4.38269735,53.13542790,0</coordinates></Point></Placemark>
<Placemark><name>SC023</name><Point><coordinates>-4.36433244,53.12860616,0</coordinates></Point></Placemark>
<Placemark><name>SC024</name><Point><coordinates>-4.37744132,53.13398275,0</coordinates></Point></Placemark>
<Placemark><name>SC025</name><Point><coordinates>-4.37245725,53.13516990,0</coordinates></Point></Placemark>
<Placemark><name>SC026</name><Point><coordinates>-4.36886169,53.12921845,0</coordinates></Point></Placemark>
<Placemark><name>SC027</name><Point><coordinates>-4.36372684,53.13145308,0</coordinates></Point></Placemark>
<Placemark><name>SC028</name><Point><coordinates>-4.36816790,53.13086626,0</coordinates></Point></Placemark>
<Placemark><name>SC029</name><Point><coordinates>-4.37811466,53.13590011,0</coordinates></Point></Placemark>
<Placemark><name>SC030</name><Point><coordinates>-4.38855686,53.12772059,0</coordinates></Point></Placemark>
<Placemark><name>SC031</name><Point><coordinates>-4.39852298,53.12688713,0</coordinates></Point></Placemark>
<Placemark><name>SC032</name><Point><coordinates>-4.39384522,53.14243439,0</coordinates></Point></Placemark>
<Placemark><name>SC033</name><Point><coordinates>-4.39151358,53.14298665,0</coordinates></Point></Placemark>
<Placemark><name>SC034</name><Point><coordinates>-4.40763688,53.14103904,0</coordinates></Point></Placemark>
<Placemark><name>SC035</name><Point><coordinates>-4.38247418,53.14468954,0</coordinates></Point></Placemark>
<Placemark><name>SC036</name><Point><coordinates>-4.36498346,53.14072707,0</coordinates></Point></Placemark>
<Placemark><name>SC037</name><Point><coordinates>-4.39779521,53.14435515,0</coordinates></Point></Placemark>
<Placemark><name>SC038</name><Point><coordinates>-4.35577726,53.12713777,0</coordinates></Point></Placemark>
<Placemark><name>SC039</name><Point><coordinates>-4.38891069,53.14465025,0</coordinates></Point></Placemark>
<Placemark><name>SC040</name><Point><coordinates>-4.39612806,53.13293033,0</coordinates></Point></Placemark>
<Placemark><name>SC041</name><Point><coordinates>-4.40640612,53.13198512,0</coordinates></Point></Placemark>
<Placemark><name>SC042</name><Point><coordinates>-4.40531994,53.12731415,0</coordinates></Point></Placemark>
<Placemark><name>SC043</name><Point><coordinates>-4.35406769,53.13546296,0</coordinates></Point></Placemark>
<Placemark><name>SC044</name><Point><coordinates>-4.39788869,53.12968489,0</coordinates></Point></Placemark>
<Placemark><name>SC045</name><Point><coordinates>-4.39675487,53.13689046,0</coordinates></Point></Placemark>
<Placemark><name>SC046</name><Point><coordinates>-4.38000428,53.13731998,0</coordinates></Point></Placemark>
<Placemark><name>SC047</name><Point><coordinates>-4.39299070,53.13464799,0</coordinates></Point></Placemark>
<Placemark><name>SC048</name><Point><coordinates>-4.35773930,53.14459804,0</coordinates></Point></Placemark>
<Placemark><name>SC049</name><Point><coordinates>-4.38629944,53.12738991,0</coordinates></Point></Placemark>
<Placemark><name>SC050</name><Point><coordinates>-4.39541075,53.13928488,0</coordinates></Point></Placemark>
<Placemark><name>SC051</name><Point><coordinates>-4.40243682,53.14055504,0</coordinates></Point></Placemark>
<Placemark><name>SC052</name><Point><coordinates>-4.36267098,53.14096137,0</coordinates></Point></Placemark>
<Placemark><name>SC053</name><Point><coordinates>-4.36685014,53.13390140,0</coordinates></Point></Placemark>
<Placemark><name>SC054</name><Point><coordinates>-4.35844299,53.12753637,0</coordinates></Point></Placemark>
<Placemark><name>SC055</name><Point><coordinates>-4.39949686,53.13323210,0</coordinates></Point></Placemark>
<Placemark><name>SC056</name><Point><coordinates>-4.39596686,53.13506973,0</coordinates></Point></Placemark>
<Placemark><name>SC057</name><Point><coordinates>-4.40519077,53.14505727,0</coordinates></Point></Placemark>
<Placemark><name>SC058</name><Point><coordinates>-4.36187623,53.12728830,0</coordinates></Point></Placemark>
<Placemark><name>SC059</name><Point><coordinates>-4.40384953,53.13040073,0</coordinates></Point></Placemark>
<Placemark><name>SC060</name><Point><coordinates>-4.39319886,53.13067666,0</coordinates></Point></Placemark>
<Placemark><name>SC061</name><Point><coordinates>-4.37247031,53.13204738,0</coordinates></Point></Placemark>
<Placemark><name>SC062</name><Point><coordinates>-4.39230937,53.12793774,0</coordinates></Point></Placemark>
<Placemark><name>SC063</name><Point><coordinates>-4.38200133,53.12676815,0</coordinates></Point></Placemark>
<Placemark><name>SC064</name><Point><coordinates>-4.40417849,53.13957547,0</coordinates></Point></Placemark>
<Placemark><name>SC065</name><Point><coordinates>-4.37629150,53.13813343,0</coordinates></Point></Placemark>
<Placemark><name>SC066</name><Point><coordinates>-4.36087479,53.13669065,0</coordinates></Point></Placemark>
<Placemark><name>SC067</name><Point><coordinates>-4.37094206,53.14073371,0</coordinates></Point></Placemark>
<Placemark><name>SC068</name><Point><coordinates>-4.39250600,53.14124559,0</coordinates></Point></Placemark>
<Placemark><name>SC069</name><Point><coordinates>-4.36051244,53.12951068,0</coordinates></Point></Placemark>
<Placemark><name>SC070</name><Point><coordinates>-4.36369415,53.14252462,0</coordinates></Point></Placemark>
<Placemark><name>SC071</name><Point><coordinates>-4.39275494,53.13688399,0</coordinates></Point></Placemark>
<Placemark><name>SC072</name><Point><coordinates>-4.37396955,53.12642937,0</coordinates></Point></Placemark>
<Placemark><name>SC073</name><Point><coordinates>-4.35907283,53.13289624,0</coordinates></Point></Placemark>
<Placemark><name>SC074</name><Point><coordinates>-4.35289274,53.13845434,0</coordinates></Point></Placemark>
<Placemark><name>SC075</name><Point><coordinates>-4.39250199,53.14519856,0</coordinates></Point></Placemark>
<Placemark><name>SC076</name><Point><coordinates>-4.38822546,53.14288224,0</coordinates></Point></Placemark>
<Placemark><name>SC077</name><Point><coordinates>-4.38002801,53.13509206,0</coordinates></Point></Placemark>
<Placemark><name>SC078</name><Point><coordinates>-4.39620139,53.14234942,0</coordinates></Point></Placemark>
</Document></kml>