{"type": "FeatureCollection", "name": "study_area", "crs": {"type": "name", "properties": {"name": "urn:ogc:def:crs:EPSG::27700"}}, "features": [{"type": "Feature", "properties": {"source": "tools/make_study_area.py 1.0.0", "method": "GRASS r.watershed -s basins (threshold 100000) by seed; east edge the r.path river from (243181, 364711); HWM coast; hand-drawn south-east edge and west end", "decision": "D-203", "made": "2026-09-27", "area_m2": 8647635.710521206}, "geometry": {"type": "Polygon", "coordinates": [[[241132.0, 365098.0, 0.0], [241132.0, 365096.0, 0.0], [241136.0, 365096.0, 0.0], [241136.0, 365100.0, 0.0], [241138.0, 365100.0, 0.0], [241138.0, 365102.0, 0.0], [241148.0, 365102.0, 0.0], [241148.0, 365100.0, 0.0], [241150.0, 365100.0, 0.0], [241150.0, 365098.0, 0.0], [241152.0, 365098.0, 0.0], [241152.0, 365092.0, 0.0], [241154.0, 365092.0, 0.0], [241154.0, 365090.0, 0.0], [241152.0, 365090.0, 0.0], [241152.0, 365088.0, 0.0], [241156.0, 365088.0, 0.0], [241156.0, 365086.0, 0.0], [241158.0, 365086.0, 0.0], [241158.0, 365084.0, 0.0], [241160.0, 365084.0, 0.0], [241160.0, 365082.0, 0.0], [241162.0, 365082.0, 0.0], [241162.0, 365084.0, 0.0], [241166.0, 365084.0, 0.0], [241166.0, 365086.0, 0.0], [241168.0, 365086.0, 0.0], [241168.0, 365082.0, 0.0], [241170.0, 365082.0, 0.0], [241170.0, 365070.0, 0.0], [241168.0, 365070.0, 0.0], [241168.0, 365066.0, 0.0], [241170.0, 365066.0, 0.0], [241170.0, 365068.0, 0.0], [241172.0, 365068.0, 0.0], [241172.0, 365070.0, 0.0], [241180.0, 365070.0, 0.0], [241180.0, 365072.0, 0.0], [241184.0, 365072.0, 0.0], [241184.0, 365078.0, 0.0], [241186.0, 365078.0, 0.0], [241186.0, 365080.0, 0.0], [241190.0, 365080.0, 0.0], [241190.0, 365082.0, 0.0], [241192.0, 365082.0, 0.0], [241192.0, 365084.0, 0.0], [241196.0, 365084.0, 0.0], [241196.0, 365080.0, 0.0], [241198.0, 365080.0, 0.0], [241198.0, 365076.0, 0.0], [241204.0, 365076.0, 0.0], [241204.0, 365080.0, 0.0], [241206.0, 365080.0, 0.0], [241206.0, 365082.0, 0.0], [241210.0, 365082.0, 0.0], [241210.0, 365084.0, 0.0], [241214.0, 365084.0, 0.0], [241214.0, 365086.0, 0.0], [241220.0, 365086.0, 0.0], [241220.0, 365084.0, 0.0], [241222.0, 365084.0, 0.0], [241222.0, 365086.0, 0.0], [241228.0, 365086.0, 0.0], [241228.0, 365084.0, 0.0], [241230.0, 365084.0, 0.0], [241230.0, 365082.0, 0.0], [241232.0, 365082.0, 0.0], [241232.0, 365080.0, 0.0], [241242.0, 365080.0, 0.0], [241242.0, 365082.0, 0.0], [241246.0, 365082.0, 0.0], [241246.0, 365084.0, 0.0], [241250.0, 365084.0, 0.0], [241250.0, 365090.0, 0.0], [241252.0, 365090.0, 0.0], [241252.0, 365092.0, 0.0], [241250.0, 365092.0, 0.0], [241250.0, 365094.0, 0.0], [241252.0, 365094.0, 0.0], [241252.0, 365102.0, 0.0], [241254.0, 365102.0, 0.0], [241254.0, 365108.0, 0.0], [241256.0, 365108.0, 0.0], [241256.0, 365110.0, 0.0], [241254.0, 365110.0, 0.0], [241254.0, 365116.0, 0.0], [241256.0, 365116.0, 0.0], [241256.0, 365126.0, 0.0], [241258.0, 365126.0, 0.0], [241258.0, 365132.0, 0.0], [241256.0, 365132.0, 0.0], [241256.0, 365138.0, 0.0], [241254.0, 365138.0, 0.0], [241254.0, 365142.0, 0.0], [241256.0, 365142.0, 0.0], [241256.0, 365144.0, 0.0], [241258.0, 365144.0, 0.0], [241258.0, 365150.0, 0.0], [241260.0, 365150.0, 0.0], [241260.0, 365152.0, 0.0], [241262.0, 365152.0, 0.0], [241262.0, 365154.0, 0.0], [241264.0, 365154.0, 0.0], [241264.0, 365160.0, 0.0], [241266.0, 365160.0, 0.0], [241266.0, 365164.0, 0.0], [241272.0, 365164.0, 0.0], [241272.0, 365162.0, 0.0], [241274.0, 365162.0, 0.0], [241274.0, 365174.0, 0.0], [241276.0, 365174.0, 0.0], [241276.0, 365186.0, 0.0], [241284.0, 365186.0, 0.0], [241284.0, 365184.0, 0.0], [241286.0, 365184.0, 0.0], [241286.0, 365182.0, 0.0], [241290.0, 365182.0, 0.0], [241290.0, 365184.0, 0.0], [241294.0, 365184.0, 0.0], [241294.0, 365182.0, 0.0], [241296.0, 365182.0, 0.0], [241296.0, 365180.0, 0.0], [241300.0, 365180.0, 0.0], [241300.0, 365178.0, 0.0], [241302.0, 365178.0, 0.0], [241302.0, 365176.0, 0.0], [241306.0, 365176.0, 0.0], [241306.0, 365174.0, 0.0], [241308.0, 365174.0, 0.0], [241308.0, 365172.0, 0.0], [241310.0, 365172.0, 0.0], [241310.0, 365170.0, 0.0], [241312.0, 365170.0, 0.0], [241312.0, 365168.0, 0.0], [241314.0, 365168.0, 0.0], [241314.0, 365166.0, 0.0], [241316.0, 365166.0, 0.0], [241316.0, 365164.0, 0.0], [241320.0, 365164.0, 0.0], [241320.0, 365160.0, 0.0], [241322.0, 365160.0, 0.0], [241322.0, 365142.0, 0.0], [241324.0, 365142.0, 0.0], [241324.0, 365128.0, 0.0], [241326.0, 365128.0, 0.0], [241326.0, 365124.0, 0.0], [241328.0, 365124.0, 0.0], [241328.0, 365122.0, 0.0], [241326.0, 365122.0, 0.0], [241326.0, 365120.0, 0.0], [241334.0, 365120.0, 0.0], [241334.0, 365122.0, 0.0], [241336.0, 365122.0, 0.0], [241336.0, 365126.0, 0.0], [241340.0, 365126.0, 0.0], [241340.0, 365124.0, 0.0], [241344.0, 365124.0, 0.0], [241344.0, 365126.0, 0.0], [241346.0, 365126.0, 0.0], [241346.0, 365128.0, 0.0], [241348.0, 365128.0, 0.0], [241348.0, 365134.0, 0.0], [241354.0, 365134.0, 0.0], [241354.0, 365132.0, 0.0], [241358.0, 365132.0, 0.0], [241358.0, 365130.0, 0.0], [241360.0, 365130.0, 0.0], [241360.0, 365122.0, 0.0], [241372.0, 365122.0, 0.0], [241372.0, 365120.0, 0.0], [241374.0, 365120.0, 0.0], [241374.0, 365116.0, 0.0], [241382.0, 365116.0, 0.0], [241382.0, 365114.0, 0.0], [241386.0, 365114.0, 0.0], [241386.0, 365112.0, 0.0], [241390.0, 365112.0, 0.0], [241390.0, 365114.0, 0.0], [241392.0, 365114.0, 0.0], [241392.0, 365112.0, 0.0], [241400.0, 365112.0, 0.0], [241400.0, 365114.0, 0.0], [241408.0, 365114.0, 0.0], [241408.0, 365116.0, 0.0], [241410.0, 365116.0, 0.0], [241410.0, 365118.0, 0.0], [241412.0, 365118.0, 0.0], [241412.0, 365120.0, 0.0], [241414.0, 365120.0, 0.0], [241414.0, 365122.0, 0.0], [241416.0, 365122.0, 0.0], [241416.0, 365124.0, 0.0], [241420.0, 365124.0, 0.0], [241420.0, 365126.0, 0.0], [241424.0, 365126.0, 0.0], [241424.0, 365128.0, 0.0], [241432.0, 365128.0, 0.0], [241432.0, 365130.0, 0.0], [241438.0, 365130.0, 0.0], [241438.0, 365128.0, 0.0], [241440.0, 365128.0, 0.0], [241440.0, 365130.0, 0.0], [241442.0, 365130.0, 0.0], [241442.0, 365132.0, 0.0], [241444.0, 365132.0, 0.0], [241444.0, 365134.0, 0.0], [241448.0, 365134.0, 0.0], [241448.0, 365136.0, 0.0], [241454.0, 365136.0, 0.0], [241454.0, 365138.0, 0.0], [241460.0, 365138.0, 0.0], [241460.0, 365140.0, 0.0], [241466.0, 365140.0, 0.0], [241466.0, 365142.0, 0.0], [241476.0, 365142.0, 0.0], [241476.0, 365144.0, 0.0], [241478.0, 365144.0, 0.0], [241478.0, 365146.0, 0.0], [241480.0, 365146.0, 0.0], [241480.0, 365148.0, 0.0], [241482.0, 365148.0, 0.0], [241482.0, 365150.0, 0.0], [241484.0, 365150.0, 0.0], [241484.0, 365154.0, 0.0], [241486.0, 365154.0, 0.0], [241486.0, 365156.0, 0.0], [241490.0, 365156.0, 0.0], [241490.0, 365158.0, 0.0], [241492.0, 365158.0, 0.0], [241492.0, 365160.0, 0.0], [241496.0, 365160.0, 0.0], [241496.0, 365162.0, 0.0], [241498.0, 365162.0, 0.0], [241498.0, 365164.0, 0.0], [241500.0, 365164.0, 0.0], [241500.0, 365166.0, 0.0], [241502.0, 365166.0, 0.0], [241502.0, 365168.0, 0.0], [241506.0, 365168.0, 0.0], [241506.0, 365170.0, 0.0], [241516.0, 365170.0, 0.0], [241516.0, 365168.0, 0.0], [241518.0, 365168.0, 0.0], [241518.0, 365170.0, 0.0], [241520.0, 365170.0, 0.0], [241520.0, 365168.0, 0.0], [241556.0, 365168.0, 0.0], [241556.0, 365166.0, 0.0], [241564.0, 365166.0, 0.0], [241564.0, 365168.0, 0.0], [241570.0, 365168.0, 0.0], [241570.0, 365170.0, 0.0], [241584.0, 365170.0, 0.0], [241584.0, 365172.0, 0.0], [241624.0, 365172.0, 0.0], [241624.0, 365170.0, 0.0], [241628.0, 365170.0, 0.0], [241628.0, 365168.0, 0.0], [241630.0, 365168.0, 0.0], [241630.0, 365166.0, 0.0], [241632.0, 365166.0, 0.0], [241632.0, 365174.0, 0.0], [241634.0, 365174.0, 0.0], [241634.0, 365184.0, 0.0], [241636.0, 365184.0, 0.0], [241636.0, 365186.0, 0.0], [241638.0, 365186.0, 0.0], [241638.0, 365188.0, 0.0], [241640.0, 365188.0, 0.0], [241640.0, 365194.0, 0.0], [241642.0, 365194.0, 0.0], [241642.0, 365206.0, 0.0], [241644.0, 365206.0, 0.0], [241644.0, 365208.0, 0.0], [241646.0, 365208.0, 0.0], [241646.0, 365210.0, 0.0], [241648.0, 365210.0, 0.0], [241648.0, 365212.0, 0.0], [241650.0, 365212.0, 0.0], [241650.0, 365214.0, 0.0], [241652.0, 365214.0, 0.0], [241652.0, 365216.0, 0.0], [241654.0, 365216.0, 0.0], [241654.0, 365218.0, 0.0], [241662.0, 365218.0, 0.0], [241662.0, 365216.0, 0.0], [241664.0, 365216.0, 0.0], [241664.0, 365218.0, 0.0], [241668.0, 365218.0, 0.0], [241668.0, 365220.0, 0.0], [241678.0, 365220.0, 0.0], [241678.0, 365222.0, 0.0], [241680.0, 365222.0, 0.0], [241680.0, 365226.0, 0.0], [241682.0, 365226.0, 0.0], [241682.0, 365228.0, 0.0], [241684.0, 365228.0, 0.0], [241684.0, 365224.0, 0.0], [241686.0, 365224.0, 0.0], [241686.0, 365222.0, 0.0], [241690.0, 365222.0, 0.0], [241690.0, 365220.0, 0.0], [241698.0, 365220.0, 0.0], [241698.0, 365222.0, 0.0], [241700.0, 365222.0, 0.0], [241700.0, 365226.0, 0.0], [241702.0, 365226.0, 0.0], [241702.0, 365228.0, 0.0], [241708.0, 365228.0, 0.0], [241708.0, 365230.0, 0.0], [241710.0, 365230.0, 0.0], [241710.0, 365234.0, 0.0], [241712.0, 365234.0, 0.0], [241712.0, 365236.0, 0.0], [241716.0, 365236.0, 0.0], [241716.0, 365238.0, 0.0], [241718.0, 365238.0, 0.0], [241718.0, 365240.0, 0.0], [241724.0, 365240.0, 0.0], [241724.0, 365238.0, 0.0], [241728.0, 365238.0, 0.0], [241728.0, 365240.0, 0.0], [241730.0, 365240.0, 0.0], [241730.0, 365242.0, 0.0], [241732.0, 365242.0, 0.0], [241732.0, 365244.0, 0.0], [241734.0, 365244.0, 0.0], [241734.0, 365246.0, 0.0], [241738.0, 365246.0, 0.0], [241738.0, 365248.0, 0.0], [241740.0, 365248.0, 0.0], [241740.0, 365250.0, 0.0], [241742.0, 365250.0, 0.0], [241742.0, 365252.0, 0.0], [241750.0, 365252.0, 0.0], [241750.0, 365254.0, 0.0], [241752.0, 365254.0, 0.0], [241752.0, 365262.0, 0.0], [241754.0, 365262.0, 0.0], [241754.0, 365268.0, 0.0], [241756.0, 365268.0, 0.0], [241756.0, 365270.0, 0.0], [241758.0, 365270.0, 0.0], [241758.0, 365272.0, 0.0], [241760.0, 365272.0, 0.0], [241760.0, 365274.0, 0.0], [241762.0, 365274.0, 0.0], [241762.0, 365276.0, 0.0], [241764.0, 365276.0, 0.0], [241764.0, 365278.0, 0.0], [241766.0, 365278.0, 0.0], [241766.0, 365290.0, 0.0], [241764.0, 365290.0, 0.0], [241764.0, 365294.0, 0.0], [241760.0, 365294.0, 0.0], [241760.0, 365298.0, 0.0], [241758.0, 365298.0, 0.0], [241758.0, 365300.0, 0.0], [241756.0, 365300.0, 0.0], [241756.0, 365306.0, 0.0], [241754.0, 365306.0, 0.0], [241754.0, 365310.0, 0.0], [241752.0, 365310.0, 0.0], [241752.0, 365312.0, 0.0], [241754.0, 365312.0, 0.0], [241754.0, 365314.0, 0.0], [241764.0, 365314.0, 0.0], [241764.0, 365312.0, 0.0], [241766.0, 365312.0, 0.0], [241766.0, 365310.0, 0.0], [241768.0, 365310.0, 0.0], [241768.0, 365308.0, 0.0], [241772.0, 365308.0, 0.0], [241772.0, 365310.0, 0.0], [241778.0, 365310.0, 0.0], [241778.0, 365312.0, 0.0], [241780.0, 365312.0, 0.0], [241780.0, 365314.0, 0.0], [241784.0, 365314.0, 0.0], [241784.0, 365316.0, 0.0], [241794.0, 365316.0, 0.0], [241794.0, 365326.0, 0.0], [241792.0, 365326.0, 0.0], [241792.0, 365328.0, 0.0], [241794.0, 365328.0, 0.0], [241794.0, 365332.0, 0.0], [241796.0, 365332.0, 0.0], [241796.0, 365336.0, 0.0], [241798.0, 365336.0, 0.0], [241798.0, 365338.0, 0.0], [241800.0, 365338.0, 0.0], [241800.0, 365342.0, 0.0], [241802.0, 365342.0, 0.0], [241802.0, 365344.0, 0.0], [241808.0, 365344.0, 0.0], [241808.0, 365346.0, 0.0], [241810.0, 365346.0, 0.0], [241810.0, 365348.0, 0.0], [241812.0, 365348.0, 0.0], [241812.0, 365350.0, 0.0], [241814.0, 365350.0, 0.0], [241814.0, 365358.0, 0.0], [241816.0, 365358.0, 0.0], [241816.0, 365360.0, 0.0], [241818.0, 365360.0, 0.0], [241818.0, 365362.0, 0.0], [241814.0, 365362.0, 0.0], [241814.0, 365368.0, 0.0], [241812.0, 365368.0, 0.0], [241812.0, 365370.0, 0.0], [241816.0, 365370.0, 0.0], [241816.0, 365376.0, 0.0], [241824.0, 365376.0, 0.0], [241824.0, 365380.0, 0.0], [241826.0, 365380.0, 0.0], [241826.0, 365382.0, 0.0], [241828.0, 365382.0, 0.0], [241828.0, 365384.0, 0.0], [241832.0, 365384.0, 0.0], [241832.0, 365392.0, 0.0], [241834.0, 365392.0, 0.0], [241834.0, 365394.0, 0.0], [241838.0, 365394.0, 0.0], [241838.0, 365396.0, 0.0], [241840.0, 365396.0, 0.0], [241840.0, 365398.0, 0.0], [241846.0, 365398.0, 0.0], [241846.0, 365400.0, 0.0], [241856.0, 365400.0, 0.0], [241856.0, 365398.0, 0.0], [241858.0, 365398.0, 0.0], [241858.0, 365402.0, 0.0], [241860.0, 365402.0, 0.0], [241860.0, 365408.0, 0.0], [241864.0, 365408.0, 0.0], [241864.0, 365410.0, 0.0], [241866.0, 365410.0, 0.0], [241866.0, 365408.0, 0.0], [241874.0, 365408.0, 0.0], [241874.0, 365414.0, 0.0], [241872.0, 365414.0, 0.0], [241872.0, 365418.0, 0.0], [241870.0, 365418.0, 0.0], [241870.0, 365422.0, 0.0], [241876.0, 365422.0, 0.0], [241876.0, 365424.0, 0.0], [241880.0, 365424.0, 0.0], [241880.0, 365426.0, 0.0], [241884.0, 365426.0, 0.0], [241884.0, 365428.0, 0.0], [241886.0, 365428.0, 0.0], [241886.0, 365430.0, 0.0], [241892.0, 365430.0, 0.0], [241892.0, 365432.0, 0.0], [241896.0, 365432.0, 0.0], [241896.0, 365434.0, 0.0], [241900.0, 365434.0, 0.0], [241900.0, 365436.0, 0.0], [241906.0, 365436.0, 0.0], [241906.0, 365440.0, 0.0], [241910.0, 365440.0, 0.0], [241910.0, 365442.0, 0.0], [241912.0, 365442.0, 0.0], [241912.0, 365444.0, 0.0], [241920.0, 365444.0, 0.0], [241920.0, 365446.0, 0.0], [241922.0, 365446.0, 0.0], [241922.0, 365448.0, 0.0], [241926.0, 365448.0, 0.0], [241926.0, 365450.0, 0.0], [241928.0, 365450.0, 0.0], [241928.0, 365452.0, 0.0], [241936.0, 365452.0, 0.0], [241936.0, 365454.0, 0.0], [241944.0, 365454.0, 0.0], [241944.0, 365456.0, 0.0], [241946.0, 365456.0, 0.0], [241946.0, 365458.0, 0.0], [241952.0, 365458.0, 0.0], [241952.0, 365460.0, 0.0], [241954.0, 365460.0, 0.0], [241954.0, 365466.0, 0.0], [241962.0, 365466.0, 0.0], [241962.0, 365464.0, 0.0], [241972.0, 365464.0, 0.0], [241972.0, 365466.0, 0.0], [241974.0, 365466.0, 0.0], [241974.0, 365468.0, 0.0], [241980.0, 365468.0, 0.0], [241980.0, 365470.0, 0.0], [241984.0, 365470.0, 0.0], [241984.0, 365472.0, 0.0], [241988.0, 365472.0, 0.0], [241988.0, 365474.0, 0.0], [241990.0, 365474.0, 0.0], [241990.0, 365476.0, 0.0], [241998.0, 365476.0, 0.0], [241998.0, 365474.0, 0.0], [242004.0, 365474.0, 0.0], [242004.0, 365476.0, 0.0], [242008.0, 365476.0, 0.0], [242008.0, 365474.0, 0.0], [242010.0, 365474.0, 0.0], [242010.0, 365472.0, 0.0], [242012.0, 365472.0, 0.0], [242012.0, 365474.0, 0.0], [242014.0, 365474.0, 0.0], [242014.0, 365476.0, 0.0], [242016.0, 365476.0, 0.0], [242016.0, 365474.0, 0.0], [242020.0, 365474.0, 0.0], [242020.0, 365476.0, 0.0], [242024.0, 365476.0, 0.0], [242024.0, 365478.0, 0.0], [242026.0, 365478.0, 0.0], [242026.0, 365480.0, 0.0], [242028.0, 365480.0, 0.0], [242028.0, 365482.0, 0.0], [242032.0, 365482.0, 0.0], [242032.0, 365484.0, 0.0], [242036.0, 365484.0, 0.0], [242036.0, 365486.0, 0.0], [242038.0, 365486.0, 0.0], [242038.0, 365488.0, 0.0], [242040.0, 365488.0, 0.0], [242040.0, 365490.0, 0.0], [242048.0, 365490.0, 0.0], [242048.0, 365492.0, 0.0], [242050.0, 365492.0, 0.0], [242050.0, 365494.0, 0.0], [242056.0, 365494.0, 0.0], [242056.0, 365496.0, 0.0], [242060.0, 365496.0, 0.0], [242060.0, 365498.0, 0.0], [242064.0, 365498.0, 0.0], [242064.0, 365500.0, 0.0], [242070.0, 365500.0, 0.0], [242070.0, 365502.0, 0.0], [242074.0, 365502.0, 0.0], [242074.0, 365504.0, 0.0], [242080.0, 365504.0, 0.0], [242080.0, 365506.0, 0.0], [242084.0, 365506.0, 0.0], [242084.0, 365508.0, 0.0], [242088.0, 365508.0, 0.0], [242088.0, 365510.0, 0.0], [242094.0, 365510.0, 0.0], [242094.0, 365512.0, 0.0], [242096.0, 365512.0, 0.0], [242096.0, 365514.0, 0.0], [242102.0, 365514.0, 0.0], [242102.0, 365516.0, 0.0], [242104.0, 365516.0, 0.0], [242104.0, 365518.0, 0.0], [242106.0, 365518.0, 0.0], [242106.0, 365522.0, 0.0], [242108.0, 365522.0, 0.0], [242108.0, 365526.0, 0.0], [242110.0, 365526.0, 0.0], [242110.0, 365534.0, 0.0], [242108.0, 365534.0, 0.0], [242108.0, 365544.0, 0.0], [242104.0, 365544.0, 0.0], [242104.0, 365548.0, 0.0], [242106.0, 365548.0, 0.0], [242106.0, 365550.0, 0.0], [242108.0, 365550.0, 0.0], [242108.0, 365558.0, 0.0], [242110.0, 365558.0, 0.0], [242110.0, 365560.0, 0.0], [242112.0, 365560.0, 0.0], [242112.0, 365566.0, 0.0], [242116.0, 365566.0, 0.0], [242116.0, 365570.0, 0.0], [242118.0, 365570.0, 0.0], [242118.0, 365572.0, 0.0], [242122.0, 365572.0, 0.0], [242122.0, 365576.0, 0.0], [242124.0, 365576.0, 0.0], [242124.0, 365578.0, 0.0], [242126.0, 365578.0, 0.0], [242126.0, 365580.0, 0.0], [242128.0, 365580.0, 0.0], [242128.0, 365582.0, 0.0], [242132.0, 365582.0, 0.0], [242132.0, 365586.0, 0.0], [242134.0, 365586.0, 0.0], [242134.0, 365588.0, 0.0], [242138.0, 365588.0, 0.0], [242138.0, 365590.0, 0.0], [242140.0, 365590.0, 0.0], [242140.0, 365594.0, 0.0], [242144.0, 365594.0, 0.0], [242144.0, 365596.0, 0.0], [242146.0, 365596.0, 0.0], [242146.0, 365598.0, 0.0], [242148.0, 365598.0, 0.0], [242148.0, 365600.0, 0.0], [242150.0, 365600.0, 0.0], [242150.0, 365602.0, 0.0], [242152.0, 365602.0, 0.0], [242152.0, 365608.0, 0.0], [242154.0, 365608.0, 0.0], [242154.0, 365610.0, 0.0], [242158.0, 365610.0, 0.0], [242158.0, 365616.0, 0.0], [242156.0, 365616.0, 0.0], [242156.0, 365622.0, 0.0], [242154.0, 365622.0, 0.0], [242154.0, 365624.0, 0.0], [242156.0, 365624.0, 0.0], [242156.0, 365634.0, 0.0], [242154.0, 365634.0, 0.0], [242154.0, 365642.0, 0.0], [242156.0, 365642.0, 0.0], [242156.0, 365648.0, 0.0], [242158.0, 365648.0, 0.0], [242158.0, 365652.0, 0.0], [242160.0, 365652.0, 0.0], [242160.0, 365654.0, 0.0], [242162.0, 365654.0, 0.0], [242162.0, 365658.0, 0.0], [242164.0, 365658.0, 0.0], [242164.0, 365660.0, 0.0], [242162.0, 365660.0, 0.0], [242162.0, 365676.0, 0.0], [242160.0, 365676.0, 0.0], [242160.0, 365680.0, 0.0], [242158.0, 365680.0, 0.0], [242158.0, 365694.0, 0.0], [242156.0, 365694.0, 0.0], [242156.0, 365700.0, 0.0], [242154.0, 365700.0, 0.0], [242154.0, 365702.0, 0.0], [242150.0, 365702.0, 0.0], [242150.0, 365710.0, 0.0], [242152.0, 365710.0, 0.0], [242152.0, 365714.0, 0.0], [242154.0, 365714.0, 0.0], [242154.0, 365716.0, 0.0], [242156.0, 365716.0, 0.0], [242156.0, 365718.0, 0.0], [242158.0, 365718.0, 0.0], [242158.0, 365722.0, 0.0], [242160.0, 365722.0, 0.0], [242160.0, 365724.0, 0.0], [242164.0, 365724.0, 0.0], [242164.0, 365726.0, 0.0], [242166.0, 365726.0, 0.0], [242166.0, 365728.0, 0.0], [242164.0, 365728.0, 0.0], [242164.0, 365736.0, 0.0], [242166.0, 365736.0, 0.0], [242166.0, 365738.0, 0.0], [242168.0, 365738.0, 0.0], [242168.0, 365740.0, 0.0], [242166.0, 365740.0, 0.0], [242166.0, 365744.0, 0.0], [242170.0, 365744.0, 0.0], [242170.0, 365746.0, 0.0], [242174.0, 365746.0, 0.0], [242174.0, 365748.0, 0.0], [242176.0, 365748.0, 0.0], [242176.0, 365750.0, 0.0], [242174.0, 365750.0, 0.0], [242174.0, 365752.0, 0.0], [242170.0, 365752.0, 0.0], [242170.0, 365754.0, 0.0], [242168.0, 365754.0, 0.0], [242168.0, 365756.0, 0.0], [242166.0, 365756.0, 0.0], [242166.0, 365766.0, 0.0], [242170.0, 365766.0, 0.0], [242170.0, 365768.0, 0.0], [242172.0, 365768.0, 0.0], [242172.0, 365772.0, 0.0], [242174.0, 365772.0, 0.0], [242174.0, 365774.0, 0.0], [242178.0, 365774.0, 0.0], [242178.0, 365780.0, 0.0], [242180.0, 365780.0, 0.0], [242180.0, 365784.0, 0.0], [242186.0, 365784.0, 0.0], [242186.0, 365788.0, 0.0], [242188.0, 365788.0, 0.0], [242188.0, 365798.0, 0.0], [242190.0, 365798.0, 0.0], [242190.0, 365800.0, 0.0], [242192.0, 365800.0, 0.0], [242192.0, 365802.0, 0.0], [242194.0, 365802.0, 0.0], [242194.0, 365804.0, 0.0], [242198.0, 365804.0, 0.0], [242198.0, 365806.0, 0.0], [242202.0, 365806.0, 0.0], [242202.0, 365804.0, 0.0], [242204.0, 365804.0, 0.0], [242204.0, 365800.0, 0.0], [242212.0, 365800.0, 0.0], [242212.0, 365804.0, 0.0], [242214.0, 365804.0, 0.0], [242214.0, 365806.0, 0.0], [242218.0, 365806.0, 0.0], [242218.0, 365808.0, 0.0], [242222.0, 365808.0, 0.0], [242222.0, 365812.0, 0.0], [242224.0, 365812.0, 0.0], [242224.0, 365814.0, 0.0], [242222.0, 365814.0, 0.0], [242222.0, 365816.0, 0.0], [242220.0, 365816.0, 0.0], [242220.0, 365818.0, 0.0], [242212.0, 365818.0, 0.0], [242212.0, 365820.0, 0.0], [242214.0, 365820.0, 0.0], [242214.0, 365822.0, 0.0], [242220.0, 365822.0, 0.0], [242220.0, 365824.0, 0.0], [242222.0, 365824.0, 0.0], [242222.0, 365826.0, 0.0], [242224.0, 365826.0, 0.0], [242224.0, 365830.0, 0.0], [242226.0, 365830.0, 0.0], [242226.0, 365832.0, 0.0], [242228.0, 365832.0, 0.0], [242228.0, 365834.0, 0.0], [242230.0, 365834.0, 0.0], [242230.0, 365838.0, 0.0], [242234.0, 365838.0, 0.0], [242234.0, 365840.0, 0.0], [242236.0, 365840.0, 0.0], [242236.0, 365842.0, 0.0], [242234.0, 365842.0, 0.0], [242234.0, 365844.0, 0.0], [242236.0, 365844.0, 0.0], [242236.0, 365846.0, 0.0], [242238.0, 365846.0, 0.0], [242238.0, 365848.0, 0.0], [242242.0, 365848.0, 0.0], [242242.0, 365850.0, 0.0], [242246.0, 365850.0, 0.0], [242246.0, 365856.0, 0.0], [242252.0, 365856.0, 0.0], [242252.0, 365858.0, 0.0], [242254.0, 365858.0, 0.0], [242254.0, 365860.0, 0.0], [242256.0, 365860.0, 0.0], [242256.0, 365862.0, 0.0], [242258.0, 365862.0, 0.0], [242258.0, 365864.0, 0.0], [242260.0, 365864.0, 0.0], [242260.0, 365866.0, 0.0], [242262.0, 365866.0, 0.0], [242262.0, 365868.0, 0.0], [242264.0, 365868.0, 0.0], [242264.0, 365870.0, 0.0], [242266.0, 365870.0, 0.0], [242266.0, 365872.0, 0.0], [242268.0, 365872.0, 0.0], [242268.0, 365876.0, 0.0], [242270.0, 365876.0, 0.0], [242270.0, 365878.0, 0.0], [242274.0, 365878.0, 0.0], [242274.0, 365880.0, 0.0], [242276.0, 365880.0, 0.0], [242276.0, 365882.0, 0.0], [242280.0, 365882.0, 0.0], [242280.0, 365880.0, 0.0], [242284.0, 365880.0, 0.0], [242284.0, 365878.0, 0.0], [242288.0, 365878.0, 0.0], [242288.0, 365882.0, 0.0], [242292.0, 365882.0, 0.0], [242292.0, 365890.0, 0.0], [242294.0, 365890.0, 0.0], [242294.0, 365892.0, 0.0], [242296.0, 365892.0, 0.0], [242296.0, 365894.0, 0.0], [242298.0, 365894.0, 0.0], [242298.0, 365898.0, 0.0], [242302.0, 365898.0, 0.0], [242302.0, 365902.0, 0.0], [242304.0, 365902.0, 0.0], [242304.0, 365908.0, 0.0], [242310.0, 365908.0, 0.0], [242310.0, 365906.0, 0.0], [242312.0, 365906.0, 0.0], [242312.0, 365902.0, 0.0], [242316.0, 365902.0, 0.0], [242316.0, 365898.0, 0.0], [242318.0, 365898.0, 0.0], [242318.0, 365896.0, 0.0], [242320.0, 365896.0, 0.0], [242320.0, 365888.0, 0.0], [242318.0, 365888.0, 0.0], [242318.0, 365886.0, 0.0], [242312.0, 365886.0, 0.0], [242312.0, 365884.0, 0.0], [242310.0, 365884.0, 0.0], [242310.0, 365876.0, 0.0], [242312.0, 365876.0, 0.0], [242312.0, 365868.0, 0.0], [242302.0, 365868.0, 0.0], [242302.0, 365866.0, 0.0], [242298.0, 365866.0, 0.0], [242298.0, 365864.0, 0.0], [242296.0, 365864.0, 0.0], [242296.0, 365860.0, 0.0], [242294.0, 365860.0, 0.0], [242294.0, 365852.0, 0.0], [242296.0, 365852.0, 0.0], [242296.0, 365850.0, 0.0], [242304.0, 365850.0, 0.0], [242304.0, 365846.0, 0.0], [242306.0, 365846.0, 0.0], [242306.0, 365844.0, 0.0], [242308.0, 365844.0, 0.0], [242308.0, 365840.0, 0.0], [242306.0, 365840.0, 0.0], [242306.0, 365838.0, 0.0], [242304.0, 365838.0, 0.0], [242304.0, 365830.0, 0.0], [242306.0, 365830.0, 0.0], [242306.0, 365828.0, 0.0], [242308.0, 365828.0, 0.0], [242308.0, 365824.0, 0.0], [242310.0, 365824.0, 0.0], [242310.0, 365822.0, 0.0], [242312.0, 365822.0, 0.0], [242312.0, 365818.0, 0.0], [242314.0, 365818.0, 0.0], [242314.0, 365814.0, 0.0], [242316.0, 365814.0, 0.0], [242316.0, 365812.0, 0.0], [242318.0, 365812.0, 0.0], [242318.0, 365810.0, 0.0], [242320.0, 365810.0, 0.0], [242320.0, 365808.0, 0.0], [242322.0, 365808.0, 0.0], [242322.0, 365802.0, 0.0], [242324.0, 365802.0, 0.0], [242324.0, 365796.0, 0.0], [242322.0, 365796.0, 0.0], [242322.0, 365794.0, 0.0], [242320.0, 365794.0, 0.0], [242320.0, 365792.0, 0.0], [242322.0, 365792.0, 0.0], [242322.0, 365790.0, 0.0], [242326.0, 365790.0, 0.0], [242326.0, 365788.0, 0.0], [242338.0, 365788.0, 0.0], [242338.0, 365790.0, 0.0], [242340.0, 365790.0, 0.0], [242340.0, 365788.0, 0.0], [242342.0, 365788.0, 0.0], [242342.0, 365786.0, 0.0], [242344.0, 365786.0, 0.0], [242344.0, 365784.0, 0.0], [242346.0, 365784.0, 0.0], [242346.0, 365782.0, 0.0], [242348.0, 365782.0, 0.0], [242348.0, 365784.0, 0.0], [242354.0, 365784.0, 0.0], [242354.0, 365782.0, 0.0], [242356.0, 365782.0, 0.0], [242356.0, 365780.0, 0.0], [242358.0, 365780.0, 0.0], [242358.0, 365778.0, 0.0], [242366.0, 365778.0, 0.0], [242366.0, 365780.0, 0.0], [242372.0, 365780.0, 0.0], [242372.0, 365776.0, 0.0], [242374.0, 365776.0, 0.0], [242374.0, 365770.0, 0.0], [242376.0, 365770.0, 0.0], [242376.0, 365764.0, 0.0], [242374.0, 365764.0, 0.0], [242374.0, 365762.0, 0.0], [242372.0, 365762.0, 0.0], [242372.0, 365760.0, 0.0], [242374.0, 365760.0, 0.0], [242374.0, 365758.0, 0.0], [242380.0, 365758.0, 0.0], [242380.0, 365754.0, 0.0], [242382.0, 365754.0, 0.0], [242382.0, 365752.0, 0.0], [242384.0, 365752.0, 0.0], [242384.0, 365750.0, 0.0], [242386.0, 365750.0, 0.0], [242386.0, 365748.0, 0.0], [242390.0, 365748.0, 0.0], [242390.0, 365742.0, 0.0], [242388.0, 365742.0, 0.0], [242388.0, 365740.0, 0.0], [242386.0, 365740.0, 0.0], [242386.0, 365738.0, 0.0], [242384.0, 365738.0, 0.0], [242384.0, 365736.0, 0.0], [242382.0, 365736.0, 0.0], [242382.0, 365732.0, 0.0], [242384.0, 365732.0, 0.0], [242384.0, 365730.0, 0.0], [242404.0, 365730.0, 0.0], [242404.0, 365728.0, 0.0], [242406.0, 365728.0, 0.0], [242406.0, 365724.0, 0.0], [242404.0, 365724.0, 0.0], [242404.0, 365720.0, 0.0], [242402.0, 365720.0, 0.0], [242402.0, 365716.0, 0.0], [242404.0, 365716.0, 0.0], [242404.0, 365710.0, 0.0], [242402.0, 365710.0, 0.0], [242402.0, 365700.0, 0.0], [242404.0, 365700.0, 0.0], [242404.0, 365698.0, 0.0], [242406.0, 365698.0, 0.0], [242406.0, 365696.0, 0.0], [242404.0, 365696.0, 0.0], [242404.0, 365692.0, 0.0], [242400.0, 365692.0, 0.0], [242400.0, 365686.0, 0.0], [242402.0, 365686.0, 0.0], [242402.0, 365682.0, 0.0], [242406.0, 365682.0, 0.0], [242406.0, 365680.0, 0.0], [242410.0, 365680.0, 0.0], [242410.0, 365676.0, 0.0], [242412.0, 365676.0, 0.0], [242412.0, 365674.0, 0.0], [242414.0, 365674.0, 0.0], [242414.0, 365676.0, 0.0], [242424.0, 365676.0, 0.0], [242424.0, 365674.0, 0.0], [242430.0, 365674.0, 0.0], [242430.0, 365676.0, 0.0], [242434.0, 365676.0, 0.0], [242434.0, 365678.0, 0.0], [242436.0, 365678.0, 0.0], [242436.0, 365680.0, 0.0], [242438.0, 365680.0, 0.0], [242438.0, 365678.0, 0.0], [242442.0, 365678.0, 0.0], [242442.0, 365676.0, 0.0], [242444.0, 365676.0, 0.0], [242444.0, 365674.0, 0.0], [242448.0, 365674.0, 0.0], [242448.0, 365676.0, 0.0], [242450.0, 365676.0, 0.0], [242450.0, 365674.0, 0.0], [242452.0, 365674.0, 0.0], [242452.0, 365672.0, 0.0], [242454.0, 365672.0, 0.0], [242454.0, 365668.0, 0.0], [242456.0, 365668.0, 0.0], [242456.0, 365666.0, 0.0], [242458.0, 365666.0, 0.0], [242458.0, 365664.0, 0.0], [242462.0, 365664.0, 0.0], [242462.0, 365660.0, 0.0], [242464.0, 365660.0, 0.0], [242464.0, 365658.0, 0.0], [242470.0, 365658.0, 0.0], [242470.0, 365656.0, 0.0], [242472.0, 365656.0, 0.0], [242472.0, 365654.0, 0.0], [242480.0, 365654.0, 0.0], [242480.0, 365656.0, 0.0], [242482.0, 365656.0, 0.0], [242482.0, 365654.0, 0.0], [242488.0, 365654.0, 0.0], [242488.0, 365652.0, 0.0], [242492.0, 365652.0, 0.0], [242492.0, 365650.0, 0.0], [242500.0, 365650.0, 0.0], [242500.0, 365640.0, 0.0], [242502.0, 365640.0, 0.0], [242502.0, 365638.0, 0.0], [242504.0, 365638.0, 0.0], [242504.0, 365636.0, 0.0], [242510.0, 365636.0, 0.0], [242510.0, 365634.0, 0.0], [242512.0, 365634.0, 0.0], [242512.0, 365628.0, 0.0], [242510.0, 365628.0, 0.0], [242510.0, 365626.0, 0.0], [242508.0, 365626.0, 0.0], [242508.0, 365624.0, 0.0], [242506.0, 365624.0, 0.0], [242506.0, 365622.0, 0.0], [242504.0, 365622.0, 0.0], [242504.0, 365618.0, 0.0], [242502.0, 365618.0, 0.0], [242502.0, 365614.0, 0.0], [242504.0, 365614.0, 0.0], [242504.0, 365612.0, 0.0], [242506.0, 365612.0, 0.0], [242506.0, 365610.0, 0.0], [242508.0, 365610.0, 0.0], [242508.0, 365608.0, 0.0], [242510.0, 365608.0, 0.0], [242510.0, 365598.0, 0.0], [242512.0, 365598.0, 0.0], [242512.0, 365596.0, 0.0], [242514.0, 365596.0, 0.0], [242514.0, 365588.0, 0.0], [242512.0, 365588.0, 0.0], [242512.0, 365586.0, 0.0], [242514.0, 365586.0, 0.0], [242514.0, 365584.0, 0.0], [242516.0, 365584.0, 0.0], [242516.0, 365582.0, 0.0], [242518.0, 365582.0, 0.0], [242518.0, 365580.0, 0.0], [242520.0, 365580.0, 0.0], [242520.0, 365576.0, 0.0], [242518.0, 365576.0, 0.0], [242518.0, 365572.0, 0.0], [242520.0, 365572.0, 0.0], [242520.0, 365568.0, 0.0], [242522.0, 365568.0, 0.0], [242522.0, 365566.0, 0.0], [242520.0, 365566.0, 0.0], [242520.0, 365560.0, 0.0], [242522.0, 365560.0, 0.0], [242522.0, 365558.0, 0.0], [242524.0, 365558.0, 0.0], [242524.0, 365554.0, 0.0], [242526.0, 365554.0, 0.0], [242526.0, 365552.0, 0.0], [242528.0, 365552.0, 0.0], [242528.0, 365550.0, 0.0], [242530.0, 365550.0, 0.0], [242530.0, 365546.0, 0.0], [242532.0, 365546.0, 0.0], [242532.0, 365544.0, 0.0], [242534.0, 365544.0, 0.0], [242534.0, 365542.0, 0.0], [242536.0, 365542.0, 0.0], [242536.0, 365536.0, 0.0], [242534.0, 365536.0, 0.0], [242534.0, 365526.0, 0.0], [242536.0, 365526.0, 0.0], [242536.0, 365522.0, 0.0], [242540.0, 365522.0, 0.0], [242540.0, 365520.0, 0.0], [242542.0, 365520.0, 0.0], [242542.0, 365514.0, 0.0], [242546.0, 365514.0, 0.0], [242546.0, 365510.0, 0.0], [242548.0, 365510.0, 0.0], [242548.0, 365508.0, 0.0], [242550.0, 365508.0, 0.0], [242550.0, 365502.0, 0.0], [242552.0, 365502.0, 0.0], [242552.0, 365500.0, 0.0], [242554.0, 365500.0, 0.0], [242554.0, 365498.0, 0.0], [242556.0, 365498.0, 0.0], [242556.0, 365496.0, 0.0], [242558.0, 365496.0, 0.0], [242558.0, 365494.0, 0.0], [242562.0, 365494.0, 0.0], [242562.0, 365492.0, 0.0], [242564.0, 365492.0, 0.0], [242564.0, 365490.0, 0.0], [242566.0, 365490.0, 0.0], [242566.0, 365488.0, 0.0], [242568.0, 365488.0, 0.0], [242568.0, 365484.0, 0.0], [242570.0, 365484.0, 0.0], [242570.0, 365482.0, 0.0], [242572.0, 365482.0, 0.0], [242572.0, 365480.0, 0.0], [242574.0, 365480.0, 0.0], [242574.0, 365478.0, 0.0], [242576.0, 365478.0, 0.0], [242576.0, 365476.0, 0.0], [242578.0, 365476.0, 0.0], [242578.0, 365474.0, 0.0], [242582.0, 365474.0, 0.0], [242582.0, 365472.0, 0.0], [242584.0, 365472.0, 0.0], [242584.0, 365468.0, 0.0], [242586.0, 365468.0, 0.0], [242586.0, 365466.0, 0.0], [242590.0, 365466.0, 0.0], [242590.0, 365464.0, 0.0], [242592.0, 365464.0, 0.0], [242592.0, 365462.0, 0.0], [242594.0, 365462.0, 0.0], [242594.0, 365460.0, 0.0], [242596.0, 365460.0, 0.0], [242596.0, 365458.0, 0.0], [242598.0, 365458.0, 0.0], [242598.0, 365456.0, 0.0], [242602.0, 365456.0, 0.0], [242602.0, 365454.0, 0.0], [242604.0, 365454.0, 0.0], [242604.0, 365452.0, 0.0], [242606.0, 365452.0, 0.0], [242606.0, 365450.0, 0.0], [242612.0, 365450.0, 0.0], [242612.0, 365448.0, 0.0], [242614.0, 365448.0, 0.0], [242614.0, 365446.0, 0.0], [242616.0, 365446.0, 0.0], [242616.0, 365444.0, 0.0], [242618.0, 365444.0, 0.0], [242618.0, 365438.0, 0.0], [242620.0, 365438.0, 0.0], [242620.0, 365434.0, 0.0], [242622.0, 365434.0, 0.0], [242622.0, 365432.0, 0.0], [242624.0, 365432.0, 0.0], [242624.0, 365430.0, 0.0], [242626.0, 365430.0, 0.0], [242626.0, 365428.0, 0.0], [242630.0, 365428.0, 0.0], [242630.0, 365426.0, 0.0], [242636.0, 365426.0, 0.0], [242636.0, 365412.0, 0.0], [242638.0, 365412.0, 0.0], [242638.0, 365410.0, 0.0], [242640.0, 365410.0, 0.0], [242640.0, 365408.0, 0.0], [242644.0, 365408.0, 0.0], [242644.0, 365406.0, 0.0], [242646.0, 365406.0, 0.0], [242646.0, 365404.0, 0.0], [242650.0, 365404.0, 0.0], [242650.0, 365402.0, 0.0], [242654.0, 365402.0, 0.0], [242654.0, 365398.0, 0.0], [242656.0, 365398.0, 0.0], [242656.0, 365396.0, 0.0], [242660.0, 365396.0, 0.0], [242660.0, 365394.0, 0.0], [242666.0, 365394.0, 0.0], [242666.0, 365392.0, 0.0], [242672.0, 365392.0, 0.0], [242672.0, 365390.0, 0.0], [242676.0, 365390.0, 0.0], [242676.0, 365388.0, 0.0], [242684.0, 365388.0, 0.0], [242684.0, 365386.0, 0.0], [242694.0, 365386.0, 0.0], [242694.0, 365384.0, 0.0], [242696.0, 365384.0, 0.0], [242696.0, 365382.0, 0.0], [242704.0, 365382.0, 0.0], [242704.0, 365380.0, 0.0], [242714.0, 365380.0, 0.0], [242714.0, 365378.0, 0.0], [242718.0, 365378.0, 0.0], [242718.0, 365376.0, 0.0], [242722.0, 365376.0, 0.0], [242722.0, 365374.0, 0.0], [242726.0, 365374.0, 0.0], [242726.0, 365372.0, 0.0], [242730.0, 365372.0, 0.0], [242730.0, 365370.0, 0.0], [242732.0, 365370.0, 0.0], [242732.0, 365368.0, 0.0], [242734.0, 365368.0, 0.0], [242734.0, 365366.0, 0.0], [242736.0, 365366.0, 0.0], [242736.0, 365364.0, 0.0], [242744.0, 365364.0, 0.0], [242744.0, 365362.0, 0.0], [242746.0, 365362.0, 0.0], [242746.0, 365360.0, 0.0], [242748.0, 365360.0, 0.0], [242748.0, 365354.0, 0.0], [242750.0, 365354.0, 0.0], [242750.0, 365342.0, 0.0], [242748.0, 365342.0, 0.0], [242748.0, 365336.0, 0.0], [242750.0, 365336.0, 0.0], [242750.0, 365332.0, 0.0], [242754.0, 365332.0, 0.0], [242754.0, 365328.0, 0.0], [242756.0, 365328.0, 0.0], [242756.0, 365322.0, 0.0], [242754.0, 365322.0, 0.0], [242754.0, 365316.0, 0.0], [242752.0, 365316.0, 0.0], [242752.0, 365314.0, 0.0], [242750.0, 365314.0, 0.0], [242750.0, 365310.0, 0.0], [242746.0, 365310.0, 0.0], [242746.0, 365304.0, 0.0], [242744.0, 365304.0, 0.0], [242744.0, 365302.0, 0.0], [242742.0, 365302.0, 0.0], [242742.0, 365300.0, 0.0], [242740.0, 365300.0, 0.0], [242740.0, 365296.0, 0.0], [242738.0, 365296.0, 0.0], [242738.0, 365294.0, 0.0], [242736.0, 365294.0, 0.0], [242736.0, 365290.0, 0.0], [242734.0, 365290.0, 0.0], [242734.0, 365288.0, 0.0], [242732.0, 365288.0, 0.0], [242732.0, 365282.0, 0.0], [242734.0, 365282.0, 0.0], [242734.0, 365274.0, 0.0], [242736.0, 365274.0, 0.0], [242736.0, 365268.0, 0.0], [242738.0, 365268.0, 0.0], [242738.0, 365264.0, 0.0], [242740.0, 365264.0, 0.0], [242740.0, 365262.0, 0.0], [242742.0, 365262.0, 0.0], [242742.0, 365260.0, 0.0], [242744.0, 365260.0, 0.0], [242744.0, 365256.0, 0.0], [242748.0, 365256.0, 0.0], [242748.0, 365254.0, 0.0], [242752.0, 365254.0, 0.0], [242752.0, 365250.0, 0.0], [242754.0, 365250.0, 0.0], [242754.0, 365248.0, 0.0], [242758.0, 365248.0, 0.0], [242758.0, 365250.0, 0.0], [242760.0, 365250.0, 0.0], [242760.0, 365248.0, 0.0], [242762.0, 365248.0, 0.0], [242762.0, 365246.0, 0.0], [242764.0, 365246.0, 0.0], [242764.0, 365244.0, 0.0], [242770.0, 365244.0, 0.0], [242770.0, 365242.0, 0.0], [242772.0, 365242.0, 0.0], [242772.0, 365240.0, 0.0], [242780.0, 365240.0, 0.0], [242780.0, 365238.0, 0.0], [242788.0, 365238.0, 0.0], [242788.0, 365236.0, 0.0], [242790.0, 365236.0, 0.0], [242790.0, 365234.0, 0.0], [242792.0, 365234.0, 0.0], [242792.0, 365232.0, 0.0], [242796.0, 365232.0, 0.0], [242796.0, 365230.0, 0.0], [242800.0, 365230.0, 0.0], [242800.0, 365228.0, 0.0], [242802.0, 365228.0, 0.0], [242802.0, 365220.0, 0.0], [242804.0, 365220.0, 0.0], [242804.0, 365222.0, 0.0], [242806.0, 365222.0, 0.0], [242806.0, 365220.0, 0.0], [242812.0, 365220.0, 0.0], [242812.0, 365218.0, 0.0], [242816.0, 365218.0, 0.0], [242816.0, 365216.0, 0.0], [242820.0, 365216.0, 0.0], [242820.0, 365212.0, 0.0], [242824.0, 365212.0, 0.0], [242824.0, 365210.0, 0.0], [242826.0, 365210.0, 0.0], [242826.0, 365208.0, 0.0], [242828.0, 365208.0, 0.0], [242828.0, 365206.0, 0.0], [242848.0, 365206.0, 0.0], [242848.0, 365204.0, 0.0], [242850.0, 365204.0, 0.0], [242850.0, 365202.0, 0.0], [242852.0, 365202.0, 0.0], [242852.0, 365200.0, 0.0], [242854.0, 365200.0, 0.0], [242854.0, 365202.0, 0.0], [242858.0, 365202.0, 0.0], [242858.0, 365200.0, 0.0], [242860.0, 365200.0, 0.0], [242860.0, 365198.0, 0.0], [242866.0, 365198.0, 0.0], [242866.0, 365196.0, 0.0], [242870.0, 365196.0, 0.0], [242870.0, 365194.0, 0.0], [242874.0, 365194.0, 0.0], [242874.0, 365192.0, 0.0], [242876.0, 365192.0, 0.0], [242876.0, 365190.0, 0.0], [242878.0, 365190.0, 0.0], [242878.0, 365188.0, 0.0], [242880.0, 365188.0, 0.0], [242880.0, 365190.0, 0.0], [242884.0, 365190.0, 0.0], [242884.0, 365188.0, 0.0], [242886.0, 365188.0, 0.0], [242886.0, 365186.0, 0.0], [242888.0, 365186.0, 0.0], [242888.0, 365188.0, 0.0], [242892.0, 365188.0, 0.0], [242892.0, 365190.0, 0.0], [242894.0, 365190.0, 0.0], [242894.0, 365192.0, 0.0], [242900.0, 365192.0, 0.0], [242900.0, 365190.0, 0.0], [242904.0, 365190.0, 0.0], [242904.0, 365178.0, 0.0], [242906.0, 365178.0, 0.0], [242906.0, 365166.0, 0.0], [242908.0, 365166.0, 0.0], [242908.0, 365156.0, 0.0], [242910.0, 365156.0, 0.0], [242910.0, 365146.0, 0.0], [242912.0, 365146.0, 0.0], [242912.0, 365136.0, 0.0], [242914.0, 365136.0, 0.0], [242914.0, 365134.0, 0.0], [242916.0, 365134.0, 0.0], [242916.0, 365124.0, 0.0], [242920.0, 365124.0, 0.0], [242920.0, 365116.0, 0.0], [242918.0, 365116.0, 0.0], [242918.0, 365112.0, 0.0], [242916.0, 365112.0, 0.0], [242916.0, 365108.0, 0.0], [242918.0, 365108.0, 0.0], [242918.0, 365096.0, 0.0], [242920.0, 365096.0, 0.0], [242920.0, 365078.0, 0.0], [242922.0, 365078.0, 0.0], [242922.0, 365076.0, 0.0], [242924.0, 365076.0, 0.0], [242924.0, 365060.0, 0.0], [242928.0, 365060.0, 0.0], [242928.0, 365056.0, 0.0], [242932.0, 365056.0, 0.0], [242932.0, 365046.0, 0.0], [242936.0, 365046.0, 0.0], [242936.0, 365044.0, 0.0], [242938.0, 365044.0, 0.0], [242938.0, 365042.0, 0.0], [242942.0, 365042.0, 0.0], [242942.0, 365040.0, 0.0], [242944.0, 365040.0, 0.0], [242944.0, 365038.0, 0.0], [242948.0, 365038.0, 0.0], [242948.0, 365032.0, 0.0], [242950.0, 365032.0, 0.0], [242950.0, 365028.0, 0.0], [242956.0, 365028.0, 0.0], [242956.0, 365026.0, 0.0], [242958.0, 365026.0, 0.0], [242958.0, 365028.0, 0.0], [242960.0, 365028.0, 0.0], [242960.0, 365030.0, 0.0], [242972.0, 365030.0, 0.0], [242972.0, 365016.0, 0.0], [242970.0, 365016.0, 0.0], [242970.0, 365014.0, 0.0], [242968.0, 365014.0, 0.0], [242968.0, 365012.0, 0.0], [242966.0, 365012.0, 0.0], [242966.0, 365010.0, 0.0], [242964.0, 365010.0, 0.0], [242964.0, 365008.0, 0.0], [242962.0, 365008.0, 0.0], [242962.0, 365010.0, 0.0], [242958.0, 365010.0, 0.0], [242958.0, 365008.0, 0.0], [242954.0, 365008.0, 0.0], [242954.0, 365006.0, 0.0], [242952.0, 365006.0, 0.0], [242952.0, 365008.0, 0.0], [242946.0, 365008.0, 0.0], [242946.0, 365006.0, 0.0], [242944.0, 365006.0, 0.0], [242944.0, 365004.0, 0.0], [242942.0, 365004.0, 0.0], [242942.0, 364994.0, 0.0], [242944.0, 364994.0, 0.0], [242944.0, 364992.0, 0.0], [242942.0, 364992.0, 0.0], [242942.0, 364990.0, 0.0], [242940.0, 364990.0, 0.0], [242940.0, 364984.0, 0.0], [242944.0, 364984.0, 0.0], [242944.0, 364982.0, 0.0], [242946.0, 364982.0, 0.0], [242946.0, 364976.0, 0.0], [242948.0, 364976.0, 0.0], [242948.0, 364970.0, 0.0], [242950.0, 364970.0, 0.0], [242950.0, 364968.0, 0.0], [242954.0, 364968.0, 0.0], [242954.0, 364962.0, 0.0], [242956.0, 364962.0, 0.0], [242956.0, 364964.0, 0.0], [242958.0, 364964.0, 0.0], [242958.0, 364966.0, 0.0], [242964.0, 364966.0, 0.0], [242964.0, 364960.0, 0.0], [242966.0, 364960.0, 0.0], [242966.0, 364952.0, 0.0], [242968.0, 364952.0, 0.0], [242968.0, 364948.0, 0.0], [242972.0, 364948.0, 0.0], [242972.0, 364946.0, 0.0], [242974.0, 364946.0, 0.0], [242974.0, 364944.0, 0.0], [242978.0, 364944.0, 0.0], [242978.0, 364938.0, 0.0], [242980.0, 364938.0, 0.0], [242980.0, 364936.0, 0.0], [242982.0, 364936.0, 0.0], [242982.0, 364934.0, 0.0], [242984.0, 364934.0, 0.0], [242984.0, 364928.0, 0.0], [242986.0, 364928.0, 0.0], [242986.0, 364924.0, 0.0], [242984.0, 364924.0, 0.0], [242984.0, 364918.0, 0.0], [242988.0, 364918.0, 0.0], [242988.0, 364916.0, 0.0], [242996.0, 364916.0, 0.0], [242996.0, 364918.0, 0.0], [242998.0, 364918.0, 0.0], [242998.0, 364920.0, 0.0], [243002.0, 364920.0, 0.0], [243002.0, 364922.0, 0.0], [243004.0, 364922.0, 0.0], [243004.0, 364924.0, 0.0], [243008.0, 364924.0, 0.0], [243008.0, 364928.0, 0.0], [243012.0, 364928.0, 0.0], [243012.0, 364930.0, 0.0], [243016.0, 364930.0, 0.0], [243016.0, 364926.0, 0.0], [243018.0, 364926.0, 0.0], [243018.0, 364922.0, 0.0], [243022.0, 364922.0, 0.0], [243022.0, 364924.0, 0.0], [243028.0, 364924.0, 0.0], [243028.0, 364922.0, 0.0], [243030.0, 364922.0, 0.0], [243030.0, 364920.0, 0.0], [243032.0, 364920.0, 0.0], [243032.0, 364922.0, 0.0], [243036.0, 364922.0, 0.0], [243036.0, 364924.0, 0.0], [243038.0, 364924.0, 0.0], [243038.0, 364926.0, 0.0], [243042.0, 364926.0, 0.0], [243042.0, 364928.0, 0.0], [243046.0, 364928.0, 0.0], [243046.0, 364930.0, 0.0], [243052.0, 364930.0, 0.0], [243052.0, 364928.0, 0.0], [243054.0, 364928.0, 0.0], [243054.0, 364924.0, 0.0], [243056.0, 364924.0, 0.0], [243056.0, 364920.0, 0.0], [243058.0, 364920.0, 0.0], [243058.0, 364916.0, 0.0], [243060.0, 364916.0, 0.0], [243060.0, 364910.0, 0.0], [243062.0, 364910.0, 0.0], [243062.0, 364906.0, 0.0], [243064.0, 364906.0, 0.0], [243064.0, 364904.0, 0.0], [243066.0, 364904.0, 0.0], [243066.0, 364898.0, 0.0], [243068.0, 364898.0, 0.0], [243068.0, 364892.0, 0.0], [243070.0, 364892.0, 0.0], [243070.0, 364888.0, 0.0], [243072.0, 364888.0, 0.0], [243072.0, 364884.0, 0.0], [243074.0, 364884.0, 0.0], [243074.0, 364882.0, 0.0], [243076.0, 364882.0, 0.0], [243076.0, 364880.0, 0.0], [243078.0, 364880.0, 0.0], [243078.0, 364878.0, 0.0], [243080.0, 364878.0, 0.0], [243080.0, 364876.0, 0.0], [243082.0, 364876.0, 0.0], [243082.0, 364870.0, 0.0], [243084.0, 364870.0, 0.0], [243084.0, 364858.0, 0.0], [243088.0, 364858.0, 0.0], [243088.0, 364856.0, 0.0], [243090.0, 364856.0, 0.0], [243090.0, 364854.0, 0.0], [243096.0, 364854.0, 0.0], [243096.0, 364856.0, 0.0], [243100.0, 364856.0, 0.0], [243100.0, 364854.0, 0.0], [243102.0, 364854.0, 0.0], [243102.0, 364852.0, 0.0], [243110.0, 364852.0, 0.0], [243110.0, 364848.0, 0.0], [243114.0, 364848.0, 0.0], [243114.0, 364846.0, 0.0], [243118.0, 364846.0, 0.0], [243118.0, 364844.0, 0.0], [243120.0, 364844.0, 0.0], [243120.0, 364838.0, 0.0], [243118.0, 364838.0, 0.0], [243118.0, 364834.0, 0.0], [243126.0, 364834.0, 0.0], [243126.0, 364828.0, 0.0], [243128.0, 364828.0, 0.0], [243128.0, 364826.0, 0.0], [243130.0, 364826.0, 0.0], [243130.0, 364824.0, 0.0], [243128.0, 364824.0, 0.0], [243128.0, 364818.0, 0.0], [243120.0, 364818.0, 0.0], [243120.0, 364816.0, 0.0], [243118.0, 364816.0, 0.0], [243118.0, 364808.0, 0.0], [243120.0, 364808.0, 0.0], [243120.0, 364806.0, 0.0], [243122.0, 364806.0, 0.0], [243122.0, 364802.0, 0.0], [243124.0, 364802.0, 0.0], [243124.0, 364794.0, 0.0], [243126.0, 364794.0, 0.0], [243126.0, 364792.0, 0.0], [243124.0, 364792.0, 0.0], [243124.0, 364790.0, 0.0], [243122.0, 364790.0, 0.0], [243122.0, 364788.0, 0.0], [243118.0, 364788.0, 0.0], [243118.0, 364786.0, 0.0], [243114.0, 364786.0, 0.0], [243114.0, 364784.0, 0.0], [243112.0, 364784.0, 0.0], [243112.0, 364782.0, 0.0], [243110.0, 364782.0, 0.0], [243110.0, 364780.0, 0.0], [243108.0, 364780.0, 0.0], [243108.0, 364778.0, 0.0], [243106.0, 364778.0, 0.0], [243106.0, 364776.0, 0.0], [243102.0, 364776.0, 0.0], [243102.0, 364774.0, 0.0], [243106.0, 364774.0, 0.0], [243106.0, 364772.0, 0.0], [243110.0, 364772.0, 0.0], [243110.0, 364764.0, 0.0], [243112.0, 364764.0, 0.0], [243112.0, 364762.0, 0.0], [243116.0, 364762.0, 0.0], [243116.0, 364760.0, 0.0], [243120.0, 364760.0, 0.0], [243120.0, 364754.0, 0.0], [243122.0, 364754.0, 0.0], [243122.0, 364752.0, 0.0], [243124.0, 364752.0, 0.0], [243124.0, 364750.0, 0.0], [243134.0, 364750.0, 0.0], [243134.0, 364752.0, 0.0], [243138.0, 364752.0, 0.0], [243138.0, 364754.0, 0.0], [243140.0, 364754.0, 0.0], [243140.0, 364758.0, 0.0], [243144.0, 364758.0, 0.0], [243144.0, 364756.0, 0.0], [243148.0, 364756.0, 0.0], [243148.0, 364754.0, 0.0], [243150.0, 364754.0, 0.0], [243150.0, 364756.0, 0.0], [243152.0, 364756.0, 0.0], [243152.0, 364758.0, 0.0], [243156.0, 364758.0, 0.0], [243156.0, 364760.0, 0.0], [243158.0, 364760.0, 0.0], [243158.0, 364762.0, 0.0], [243160.0, 364762.0, 0.0], [243160.0, 364764.0, 0.0], [243166.0, 364764.0, 0.0], [243166.0, 364768.0, 0.0], [243168.0, 364768.0, 0.0], [243168.0, 364774.0, 0.0], [243166.0, 364774.0, 0.0], [243166.0, 364784.0, 0.0], [243168.0, 364784.0, 0.0], [243168.0, 364786.0, 0.0], [243170.0, 364786.0, 0.0], [243170.0, 364788.0, 0.0], [243172.0, 364788.0, 0.0], [243172.0, 364786.0, 0.0], [243176.0, 364786.0, 0.0], [243176.0, 364784.0, 0.0], [243181.0, 364784.0, 0.0], [243181.0, 364754.0, 0.0], [243176.0, 364754.0, 0.0], [243176.0, 364752.0, 0.0], [243174.0, 364752.0, 0.0], [243174.0, 364746.0, 0.0], [243168.0, 364746.0, 0.0], [243168.0, 364744.0, 0.0], [243166.0, 364744.0, 0.0], [243166.0, 364742.0, 0.0], [243181.0, 364742.0, 0.0], [243181.0, 364711.0, 0.0], [243183.0, 364711.0, 0.0], [243185.0, 364711.0, 0.0], [243187.0, 364711.0, 0.0], [243189.0, 364711.0, 0.0], [243191.0, 364711.0, 0.0], [243193.0, 364711.0, 0.0], [243195.0, 364711.0, 0.0], [243197.0, 364711.0, 0.0], [243199.0, 364711.0, 0.0], [243201.0, 364711.0, 0.0], [243203.0, 364711.0, 0.0], [243205.0, 364709.0, 0.0], [243207.0, 364707.0, 0.0], [243209.0, 364705.0, 0.0], [243211.0, 364703.0, 0.0], [243213.0, 364703.0, 0.0], [243215.0, 364703.0, 0.0], [243217.0, 364701.0, 0.0], [243219.0, 364701.0, 0.0], [243221.0, 364701.0, 0.0], [243223.0, 364699.0, 0.0], [243225.0, 364697.0, 0.0], [243227.0, 364695.0, 0.0], [243229.0, 364693.0, 0.0], [243231.0, 364693.0, 0.0], [243233.0, 364691.0, 0.0], [243235.0, 364691.0, 0.0], [243237.0, 364689.0, 0.0], [243239.0, 364687.0, 0.0], [243241.0, 364685.0, 0.0], [243243.0, 364685.0, 0.0], [243245.0, 364685.0, 0.0], [243247.0, 364683.0, 0.0], [243249.0, 364683.0, 0.0], [243251.0, 364681.0, 0.0], [243253.0, 364679.0, 0.0], [243255.0, 364677.0, 0.0], [243257.0, 364677.0, 0.0], [243259.0, 364677.0, 0.0], [243261.0, 364675.0, 0.0], [243263.0, 364675.0, 0.0], [243265.0, 364673.0, 0.0], [243267.0, 364673.0, 0.0], [243269.0, 364671.0, 0.0], [243271.0, 364671.0, 0.0], [243273.0, 364671.0, 0.0], [243275.0, 364671.0, 0.0], [243277.0, 364671.0, 0.0], [243279.0, 364673.0, 0.0], [243281.0, 364673.0, 0.0], [243283.0, 364673.0, 0.0], [243285.0, 364673.0, 0.0], [243287.0, 364673.0, 0.0], [243289.0, 364673.0, 0.0], [243291.0, 364673.0, 0.0], [243293.0, 364673.0, 0.0], [243295.0, 364675.0, 0.0], [243297.0, 364673.0, 0.0], [243299.0, 364675.0, 0.0], [243301.0, 364675.0, 0.0], [243303.0, 364675.0, 0.0], [243305.0, 364675.0, 0.0], [243307.0, 364677.0, 0.0], [243309.0, 364677.0, 0.0], [243311.0, 364675.0, 0.0], [243313.0, 364673.0, 0.0], [243315.0, 364671.0, 0.0], [243317.0, 364673.0, 0.0], [243319.0, 364673.0, 0.0], [243321.0, 364673.0, 0.0], [243323.0, 364673.0, 0.0], [243325.0, 364673.0, 0.0], [243327.0, 364671.0, 0.0], [243329.0, 364671.0, 0.0], [243331.0, 364671.0, 0.0], [243333.0, 364669.0, 0.0], [243335.0, 364669.0, 0.0], [243337.0, 364669.0, 0.0], [243339.0, 364667.0, 0.0], [243341.0, 364665.0, 0.0], [243343.0, 364665.0, 0.0], [243345.0, 364663.0, 0.0], [243347.0, 364663.0, 0.0], [243349.0, 364661.0, 0.0], [243351.0, 364661.0, 0.0], [243353.0, 364661.0, 0.0], [243355.0, 364659.0, 0.0], [243357.0, 364659.0, 0.0], [243359.0, 364659.0, 0.0], [243361.0, 364659.0, 0.0], [243363.0, 364659.0, 0.0], [243365.0, 364659.0, 0.0], [243367.0, 364657.0, 0.0], [243369.0, 364657.0, 0.0], [243371.0, 364657.0, 0.0], [243373.0, 364655.0, 0.0], [243375.0, 364655.0, 0.0], [243377.0, 364653.0, 0.0], [243379.0, 364653.0, 0.0], [243381.0, 364653.0, 0.0], [243383.0, 364653.0, 0.0], [243385.0, 364651.0, 0.0], [243387.0, 364651.0, 0.0], [243389.0, 364651.0, 0.0], [243391.0, 364649.0, 0.0], [243393.0, 364649.0, 0.0], [243395.0, 364647.0, 0.0], [243397.0, 364645.0, 0.0], [243399.0, 364645.0, 0.0], [243401.0, 364645.0, 0.0], [243403.0, 364643.0, 0.0], [243405.0, 364643.0, 0.0], [243407.0, 364641.0, 0.0], [243409.0, 364641.0, 0.0], [243411.0, 364641.0, 0.0], [243413.0, 364643.0, 0.0], [243415.0, 364643.0, 0.0], [243417.0, 364641.0, 0.0], [243419.0, 364641.0, 0.0], [243421.0, 364639.0, 0.0], [243423.0, 364637.0, 0.0], [243425.0, 364635.0, 0.0], [243427.0, 364635.0, 0.0], [243429.0, 364633.0, 0.0], [243431.0, 364631.0, 0.0], [243433.0, 364629.0, 0.0], [243435.0, 364629.0, 0.0], [243437.0, 364629.0, 0.0], [243439.0, 364627.0, 0.0], [243441.0, 364627.0, 0.0], [243443.0, 364625.0, 0.0], [243445.0, 364623.0, 0.0], [243447.0, 364623.0, 0.0], [243449.0, 364623.0, 0.0], [243451.0, 364621.0, 0.0], [243453.0, 364619.0, 0.0], [243455.0, 364617.0, 0.0], [243457.0, 364615.0, 0.0], [243459.0, 364613.0, 0.0], [243459.0, 364611.0, 0.0], [243461.0, 364609.0, 0.0], [243463.0, 364607.0, 0.0], [243465.0, 364605.0, 0.0], [243467.0, 364603.0, 0.0], [243469.0, 364601.0, 0.0], [243471.0, 364599.0, 0.0], [243473.0, 364597.0, 0.0], [243475.0, 364597.0, 0.0], [243477.0, 364595.0, 0.0], [243479.0, 364595.0, 0.0], [243481.0, 364595.0, 0.0], [243483.0, 364595.0, 0.0], [243485.0, 364593.0, 0.0], [243485.0, 364591.0, 0.0], [243487.0, 364591.0, 0.0], [243489.0, 364591.0, 0.0], [243491.0, 364591.0, 0.0], [243493.0, 364589.0, 0.0], [243495.0, 364589.0, 0.0], [243497.0, 364587.0, 0.0], [243499.0, 364585.0, 0.0], [243501.0, 364583.0, 0.0], [243503.0, 364581.0, 0.0], [243505.0, 364579.0, 0.0], [243507.0, 364577.0, 0.0], [243509.0, 364575.0, 0.0], [243509.0, 364573.0, 0.0], [243511.0, 364571.0, 0.0], [243513.0, 364569.0, 0.0], [243515.0, 364567.0, 0.0], [243517.0, 364565.0, 0.0], [243517.0, 364563.0, 0.0], [243517.0, 364561.0, 0.0], [243519.0, 364559.0, 0.0], [243521.0, 364557.0, 0.0], [243521.0, 364555.0, 0.0], [243523.0, 364553.0, 0.0], [243525.0, 364551.0, 0.0], [243527.0, 364549.0, 0.0], [243529.0, 364549.0, 0.0], [243531.0, 364547.0, 0.0], [243533.0, 364545.0, 0.0], [243535.0, 364543.0, 0.0], [243537.0, 364541.0, 0.0], [243539.0, 364539.0, 0.0], [243541.0, 364537.0, 0.0], [243541.0, 364535.0, 0.0], [243543.0, 364533.0, 0.0], [243543.0, 364531.0, 0.0], [243543.0, 364529.0, 0.0], [243543.0, 364527.0, 0.0], [243545.0, 364527.0, 0.0], [243547.0, 364527.0, 0.0], [243549.0, 364525.0, 0.0], [243551.0, 364525.0, 0.0], [243553.0, 364523.0, 0.0], [243555.0, 364521.0, 0.0], [243557.0, 364519.0, 0.0], [243557.0, 364517.0, 0.0], [243559.0, 364517.0, 0.0], [243561.0, 364515.0, 0.0], [243563.0, 364513.0, 0.0], [243565.0, 364511.0, 0.0], [243567.0, 364509.0, 0.0], [243569.0, 364509.0, 0.0], [243571.0, 364507.0, 0.0], [243571.0, 364505.0, 0.0], [243573.0, 364503.0, 0.0], [243575.0, 364501.0, 0.0], [243577.0, 364499.0, 0.0], [243579.0, 364497.0, 0.0], [243581.0, 364495.0, 0.0], [243583.0, 364493.0, 0.0], [243583.0, 364491.0, 0.0], [243583.0, 364489.0, 0.0], [243583.0, 364487.0, 0.0], [243583.0, 364485.0, 0.0], [243585.0, 364485.0, 0.0], [243587.0, 364485.0, 0.0], [243589.0, 364483.0, 0.0], [243591.0, 364481.0, 0.0], [243591.0, 364479.0, 0.0], [243593.0, 364477.0, 0.0], [243593.0, 364475.0, 0.0], [243593.0, 364473.0, 0.0], [243593.0, 364471.0, 0.0], [243593.0, 364469.0, 0.0], [243595.0, 364469.0, 0.0], [243597.0, 364469.0, 0.0], [243599.0, 364467.0, 0.0], [243601.0, 364465.0, 0.0], [243603.0, 364463.0, 0.0], [243605.0, 364463.0, 0.0], [243607.0, 364463.0, 0.0], [243609.0, 364461.0, 0.0], [243609.0, 364459.0, 0.0], [243611.0, 364457.0, 0.0], [243613.0, 364455.0, 0.0], [243615.0, 364453.0, 0.0], [243617.0, 364451.0, 0.0], [243619.0, 364449.0, 0.0], [243621.0, 364447.0, 0.0], [243623.0, 364445.0, 0.0], [243625.0, 364443.0, 0.0], [243627.0, 364441.0, 0.0], [243627.0, 364439.0, 0.0], [243629.0, 364437.0, 0.0], [243629.0, 364435.0, 0.0], [243631.0, 364433.0, 0.0], [243631.0, 364431.0, 0.0], [243631.0, 364429.0, 0.0], [243633.0, 364427.0, 0.0], [243633.0, 364425.0, 0.0], [243635.0, 364423.0, 0.0], [243637.0, 364423.0, 0.0], [243637.0, 364421.0, 0.0], [243637.0, 364419.0, 0.0], [243637.0, 364417.0, 0.0], [243637.0, 364415.0, 0.0], [243639.0, 364413.0, 0.0], [243641.0, 364413.0, 0.0], [243643.0, 364411.0, 0.0], [243643.0, 364409.0, 0.0], [243645.0, 364407.0, 0.0], [243645.0, 364405.0, 0.0], [243647.0, 364403.0, 0.0], [243647.0, 364401.0, 0.0], [243645.0, 364399.0, 0.0], [243647.0, 364397.0, 0.0], [243647.0, 364395.0, 0.0], [243649.0, 364393.0, 0.0], [243649.0, 364391.0, 0.0], [243649.0, 364389.0, 0.0], [243649.0, 364387.0, 0.0], [243649.0, 364385.0, 0.0], [243649.0, 364383.0, 0.0], [243649.0, 364381.0, 0.0], [243651.0, 364379.0, 0.0], [243651.0, 364377.0, 0.0], [243651.0, 364375.0, 0.0], [243651.0, 364373.0, 0.0], [243649.0, 364371.0, 0.0], [243649.0, 364369.0, 0.0], [243647.0, 364367.0, 0.0], [243649.0, 364365.0, 0.0], [243649.0, 364363.0, 0.0], [243649.0, 364361.0, 0.0], [243651.0, 364359.0, 0.0], [243653.0, 364357.0, 0.0], [243655.0, 364357.0, 0.0], [243657.0, 364355.0, 0.0], [243659.0, 364353.0, 0.0], [243661.0, 364351.0, 0.0], [243661.0, 364349.0, 0.0], [243663.0, 364347.0, 0.0], [243665.0, 364345.0, 0.0], [243667.0, 364343.0, 0.0], [243667.0, 364341.0, 0.0], [243669.0, 364339.0, 0.0], [243669.0, 364338.8388298882, 0.0], [243666.9950153321, 364340.51801149524, 0.0], [243681.53622742032, 364301.5362274203, 0.0], [243681.0, 364301.0, 0.0], [243681.0, 364299.0, 0.0], [243681.0, 364297.0, 0.0], [243679.0, 364295.0, 0.0], [243679.0, 364293.0, 0.0], [243681.0, 364291.0, 0.0], [243683.0, 364289.0, 0.0], [243685.0, 364287.0, 0.0], [243685.0, 364285.0, 0.0], [243687.0, 364283.0, 0.0], [243689.0, 364281.0, 0.0], [243691.0, 364281.0, 0.0], [243693.0, 364279.0, 0.0], [243695.0, 364279.0, 0.0], [243697.0, 364279.0, 0.0], [243699.0, 364279.0, 0.0], [243701.0, 364279.0, 0.0], [243703.0, 364279.0, 0.0], [243705.0, 364279.0, 0.0], [243707.0, 364277.0, 0.0], [243709.0, 364277.0, 0.0], [243711.0, 364279.0, 0.0], [243713.0, 364281.0, 0.0], [243713.0, 364283.0, 0.0], [243713.0, 364285.0, 0.0], [243713.0, 364285.31515716447, 0.0], [243721.19533091417, 364289.734040643, 0.0], [243696.03176783226, 364192.75480001775, 0.0], [243689.16350541878, 364108.77229544387, 0.0], [243624.9308712684, 364021.2764014947, 0.0], [243600.78243452968, 364007.0017104224, 0.0], [243567.47395954636, 363950.68383843574, 0.0], [243547.77673493593, 363875.86136183393, 0.0], [243547.72586899094, 363837.2722826806, 0.0], [243570.38722601382, 363788.45401159703, 0.0], [243603.99661735207, 363761.8354843486, 0.0], [243638.36461618205, 363746.73844451713, 0.0], [243817.05568694154, 363703.64500946074, 0.0], [243843.9775890856, 363685.1629710107, 0.0], [243880.85064762333, 363625.37183682405, 0.0], [243883.85789286633, 363587.07277705317, 0.0], [243869.20916236073, 363544.1504613031, 0.0], [243879.0841838931, 363518.1418775093, 0.0], [243868.1238308776, 363488.9610457927, 0.0], [243841.0729824445, 363454.9389403315, 0.0], [243815.60838000878, 363372.33186961064, 0.0], [243855.95623335784, 363448.64106789965, 0.0], [243870.8791831962, 363460.5795049325, 0.0], [243878.02949567683, 363455.06856801995, 0.0], [243834.1709788463, 363367.38349312916, 0.0], [243807.41201439642, 363331.87118036445, 0.0], [243810.7810963506, 363272.0, 0.0], [243771.0, 363272.0, 0.0], [243643.6, 363116.0, 0.0], [243642.0, 363116.0, 0.0], [243642.0, 363120.0, 0.0], [243640.0, 363120.0, 0.0], [243640.0, 363122.0, 0.0], [243638.0, 363122.0, 0.0], [243638.0, 363126.0, 0.0], [243636.0, 363126.0, 0.0], [243636.0, 363128.0, 0.0], [243634.0, 363128.0, 0.0], [243634.0, 363130.0, 0.0], [243628.0, 363130.0, 0.0], [243628.0, 363126.0, 0.0], [243626.0, 363126.0, 0.0], [243626.0, 363124.0, 0.0], [243624.0, 363124.0, 0.0], [243624.0, 363122.0, 0.0], [243622.0, 363122.0, 0.0], [243622.0, 363118.0, 0.0], [243620.0, 363118.0, 0.0], [243620.0, 363114.0, 0.0], [243618.0, 363114.0, 0.0], [243618.0, 363110.0, 0.0], [243616.0, 363110.0, 0.0], [243616.0, 363108.0, 0.0], [243614.0, 363108.0, 0.0], [243614.0, 363104.0, 0.0], [243612.0, 363104.0, 0.0], [243612.0, 363100.0, 0.0], [243606.0, 363100.0, 0.0], [243606.0, 363098.0, 0.0], [243602.0, 363098.0, 0.0], [243602.0, 363096.0, 0.0], [243600.0, 363096.0, 0.0], [243600.0, 363092.0, 0.0], [243598.0, 363092.0, 0.0], [243598.0, 363090.0, 0.0], [243596.0, 363090.0, 0.0], [243596.0, 363088.0, 0.0], [243594.0, 363088.0, 0.0], [243594.0, 363086.0, 0.0], [243592.0, 363086.0, 0.0], [243592.0, 363076.0, 0.0], [243588.0, 363076.0, 0.0], [243588.0, 363072.0, 0.0], [243586.0, 363072.0, 0.0], [243586.0, 363068.0, 0.0], [243582.0, 363068.0, 0.0], [243582.0, 363064.0, 0.0], [243578.0, 363064.0, 0.0], [243578.0, 363062.0, 0.0], [243574.0, 363062.0, 0.0], [243574.0, 363056.0, 0.0], [243572.0, 363056.0, 0.0], [243572.0, 363054.0, 0.0], [243568.0, 363054.0, 0.0], [243568.0, 363052.0, 0.0], [243562.0, 363052.0, 0.0], [243562.0, 363054.0, 0.0], [243556.0, 363054.0, 0.0], [243556.0, 363056.0, 0.0], [243554.0, 363056.0, 0.0], [243554.0, 363052.0, 0.0], [243550.0, 363052.0, 0.0], [243550.0, 363054.0, 0.0], [243544.0, 363054.0, 0.0], [243544.0, 363056.0, 0.0], [243542.0, 363056.0, 0.0], [243542.0, 363058.0, 0.0], [243540.0, 363058.0, 0.0], [243540.0, 363060.0, 0.0], [243538.0, 363060.0, 0.0], [243538.0, 363058.0, 0.0], [243536.0, 363058.0, 0.0], [243536.0, 363054.0, 0.0], [243534.0, 363054.0, 0.0], [243534.0, 363038.0, 0.0], [243532.0, 363038.0, 0.0], [243532.0, 363036.0, 0.0], [243528.0, 363036.0, 0.0], [243528.0, 363032.0, 0.0], [243526.0, 363032.0, 0.0], [243526.0, 363028.0, 0.0], [243524.0, 363028.0, 0.0], [243524.0, 363026.0, 0.0], [243522.0, 363026.0, 0.0], [243522.0, 363022.0, 0.0], [243520.0, 363022.0, 0.0], [243520.0, 363018.0, 0.0], [243518.0, 363018.0, 0.0], [243518.0, 363014.0, 0.0], [243516.0, 363014.0, 0.0], [243516.0, 363012.0, 0.0], [243514.0, 363012.0, 0.0], [243514.0, 363008.0, 0.0], [243512.0, 363008.0, 0.0], [243512.0, 363006.0, 0.0], [243510.0, 363006.0, 0.0], [243510.0, 363004.0, 0.0], [243508.0, 363004.0, 0.0], [243508.0, 363002.0, 0.0], [243506.0, 363002.0, 0.0], [243506.0, 362998.0, 0.0], [243504.0, 362998.0, 0.0], [243504.0, 362996.0, 0.0], [243502.0, 362996.0, 0.0], [243502.0, 362992.0, 0.0], [243500.0, 362992.0, 0.0], [243500.0, 362990.0, 0.0], [243498.0, 362990.0, 0.0], [243498.0, 362988.0, 0.0], [243496.0, 362988.0, 0.0], [243496.0, 362984.0, 0.0], [243494.0, 362984.0, 0.0], [243494.0, 362982.0, 0.0], [243492.0, 362982.0, 0.0], [243492.0, 362980.0, 0.0], [243490.0, 362980.0, 0.0], [243490.0, 362978.0, 0.0], [243488.0, 362978.0, 0.0], [243488.0, 362976.0, 0.0], [243484.0, 362976.0, 0.0], [243484.0, 362974.0, 0.0], [243482.0, 362974.0, 0.0], [243482.0, 362970.0, 0.0], [243480.0, 362970.0, 0.0], [243480.0, 362968.0, 0.0], [243478.0, 362968.0, 0.0], [243478.0, 362964.0, 0.0], [243476.0, 362964.0, 0.0], [243476.0, 362960.0, 0.0], [243474.0, 362960.0, 0.0], [243474.0, 362958.0, 0.0], [243472.0, 362958.0, 0.0], [243472.0, 362956.0, 0.0], [243470.0, 362956.0, 0.0], [243470.0, 362954.0, 0.0], [243468.0, 362954.0, 0.0], [243468.0, 362952.0, 0.0], [243466.0, 362952.0, 0.0], [243466.0, 362950.0, 0.0], [243464.0, 362950.0, 0.0], [243464.0, 362948.0, 0.0], [243460.0, 362948.0, 0.0], [243460.0, 362950.0, 0.0], [243456.0, 362950.0, 0.0], [243456.0, 362952.0, 0.0], [243454.0, 362952.0, 0.0], [243454.0, 362958.0, 0.0], [243448.0, 362958.0, 0.0], [243448.0, 362960.0, 0.0], [243446.0, 362960.0, 0.0], [243446.0, 362958.0, 0.0], [243444.0, 362958.0, 0.0], [243444.0, 362956.0, 0.0], [243442.0, 362956.0, 0.0], [243442.0, 362954.0, 0.0], [243440.0, 362954.0, 0.0], [243440.0, 362950.0, 0.0], [243438.0, 362950.0, 0.0], [243438.0, 362948.0, 0.0], [243436.0, 362948.0, 0.0], [243436.0, 362946.0, 0.0], [243432.0, 362946.0, 0.0], [243432.0, 362944.0, 0.0], [243430.0, 362944.0, 0.0], [243430.0, 362942.0, 0.0], [243428.0, 362942.0, 0.0], [243428.0, 362940.0, 0.0], [243424.0, 362940.0, 0.0], [243424.0, 362938.0, 0.0], [243422.0, 362938.0, 0.0], [243422.0, 362932.0, 0.0], [243420.0, 362932.0, 0.0], [243420.0, 362924.0, 0.0], [243418.0, 362924.0, 0.0], [243418.0, 362922.0, 0.0], [243416.0, 362922.0, 0.0], [243416.0, 362914.0, 0.0], [243418.0, 362914.0, 0.0], [243418.0, 362906.0, 0.0], [243420.0, 362906.0, 0.0], [243420.0, 362904.0, 0.0], [243418.0, 362904.0, 0.0], [243418.0, 362902.0, 0.0], [243416.0, 362902.0, 0.0], [243416.0, 362900.0, 0.0], [243414.0, 362900.0, 0.0], [243414.0, 362898.0, 0.0], [243410.0, 362898.0, 0.0], [243410.0, 362896.0, 0.0], [243408.0, 362896.0, 0.0], [243408.0, 362894.0, 0.0], [243406.0, 362894.0, 0.0], [243406.0, 362892.0, 0.0], [243404.0, 362892.0, 0.0], [243404.0, 362890.0, 0.0], [243402.0, 362890.0, 0.0], [243402.0, 362888.0, 0.0], [243400.0, 362888.0, 0.0], [243400.0, 362886.0, 0.0], [243398.0, 362886.0, 0.0], [243398.0, 362884.0, 0.0], [243396.0, 362884.0, 0.0], [243396.0, 362882.0, 0.0], [243394.0, 362882.0, 0.0], [243394.0, 362880.0, 0.0], [243392.0, 362880.0, 0.0], [243392.0, 362878.0, 0.0], [243390.0, 362878.0, 0.0], [243390.0, 362876.0, 0.0], [243386.0, 362876.0, 0.0], [243386.0, 362872.0, 0.0], [243384.0, 362872.0, 0.0], [243384.0, 362870.0, 0.0], [243382.0, 362870.0, 0.0], [243382.0, 362868.0, 0.0], [243378.0, 362868.0, 0.0], [243378.0, 362866.0, 0.0], [243376.0, 362866.0, 0.0], [243376.0, 362864.0, 0.0], [243374.0, 362864.0, 0.0], [243374.0, 362862.0, 0.0], [243372.0, 362862.0, 0.0], [243372.0, 362860.0, 0.0], [243368.0, 362860.0, 0.0], [243368.0, 362858.0, 0.0], [243364.0, 362858.0, 0.0], [243364.0, 362856.0, 0.0], [243362.0, 362856.0, 0.0], [243362.0, 362854.0, 0.0], [243360.0, 362854.0, 0.0], [243360.0, 362852.0, 0.0], [243356.0, 362852.0, 0.0], [243356.0, 362850.0, 0.0], [243354.0, 362850.0, 0.0], [243354.0, 362848.0, 0.0], [243352.0, 362848.0, 0.0], [243352.0, 362846.0, 0.0], [243348.0, 362846.0, 0.0], [243348.0, 362844.0, 0.0], [243344.0, 362844.0, 0.0], [243344.0, 362842.0, 0.0], [243340.0, 362842.0, 0.0], [243340.0, 362840.0, 0.0], [243338.0, 362840.0, 0.0], [243338.0, 362838.0, 0.0], [243334.0, 362838.0, 0.0], [243334.0, 362836.0, 0.0], [243330.0, 362836.0, 0.0], [243330.0, 362834.0, 0.0], [243322.0, 362834.0, 0.0], [243322.0, 362832.0, 0.0], [243318.0, 362832.0, 0.0], [243318.0, 362830.0, 0.0], [243316.0, 362830.0, 0.0], [243316.0, 362828.0, 0.0], [243314.0, 362828.0, 0.0], [243314.0, 362826.0, 0.0], [243304.0, 362826.0, 0.0], [243304.0, 362824.0, 0.0], [243302.0, 362824.0, 0.0], [243302.0, 362826.0, 0.0], [243300.0, 362826.0, 0.0], [243300.0, 362824.0, 0.0], [243298.0, 362824.0, 0.0], [243298.0, 362822.0, 0.0], [243292.0, 362822.0, 0.0], [243292.0, 362818.0, 0.0], [243290.0, 362818.0, 0.0], [243290.0, 362816.0, 0.0], [243284.0, 362816.0, 0.0], [243284.0, 362814.0, 0.0], [243282.0, 362814.0, 0.0], [243282.0, 362812.0, 0.0], [243280.0, 362812.0, 0.0], [243280.0, 362810.0, 0.0], [243276.0, 362810.0, 0.0], [243276.0, 362808.0, 0.0], [243270.0, 362808.0, 0.0], [243270.0, 362806.0, 0.0], [243268.0, 362806.0, 0.0], [243268.0, 362804.0, 0.0], [243264.0, 362804.0, 0.0], [243264.0, 362802.0, 0.0], [243260.0, 362802.0, 0.0], [243260.0, 362800.0, 0.0], [243258.0, 362800.0, 0.0], [243258.0, 362798.0, 0.0], [243250.0, 362798.0, 0.0], [243250.0, 362796.0, 0.0], [243246.0, 362796.0, 0.0], [243246.0, 362794.0, 0.0], [243242.0, 362794.0, 0.0], [243242.0, 362792.0, 0.0], [243234.0, 362792.0, 0.0], [243234.0, 362790.0, 0.0], [243230.0, 362790.0, 0.0], [243230.0, 362788.0, 0.0], [243226.0, 362788.0, 0.0], [243226.0, 362786.0, 0.0], [243224.0, 362786.0, 0.0], [243224.0, 362784.0, 0.0], [243210.0, 362784.0, 0.0], [243210.0, 362782.0, 0.0], [243206.0, 362782.0, 0.0], [243206.0, 362780.0, 0.0], [243202.0, 362780.0, 0.0], [243202.0, 362778.0, 0.0], [243198.0, 362778.0, 0.0], [243198.0, 362776.0, 0.0], [243196.0, 362776.0, 0.0], [243196.0, 362774.0, 0.0], [243194.0, 362774.0, 0.0], [243194.0, 362772.0, 0.0], [243190.0, 362772.0, 0.0], [243190.0, 362770.0, 0.0], [243186.0, 362770.0, 0.0], [243186.0, 362768.0, 0.0], [243178.0, 362768.0, 0.0], [243178.0, 362766.0, 0.0], [243174.0, 362766.0, 0.0], [243174.0, 362764.0, 0.0], [243170.0, 362764.0, 0.0], [243170.0, 362762.0, 0.0], [243168.0, 362762.0, 0.0], [243168.0, 362760.0, 0.0], [243166.0, 362760.0, 0.0], [243166.0, 362758.0, 0.0], [243164.0, 362758.0, 0.0], [243164.0, 362756.0, 0.0], [243156.0, 362756.0, 0.0], [243156.0, 362754.0, 0.0], [243154.0, 362754.0, 0.0], [243154.0, 362752.0, 0.0], [243150.0, 362752.0, 0.0], [243150.0, 362750.0, 0.0], [243146.0, 362750.0, 0.0], [243146.0, 362748.0, 0.0], [243140.0, 362748.0, 0.0], [243140.0, 362746.0, 0.0], [243138.0, 362746.0, 0.0], [243138.0, 362744.0, 0.0], [243134.0, 362744.0, 0.0], [243134.0, 362742.0, 0.0], [243130.0, 362742.0, 0.0], [243130.0, 362738.0, 0.0], [243128.0, 362738.0, 0.0], [243128.0, 362740.0, 0.0], [243122.0, 362740.0, 0.0], [243122.0, 362738.0, 0.0], [243120.0, 362738.0, 0.0], [243120.0, 362736.0, 0.0], [243118.0, 362736.0, 0.0], [243118.0, 362734.0, 0.0], [243114.0, 362734.0, 0.0], [243114.0, 362732.0, 0.0], [243110.0, 362732.0, 0.0], [243110.0, 362730.0, 0.0], [243108.0, 362730.0, 0.0], [243108.0, 362728.0, 0.0], [243106.0, 362728.0, 0.0], [243106.0, 362726.0, 0.0], [243102.0, 362726.0, 0.0], [243102.0, 362724.0, 0.0], [243090.0, 362724.0, 0.0], [243090.0, 362722.0, 0.0], [243088.0, 362722.0, 0.0], [243088.0, 362720.0, 0.0], [243084.0, 362720.0, 0.0], [243084.0, 362718.0, 0.0], [243080.0, 362718.0, 0.0], [243080.0, 362716.0, 0.0], [243076.0, 362716.0, 0.0], [243076.0, 362714.0, 0.0], [243074.0, 362714.0, 0.0], [243074.0, 362712.0, 0.0], [243070.0, 362712.0, 0.0], [243070.0, 362710.0, 0.0], [243068.0, 362710.0, 0.0], [243068.0, 362708.0, 0.0], [243066.0, 362708.0, 0.0], [243066.0, 362706.0, 0.0], [243062.0, 362706.0, 0.0], [243062.0, 362704.0, 0.0], [243060.0, 362704.0, 0.0], [243060.0, 362700.0, 0.0], [243054.0, 362700.0, 0.0], [243054.0, 362698.0, 0.0], [243052.0, 362698.0, 0.0], [243052.0, 362696.0, 0.0], [243048.0, 362696.0, 0.0], [243048.0, 362694.0, 0.0], [243046.0, 362694.0, 0.0], [243046.0, 362692.0, 0.0], [243044.0, 362692.0, 0.0], [243044.0, 362688.0, 0.0], [243040.0, 362688.0, 0.0], [243040.0, 362686.0, 0.0], [243034.0, 362686.0, 0.0], [243034.0, 362684.0, 0.0], [243032.0, 362684.0, 0.0], [243032.0, 362682.0, 0.0], [243030.0, 362682.0, 0.0], [243030.0, 362680.0, 0.0], [243026.0, 362680.0, 0.0], [243026.0, 362678.0, 0.0], [243022.0, 362678.0, 0.0], [243022.0, 362676.0, 0.0], [243020.0, 362676.0, 0.0], [243020.0, 362672.0, 0.0], [243018.0, 362672.0, 0.0], [243018.0, 362670.0, 0.0], [243016.0, 362670.0, 0.0], [243016.0, 362668.0, 0.0], [243012.0, 362668.0, 0.0], [243012.0, 362664.0, 0.0], [243010.0, 362664.0, 0.0], [243010.0, 362662.0, 0.0], [243006.0, 362662.0, 0.0], [243006.0, 362660.0, 0.0], [243004.0, 362660.0, 0.0], [243004.0, 362656.0, 0.0], [243002.0, 362656.0, 0.0], [243002.0, 362654.0, 0.0], [243000.0, 362654.0, 0.0], [243000.0, 362652.0, 0.0], [242998.0, 362652.0, 0.0], [242998.0, 362648.0, 0.0], [242996.0, 362648.0, 0.0], [242996.0, 362644.0, 0.0], [242994.0, 362644.0, 0.0], [242994.0, 362640.0, 0.0], [242992.0, 362640.0, 0.0], [242992.0, 362638.0, 0.0], [242990.0, 362638.0, 0.0], [242990.0, 362636.0, 0.0], [242984.0, 362636.0, 0.0], [242984.0, 362632.0, 0.0], [242980.0, 362632.0, 0.0], [242980.0, 362630.0, 0.0], [242978.0, 362630.0, 0.0], [242978.0, 362628.0, 0.0], [242976.0, 362628.0, 0.0], [242976.0, 362626.0, 0.0], [242974.0, 362626.0, 0.0], [242974.0, 362624.0, 0.0], [242972.0, 362624.0, 0.0], [242972.0, 362622.0, 0.0], [242970.0, 362622.0, 0.0], [242970.0, 362620.0, 0.0], [242968.0, 362620.0, 0.0], [242968.0, 362616.0, 0.0], [242966.0, 362616.0, 0.0], [242966.0, 362614.0, 0.0], [242964.0, 362614.0, 0.0], [242964.0, 362612.0, 0.0], [242962.0, 362612.0, 0.0], [242962.0, 362610.0, 0.0], [242960.0, 362610.0, 0.0], [242960.0, 362608.0, 0.0], [242958.0, 362608.0, 0.0], [242958.0, 362606.0, 0.0], [242956.0, 362606.0, 0.0], [242956.0, 362604.0, 0.0], [242954.0, 362604.0, 0.0], [242954.0, 362602.0, 0.0], [242952.0, 362602.0, 0.0], [242952.0, 362600.0, 0.0], [242950.0, 362600.0, 0.0], [242950.0, 362598.0, 0.0], [242948.0, 362598.0, 0.0], [242948.0, 362594.0, 0.0], [242944.0, 362594.0, 0.0], [242944.0, 362592.0, 0.0], [242938.0, 362592.0, 0.0], [242938.0, 362588.0, 0.0], [242936.0, 362588.0, 0.0], [242936.0, 362586.0, 0.0], [242934.0, 362586.0, 0.0], [242934.0, 362584.0, 0.0], [242930.0, 362584.0, 0.0], [242930.0, 362582.0, 0.0], [242926.0, 362582.0, 0.0], [242926.0, 362580.0, 0.0], [242924.0, 362580.0, 0.0], [242924.0, 362578.0, 0.0], [242922.0, 362578.0, 0.0], [242922.0, 362576.0, 0.0], [242920.0, 362576.0, 0.0], [242920.0, 362570.0, 0.0], [242918.0, 362570.0, 0.0], [242918.0, 362568.0, 0.0], [242916.0, 362568.0, 0.0], [242916.0, 362566.0, 0.0], [242914.0, 362566.0, 0.0], [242914.0, 362562.0, 0.0], [242910.0, 362562.0, 0.0], [242910.0, 362560.0, 0.0], [242908.0, 362560.0, 0.0], [242908.0, 362558.0, 0.0], [242906.0, 362558.0, 0.0], [242906.0, 362556.0, 0.0], [242904.0, 362556.0, 0.0], [242904.0, 362554.0, 0.0], [242902.0, 362554.0, 0.0], [242902.0, 362552.15466666664, 0.0], [242901.7972027972, 362552.0, 0.0], [242900.0, 362552.0, 0.0], [242900.0, 362554.0, 0.0], [242896.0, 362554.0, 0.0], [242896.0, 362552.0, 0.0], [242894.0, 362552.0, 0.0], [242894.0, 362550.0, 0.0], [242890.0, 362550.0, 0.0], [242890.0, 362548.0, 0.0], [242888.0, 362548.0, 0.0], [242888.0, 362546.0, 0.0], [242886.0, 362546.0, 0.0], [242886.0, 362540.0, 0.0], [242886.06293706293, 362540.0, 0.0], [242574.0, 362302.0, 0.0], [242295.0, 362076.0, 0.0], [242295.0, 361978.68782212463, 0.0], [242225.7179105337, 362010.7889355165, 0.0], [242077.28595044042, 362105.60517559136, 0.0], [241972.13674352062, 362185.60218643205, 0.0], [241654.95393848527, 362448.21254393185, 0.0], [241284.19175390413, 362793.7143355147, 0.0], [240910.05679212164, 363104.85447184043, 0.0], [240757.8434437219, 363190.5210812976, 0.0], [240553.30997264944, 363290.5073349443, 0.0], [240442.21681422772, 363323.6735481807, 0.0], [240342.0, 363367.346860079, 0.0], [240342.0, 363374.0, 0.0], [240344.0, 363374.0, 0.0], [240344.0, 363378.0, 0.0], [240346.0, 363378.0, 0.0], [240346.0, 363380.0, 0.0], [240348.0, 363380.0, 0.0], [240348.0, 363382.0, 0.0], [240350.0, 363382.0, 0.0], [240350.0, 363384.0, 0.0], [240352.0, 363384.0, 0.0], [240352.0, 363388.0, 0.0], [240354.0, 363388.0, 0.0], [240354.0, 363390.0, 0.0], [240356.0, 363390.0, 0.0], [240356.0, 363392.0, 0.0], [240358.0, 363392.0, 0.0], [240358.0, 363398.0, 0.0], [240360.0, 363398.0, 0.0], [240360.0, 363404.0, 0.0], [240362.0, 363404.0, 0.0], [240362.0, 363408.0, 0.0], [240364.0, 363408.0, 0.0], [240364.0, 363412.0, 0.0], [240356.0, 363412.0, 0.0], [240356.0, 363414.0, 0.0], [240354.0, 363414.0, 0.0], [240354.0, 363418.0, 0.0], [240352.0, 363418.0, 0.0], [240352.0, 363420.0, 0.0], [240350.0, 363420.0, 0.0], [240350.0, 363422.0, 0.0], [240348.0, 363422.0, 0.0], [240348.0, 363426.0, 0.0], [240344.0, 363426.0, 0.0], [240344.0, 363430.0, 0.0], [240342.0, 363430.0, 0.0], [240342.0, 363432.0, 0.0], [240348.0, 363432.0, 0.0], [240348.0, 363434.0, 0.0], [240352.0, 363434.0, 0.0], [240352.0, 363436.0, 0.0], [240354.0, 363436.0, 0.0], [240354.0, 363444.0, 0.0], [240352.0, 363444.0, 0.0], [240352.0, 363446.0, 0.0], [240350.0, 363446.0, 0.0], [240350.0, 363448.0, 0.0], [240348.0, 363448.0, 0.0], [240348.0, 363450.0, 0.0], [240352.0, 363450.0, 0.0], [240352.0, 363456.0, 0.0], [240350.0, 363456.0, 0.0], [240350.0, 363460.0, 0.0], [240352.0, 363460.0, 0.0], [240352.0, 363470.0, 0.0], [240350.0, 363470.0, 0.0], [240350.0, 363472.0, 0.0], [240348.0, 363472.0, 0.0], [240348.0, 363474.0, 0.0], [240344.0, 363474.0, 0.0], [240344.0, 363476.0, 0.0], [240342.0, 363476.0, 0.0], [240342.0, 363474.0, 0.0], [240340.0, 363474.0, 0.0], [240340.0, 363472.0, 0.0], [240334.0, 363472.0, 0.0], [240334.0, 363480.0, 0.0], [240330.0, 363480.0, 0.0], [240330.0, 363478.0, 0.0], [240324.0, 363478.0, 0.0], [240324.0, 363476.0, 0.0], [240322.0, 363476.0, 0.0], [240322.0, 363474.0, 0.0], [240320.0, 363474.0, 0.0], [240320.0, 363472.0, 0.0], [240318.0, 363472.0, 0.0], [240318.0, 363468.0, 0.0], [240316.0, 363468.0, 0.0], [240316.0, 363466.0, 0.0], [240314.0, 363466.0, 0.0], [240314.0, 363464.0, 0.0], [240308.0, 363464.0, 0.0], [240308.0, 363462.0, 0.0], [240302.0, 363462.0, 0.0], [240302.0, 363460.0, 0.0], [240300.0, 363460.0, 0.0], [240300.0, 363456.0, 0.0], [240292.0, 363456.0, 0.0], [240292.0, 363454.0, 0.0], [240280.0, 363454.0, 0.0], [240280.0, 363452.0, 0.0], [240278.0, 363452.0, 0.0], [240278.0, 363454.0, 0.0], [240270.0, 363454.0, 0.0], [240270.0, 363456.0, 0.0], [240266.0, 363456.0, 0.0], [240266.0, 363458.0, 0.0], [240264.0, 363458.0, 0.0], [240264.0, 363460.0, 0.0], [240266.0, 363460.0, 0.0], [240266.0, 363462.0, 0.0], [240268.0, 363462.0, 0.0], [240268.0, 363466.0, 0.0], [240270.0, 363466.0, 0.0], [240270.0, 363472.0, 0.0], [240272.0, 363472.0, 0.0], [240272.0, 363474.0, 0.0], [240270.0, 363474.0, 0.0], [240270.0, 363476.0, 0.0], [240268.0, 363476.0, 0.0], [240268.0, 363478.0, 0.0], [240270.0, 363478.0, 0.0], [240270.0, 363482.0, 0.0], [240272.0, 363482.0, 0.0], [240272.0, 363486.0, 0.0], [240274.0, 363486.0, 0.0], [240274.0, 363496.0, 0.0], [240272.0, 363496.0, 0.0], [240272.0, 363498.0, 0.0], [240270.0, 363498.0, 0.0], [240270.0, 363504.0, 0.0], [240264.0, 363504.0, 0.0], [240264.0, 363512.0, 0.0], [240256.0, 363512.0, 0.0], [240256.0, 363510.0, 0.0], [240250.0, 363510.0, 0.0], [240250.0, 363508.0, 0.0], [240248.0, 363508.0, 0.0], [240248.0, 363506.0, 0.0], [240246.0, 363506.0, 0.0], [240246.0, 363504.0, 0.0], [240242.0, 363504.0, 0.0], [240242.0, 363502.0, 0.0], [240238.0, 363502.0, 0.0], [240238.0, 363500.0, 0.0], [240230.0, 363500.0, 0.0], [240230.0, 363498.0, 0.0], [240220.0, 363498.0, 0.0], [240220.0, 363500.0, 0.0], [240222.0, 363500.0, 0.0], [240222.0, 363514.0, 0.0], [240224.0, 363514.0, 0.0], [240224.0, 363518.0, 0.0], [240226.0, 363518.0, 0.0], [240226.0, 363524.0, 0.0], [240224.0, 363524.0, 0.0], [240224.0, 363544.0, 0.0], [240226.0, 363544.0, 0.0], [240226.0, 363550.0, 0.0], [240228.0, 363550.0, 0.0], [240228.0, 363554.0, 0.0], [240232.0, 363554.0, 0.0], [240232.0, 363556.0, 0.0], [240230.0, 363556.0, 0.0], [240230.0, 363562.0, 0.0], [240224.0, 363562.0, 0.0], [240224.0, 363560.0, 0.0], [240222.0, 363560.0, 0.0], [240222.0, 363562.0, 0.0], [240220.0, 363562.0, 0.0], [240220.0, 363560.0, 0.0], [240212.0, 363560.0, 0.0], [240212.0, 363558.0, 0.0], [240208.0, 363558.0, 0.0], [240208.0, 363552.0, 0.0], [240206.0, 363552.0, 0.0], [240206.0, 363546.0, 0.0], [240204.0, 363546.0, 0.0], [240204.0, 363542.0, 0.0], [240202.0, 363542.0, 0.0], [240202.0, 363540.0, 0.0], [240200.0, 363540.0, 0.0], [240200.0, 363501.86118427955, 0.0], [240133.6087344472, 363528.0, 0.0], [240132.0, 363528.0, 0.0], [240132.0, 363526.0, 0.0], [240130.0, 363526.0, 0.0], [240130.0, 363524.0, 0.0], [240128.0, 363524.0, 0.0], [240128.0, 363522.0, 0.0], [240126.0, 363522.0, 0.0], [240126.0, 363520.0, 0.0], [240124.0, 363520.0, 0.0], [240124.0, 363518.0, 0.0], [240122.0, 363518.0, 0.0], [240122.0, 363516.0, 0.0], [240114.0, 363516.0, 0.0], [240114.0, 363512.0, 0.0], [240106.0, 363512.0, 0.0], [240106.0, 363510.0, 0.0], [240098.0, 363510.0, 0.0], [240098.0, 363512.0, 0.0], [240094.0, 363512.0, 0.0], [240094.0, 363514.0, 0.0], [240092.0, 363514.0, 0.0], [240092.0, 363516.0, 0.0], [240094.0, 363516.0, 0.0], [240094.0, 363518.0, 0.0], [240096.0, 363518.0, 0.0], [240096.0, 363520.0, 0.0], [240098.0, 363520.0, 0.0], [240098.0, 363524.0, 0.0], [240104.0, 363524.0, 0.0], [240104.0, 363526.0, 0.0], [240106.0, 363526.0, 0.0], [240106.0, 363528.0, 0.0], [240108.0, 363528.0, 0.0], [240108.0, 363532.0, 0.0], [240112.0, 363532.0, 0.0], [240112.0, 363534.0, 0.0], [240114.0, 363534.0, 0.0], [240114.0, 363534.6539017178, 0.0], [239543.33960300256, 363644.8445119801, 0.0], [239778.92234770293, 363930.24846478074, 0.0], [239995.41153002114, 364310.6768087791, 0.0], [240162.9336795379, 364463.97072155995, 0.0], [240200.0, 364486.73747054796, 0.0], [240200.0, 364406.0, 0.0], [240202.0, 364406.0, 0.0], [240202.0, 364408.0, 0.0], [240204.0, 364408.0, 0.0], [240204.0, 364414.0, 0.0], [240206.0, 364414.0, 0.0], [240206.0, 364416.0, 0.0], [240208.0, 364416.0, 0.0], [240208.0, 364418.0, 0.0], [240210.0, 364418.0, 0.0], [240210.0, 364420.0, 0.0], [240212.0, 364420.0, 0.0], [240212.0, 364422.0, 0.0], [240214.0, 364422.0, 0.0], [240214.0, 364424.0, 0.0], [240216.0, 364424.0, 0.0], [240216.0, 364426.0, 0.0], [240220.0, 364426.0, 0.0], [240220.0, 364428.0, 0.0], [240222.0, 364428.0, 0.0], [240222.0, 364432.0, 0.0], [240224.0, 364432.0, 0.0], [240224.0, 364434.0, 0.0], [240226.0, 364434.0, 0.0], [240226.0, 364440.0, 0.0], [240228.0, 364440.0, 0.0], [240228.0, 364442.0, 0.0], [240230.0, 364442.0, 0.0], [240230.0, 364444.0, 0.0], [240232.0, 364444.0, 0.0], [240232.0, 364446.0, 0.0], [240234.0, 364446.0, 0.0], [240234.0, 364450.0, 0.0], [240236.0, 364450.0, 0.0], [240236.0, 364452.0, 0.0], [240240.0, 364452.0, 0.0], [240240.0, 364454.0, 0.0], [240244.0, 364454.0, 0.0], [240244.0, 364456.0, 0.0], [240246.0, 364456.0, 0.0], [240246.0, 364454.0, 0.0], [240248.0, 364454.0, 0.0], [240248.0, 364452.0, 0.0], [240254.0, 364452.0, 0.0], [240254.0, 364454.0, 0.0], [240256.0, 364454.0, 0.0], [240256.0, 364456.0, 0.0], [240258.0, 364456.0, 0.0], [240258.0, 364460.0, 0.0], [240260.0, 364460.0, 0.0], [240260.0, 364466.0, 0.0], [240262.0, 364466.0, 0.0], [240262.0, 364474.0, 0.0], [240268.0, 364474.0, 0.0], [240268.0, 364476.0, 0.0], [240274.0, 364476.0, 0.0], [240274.0, 364482.0, 0.0], [240278.0, 364482.0, 0.0], [240278.0, 364488.0, 0.0], [240280.0, 364488.0, 0.0], [240280.0, 364492.0, 0.0], [240282.0, 364492.0, 0.0], [240282.0, 364496.0, 0.0], [240284.0, 364496.0, 0.0], [240284.0, 364498.0, 0.0], [240286.0, 364498.0, 0.0], [240286.0, 364504.0, 0.0], [240288.0, 364504.0, 0.0], [240288.0, 364506.0, 0.0], [240292.0, 364506.0, 0.0], [240292.0, 364504.0, 0.0], [240302.0, 364504.0, 0.0], [240302.0, 364506.0, 0.0], [240316.0, 364506.0, 0.0], [240316.0, 364498.0, 0.0], [240314.0, 364498.0, 0.0], [240314.0, 364488.0, 0.0], [240312.0, 364488.0, 0.0], [240312.0, 364474.0, 0.0], [240316.0, 364474.0, 0.0], [240316.0, 364476.0, 0.0], [240322.0, 364476.0, 0.0], [240322.0, 364478.0, 0.0], [240330.0, 364478.0, 0.0], [240330.0, 364480.0, 0.0], [240332.0, 364480.0, 0.0], [240332.0, 364482.0, 0.0], [240336.0, 364482.0, 0.0], [240336.0, 364480.0, 0.0], [240342.0, 364480.0, 0.0], [240342.0, 364484.0, 0.0], [240356.0, 364484.0, 0.0], [240356.0, 364490.0, 0.0], [240358.0, 364490.0, 0.0], [240358.0, 364492.0, 0.0], [240360.0, 364492.0, 0.0], [240360.0, 364506.0, 0.0], [240362.0, 364506.0, 0.0], [240362.0, 364512.0, 0.0], [240364.0, 364512.0, 0.0], [240364.0, 364516.0, 0.0], [240366.0, 364516.0, 0.0], [240366.0, 364520.0, 0.0], [240368.0, 364520.0, 0.0], [240368.0, 364524.0, 0.0], [240372.0, 364524.0, 0.0], [240372.0, 364526.0, 0.0], [240374.0, 364526.0, 0.0], [240374.0, 364524.0, 0.0], [240376.0, 364524.0, 0.0], [240376.0, 364526.0, 0.0], [240378.0, 364526.0, 0.0], [240378.0, 364530.0, 0.0], [240380.0, 364530.0, 0.0], [240380.0, 364532.0, 0.0], [240382.0, 364532.0, 0.0], [240382.0, 364534.0, 0.0], [240384.0, 364534.0, 0.0], [240384.0, 364536.0, 0.0], [240388.0, 364536.0, 0.0], [240388.0, 364540.0, 0.0], [240390.0, 364540.0, 0.0], [240390.0, 364542.0, 0.0], [240392.0, 364542.0, 0.0], [240392.0, 364544.0, 0.0], [240394.0, 364544.0, 0.0], [240394.0, 364546.0, 0.0], [240396.0, 364546.0, 0.0], [240396.0, 364548.0, 0.0], [240398.0, 364548.0, 0.0], [240398.0, 364550.0, 0.0], [240400.0, 364550.0, 0.0], [240400.0, 364556.0, 0.0], [240398.0, 364556.0, 0.0], [240398.0, 364558.0, 0.0], [240396.0, 364558.0, 0.0], [240396.0, 364564.0, 0.0], [240398.0, 364564.0, 0.0], [240398.0, 364568.0, 0.0], [240400.0, 364568.0, 0.0], [240400.0, 364570.0, 0.0], [240408.0, 364570.0, 0.0], [240408.0, 364572.0, 0.0], [240410.0, 364572.0, 0.0], [240410.0, 364574.0, 0.0], [240412.0, 364574.0, 0.0], [240412.0, 364576.0, 0.0], [240414.0, 364576.0, 0.0], [240414.0, 364580.0, 0.0], [240416.0, 364580.0, 0.0], [240416.0, 364584.0, 0.0], [240414.0, 364584.0, 0.0], [240414.0, 364590.0, 0.0], [240416.0, 364590.0, 0.0], [240416.0, 364592.0, 0.0], [240422.0, 364592.0, 0.0], [240422.0, 364596.0, 0.0], [240420.0, 364596.0, 0.0], [240420.0, 364606.0, 0.0], [240422.0, 364606.0, 0.0], [240422.0, 364610.0, 0.0], [240424.0, 364610.0, 0.0], [240424.0, 364612.0, 0.0], [240426.0, 364612.0, 0.0], [240426.0, 364614.0, 0.0], [240434.0, 364614.0, 0.0], [240434.0, 364616.0, 0.0], [240432.0, 364616.0, 0.0], [240432.0, 364620.0, 0.0], [240430.0, 364620.0, 0.0], [240430.0, 364622.0, 0.0], [240428.0, 364622.0, 0.0], [240428.0, 364628.0, 0.0], [240430.0, 364628.0, 0.0], [240430.0, 364630.0, 0.0], [240434.0, 364630.0, 0.0], [240434.0, 364632.0, 0.0], [240438.0, 364632.0, 0.0], [240438.0, 364634.0, 0.0], [240440.0, 364634.0, 0.0], [240440.0, 364644.0, 0.0], [240438.0, 364644.0, 0.0], [240438.0, 364646.0, 0.0], [240440.0, 364646.0, 0.0], [240440.0, 364648.0, 0.0], [240442.0, 364648.0, 0.0], [240442.0, 364650.0, 0.0], [240444.0, 364650.0, 0.0], [240444.0, 364652.0, 0.0], [240442.0, 364652.0, 0.0], [240442.0, 364658.0, 0.0], [240440.0, 364658.0, 0.0], [240440.0, 364666.0, 0.0], [240438.0, 364666.0, 0.0], [240438.0, 364670.0, 0.0], [240436.0, 364670.0, 0.0], [240436.0, 364676.0, 0.0], [240438.0, 364676.0, 0.0], [240438.0, 364674.0, 0.0], [240442.0, 364674.0, 0.0], [240442.0, 364676.0, 0.0], [240444.0, 364676.0, 0.0], [240444.0, 364680.0, 0.0], [240448.0, 364680.0, 0.0], [240448.0, 364684.0, 0.0], [240450.0, 364684.0, 0.0], [240450.0, 364690.0, 0.0], [240452.0, 364690.0, 0.0], [240452.0, 364694.0, 0.0], [240450.0, 364694.0, 0.0], [240450.0, 364698.0, 0.0], [240456.0, 364698.0, 0.0], [240456.0, 364700.0, 0.0], [240458.0, 364700.0, 0.0], [240458.0, 364702.0, 0.0], [240462.0, 364702.0, 0.0], [240462.0, 364704.0, 0.0], [240464.0, 364704.0, 0.0], [240464.0, 364702.0, 0.0], [240468.0, 364702.0, 0.0], [240468.0, 364704.0, 0.0], [240482.0, 364704.0, 0.0], [240482.0, 364706.0, 0.0], [240484.0, 364706.0, 0.0], [240484.0, 364708.0, 0.0], [240496.0, 364708.0, 0.0], [240496.0, 364716.0, 0.0], [240500.0, 364716.0, 0.0], [240500.0, 364718.0, 0.0], [240502.0, 364718.0, 0.0], [240502.0, 364720.0, 0.0], [240504.0, 364720.0, 0.0], [240504.0, 364726.0, 0.0], [240500.0, 364726.0, 0.0], [240500.0, 364734.0, 0.0], [240502.0, 364734.0, 0.0], [240502.0, 364742.0, 0.0], [240506.0, 364742.0, 0.0], [240506.0, 364744.0, 0.0], [240508.0, 364744.0, 0.0], [240508.0, 364746.0, 0.0], [240510.0, 364746.0, 0.0], [240510.0, 364748.0, 0.0], [240520.0, 364748.0, 0.0], [240520.0, 364752.0, 0.0], [240522.0, 364752.0, 0.0], [240522.0, 364754.0, 0.0], [240524.0, 364754.0, 0.0], [240524.0, 364756.0, 0.0], [240530.0, 364756.0, 0.0], [240530.0, 364758.0, 0.0], [240528.0, 364758.0, 0.0], [240528.0, 364768.0, 0.0], [240526.0, 364768.0, 0.0], [240526.0, 364774.0, 0.0], [240524.0, 364774.0, 0.0], [240524.0, 364776.0, 0.0], [240526.0, 364776.0, 0.0], [240526.0, 364782.0, 0.0], [240532.0, 364782.0, 0.0], [240532.0, 364784.0, 0.0], [240536.0, 364784.0, 0.0], [240536.0, 364792.0, 0.0], [240540.0, 364792.0, 0.0], [240540.0, 364798.0, 0.0], [240544.0, 364798.0, 0.0], [240544.0, 364800.0, 0.0], [240546.0, 364800.0, 0.0], [240546.0, 364802.0, 0.0], [240548.0, 364802.0, 0.0], [240548.0, 364804.0, 0.0], [240556.0, 364804.0, 0.0], [240556.0, 364816.0, 0.0], [240558.0, 364816.0, 0.0], [240558.0, 364820.0, 0.0], [240560.0, 364820.0, 0.0], [240560.0, 364822.0, 0.0], [240562.0, 364822.0, 0.0], [240562.0, 364826.0, 0.0], [240564.0, 364826.0, 0.0], [240564.0, 364828.0, 0.0], [240568.0, 364828.0, 0.0], [240568.0, 364832.0, 0.0], [240572.0, 364832.0, 0.0], [240572.0, 364834.0, 0.0], [240574.0, 364834.0, 0.0], [240574.0, 364836.0, 0.0], [240576.0, 364836.0, 0.0], [240576.0, 364840.0, 0.0], [240578.0, 364840.0, 0.0], [240578.0, 364844.0, 0.0], [240584.0, 364844.0, 0.0], [240584.0, 364842.0, 0.0], [240590.0, 364842.0, 0.0], [240590.0, 364840.0, 0.0], [240606.0, 364840.0, 0.0], [240606.0, 364838.0, 0.0], [240610.0, 364838.0, 0.0], [240610.0, 364836.0, 0.0], [240612.0, 364836.0, 0.0], [240612.0, 364838.0, 0.0], [240614.0, 364838.0, 0.0], [240614.0, 364840.0, 0.0], [240616.0, 364840.0, 0.0], [240616.0, 364842.0, 0.0], [240618.0, 364842.0, 0.0], [240618.0, 364844.0, 0.0], [240624.0, 364844.0, 0.0], [240624.0, 364852.0, 0.0], [240622.0, 364852.0, 0.0], [240622.0, 364858.0, 0.0], [240624.0, 364858.0, 0.0], [240624.0, 364870.0, 0.0], [240622.0, 364870.0, 0.0], [240622.0, 364876.0, 0.0], [240636.0, 364876.0, 0.0], [240636.0, 364878.0, 0.0], [240642.0, 364878.0, 0.0], [240642.0, 364880.0, 0.0], [240644.0, 364880.0, 0.0], [240644.0, 364882.0, 0.0], [240648.0, 364882.0, 0.0], [240648.0, 364890.0, 0.0], [240654.0, 364890.0, 0.0], [240654.0, 364892.0, 0.0], [240656.0, 364892.0, 0.0], [240656.0, 364890.0, 0.0], [240658.0, 364890.0, 0.0], [240658.0, 364882.0, 0.0], [240656.0, 364882.0, 0.0], [240656.0, 364878.0, 0.0], [240658.0, 364878.0, 0.0], [240658.0, 364874.0, 0.0], [240656.0, 364874.0, 0.0], [240656.0, 364866.0, 0.0], [240658.0, 364866.0, 0.0], [240658.0, 364864.0, 0.0], [240660.0, 364864.0, 0.0], [240660.0, 364862.0, 0.0], [240658.0, 364862.0, 0.0], [240658.0, 364854.0, 0.0], [240660.0, 364854.0, 0.0], [240660.0, 364850.0, 0.0], [240664.0, 364850.0, 0.0], [240664.0, 364846.0, 0.0], [240672.0, 364846.0, 0.0], [240672.0, 364844.0, 0.0], [240678.0, 364844.0, 0.0], [240678.0, 364840.0, 0.0], [240680.0, 364840.0, 0.0], [240680.0, 364838.0, 0.0], [240688.0, 364838.0, 0.0], [240688.0, 364836.0, 0.0], [240692.0, 364836.0, 0.0], [240692.0, 364834.0, 0.0], [240694.0, 364834.0, 0.0], [240694.0, 364838.0, 0.0], [240696.0, 364838.0, 0.0], [240696.0, 364844.0, 0.0], [240694.0, 364844.0, 0.0], [240694.0, 364848.0, 0.0], [240692.0, 364848.0, 0.0], [240692.0, 364856.0, 0.0], [240700.0, 364856.0, 0.0], [240700.0, 364862.0, 0.0], [240702.0, 364862.0, 0.0], [240702.0, 364864.0, 0.0], [240712.0, 364864.0, 0.0], [240712.0, 364866.0, 0.0], [240716.0, 364866.0, 0.0], [240716.0, 364870.0, 0.0], [240714.0, 364870.0, 0.0], [240714.0, 364872.0, 0.0], [240710.0, 364872.0, 0.0], [240710.0, 364884.0, 0.0], [240706.0, 364884.0, 0.0], [240706.0, 364886.0, 0.0], [240704.0, 364886.0, 0.0], [240704.0, 364890.0, 0.0], [240702.0, 364890.0, 0.0], [240702.0, 364892.0, 0.0], [240700.0, 364892.0, 0.0], [240700.0, 364900.0, 0.0], [240702.0, 364900.0, 0.0], [240702.0, 364904.0, 0.0], [240708.0, 364904.0, 0.0], [240708.0, 364910.0, 0.0], [240722.0, 364910.0, 0.0], [240722.0, 364908.0, 0.0], [240724.0, 364908.0, 0.0], [240724.0, 364910.0, 0.0], [240728.0, 364910.0, 0.0], [240728.0, 364912.0, 0.0], [240730.0, 364912.0, 0.0], [240730.0, 364914.0, 0.0], [240742.0, 364914.0, 0.0], [240742.0, 364916.0, 0.0], [240752.0, 364916.0, 0.0], [240752.0, 364922.0, 0.0], [240750.0, 364922.0, 0.0], [240750.0, 364926.0, 0.0], [240754.0, 364926.0, 0.0], [240754.0, 364930.0, 0.0], [240756.0, 364930.0, 0.0], [240756.0, 364932.0, 0.0], [240762.0, 364932.0, 0.0], [240762.0, 364934.0, 0.0], [240764.0, 364934.0, 0.0], [240764.0, 364940.0, 0.0], [240762.0, 364940.0, 0.0], [240762.0, 364942.0, 0.0], [240760.0, 364942.0, 0.0], [240760.0, 364944.0, 0.0], [240764.0, 364944.0, 0.0], [240764.0, 364946.0, 0.0], [240768.0, 364946.0, 0.0], [240768.0, 364944.0, 0.0], [240776.0, 364944.0, 0.0], [240776.0, 364940.0, 0.0], [240778.0, 364940.0, 0.0], [240778.0, 364938.0, 0.0], [240784.0, 364938.0, 0.0], [240784.0, 364934.0, 0.0], [240788.0, 364934.0, 0.0], [240788.0, 364936.0, 0.0], [240790.0, 364936.0, 0.0], [240790.0, 364938.0, 0.0], [240792.0, 364938.0, 0.0], [240792.0, 364940.0, 0.0], [240800.0, 364940.0, 0.0], [240800.0, 364942.0, 0.0], [240806.0, 364942.0, 0.0], [240806.0, 364938.0, 0.0], [240810.0, 364938.0, 0.0], [240810.0, 364936.0, 0.0], [240814.0, 364936.0, 0.0], [240814.0, 364934.0, 0.0], [240816.0, 364934.0, 0.0], [240816.0, 364932.0, 0.0], [240820.0, 364932.0, 0.0], [240820.0, 364930.0, 0.0], [240822.0, 364930.0, 0.0], [240822.0, 364928.0, 0.0], [240824.0, 364928.0, 0.0], [240824.0, 364932.0, 0.0], [240826.0, 364932.0, 0.0], [240826.0, 364940.0, 0.0], [240824.0, 364940.0, 0.0], [240824.0, 364946.0, 0.0], [240822.0, 364946.0, 0.0], [240822.0, 364948.0, 0.0], [240820.0, 364948.0, 0.0], [240820.0, 364950.0, 0.0], [240818.0, 364950.0, 0.0], [240818.0, 364958.0, 0.0], [240820.0, 364958.0, 0.0], [240820.0, 364962.0, 0.0], [240824.0, 364962.0, 0.0], [240824.0, 364964.0, 0.0], [240828.0, 364964.0, 0.0], [240828.0, 364976.0, 0.0], [240830.0, 364976.0, 0.0], [240830.0, 364978.0, 0.0], [240832.0, 364978.0, 0.0], [240832.0, 364982.0, 0.0], [240836.0, 364982.0, 0.0], [240836.0, 364980.0, 0.0], [240838.0, 364980.0, 0.0], [240838.0, 364978.0, 0.0], [240840.0, 364978.0, 0.0], [240840.0, 364976.0, 0.0], [240846.0, 364976.0, 0.0], [240846.0, 364978.0, 0.0], [240850.0, 364978.0, 0.0], [240850.0, 364976.0, 0.0], [240856.0, 364976.0, 0.0], [240856.0, 364980.0, 0.0], [240858.0, 364980.0, 0.0], [240858.0, 364982.0, 0.0], [240864.0, 364982.0, 0.0], [240864.0, 364984.0, 0.0], [240866.0, 364984.0, 0.0], [240866.0, 364986.0, 0.0], [240872.0, 364986.0, 0.0], [240872.0, 364990.0, 0.0], [240874.0, 364990.0, 0.0], [240874.0, 364994.0, 0.0], [240876.0, 364994.0, 0.0], [240876.0, 364996.0, 0.0], [240878.0, 364996.0, 0.0], [240878.0, 364998.0, 0.0], [240880.0, 364998.0, 0.0], [240880.0, 365000.0, 0.0], [240878.0, 365000.0, 0.0], [240878.0, 365004.0, 0.0], [240876.0, 365004.0, 0.0], [240876.0, 365016.0, 0.0], [240878.0, 365016.0, 0.0], [240878.0, 365024.0, 0.0], [240880.0, 365024.0, 0.0], [240880.0, 365026.0, 0.0], [240884.0, 365026.0, 0.0], [240884.0, 365024.0, 0.0], [240886.0, 365024.0, 0.0], [240886.0, 365022.0, 0.0], [240900.0, 365022.0, 0.0], [240900.0, 365018.0, 0.0], [240906.0, 365018.0, 0.0], [240906.0, 365020.0, 0.0], [240908.0, 365020.0, 0.0], [240908.0, 365018.0, 0.0], [240914.0, 365018.0, 0.0], [240914.0, 365012.0, 0.0], [240912.0, 365012.0, 0.0], [240912.0, 365002.0, 0.0], [240914.0, 365002.0, 0.0], [240914.0, 364996.0, 0.0], [240918.0, 364996.0, 0.0], [240918.0, 364994.0, 0.0], [240920.0, 364994.0, 0.0], [240920.0, 364996.0, 0.0], [240922.0, 364996.0, 0.0], [240922.0, 364998.0, 0.0], [240924.0, 364998.0, 0.0], [240924.0, 365002.0, 0.0], [240926.0, 365002.0, 0.0], [240926.0, 365004.0, 0.0], [240928.0, 365004.0, 0.0], [240928.0, 365006.0, 0.0], [240932.0, 365006.0, 0.0], [240932.0, 365008.0, 0.0], [240934.0, 365008.0, 0.0], [240934.0, 365010.0, 0.0], [240936.0, 365010.0, 0.0], [240936.0, 365012.0, 0.0], [240938.0, 365012.0, 0.0], [240938.0, 365016.0, 0.0], [240940.0, 365016.0, 0.0], [240940.0, 365024.0, 0.0], [240942.0, 365024.0, 0.0], [240942.0, 365028.0, 0.0], [240944.0, 365028.0, 0.0], [240944.0, 365032.0, 0.0], [240942.0, 365032.0, 0.0], [240942.0, 365042.0, 0.0], [240944.0, 365042.0, 0.0], [240944.0, 365046.0, 0.0], [240946.0, 365046.0, 0.0], [240946.0, 365064.0, 0.0], [240948.0, 365064.0, 0.0], [240948.0, 365068.0, 0.0], [240950.0, 365068.0, 0.0], [240950.0, 365074.0, 0.0], [240954.0, 365074.0, 0.0], [240954.0, 365076.0, 0.0], [240956.0, 365076.0, 0.0], [240956.0, 365078.0, 0.0], [240958.0, 365078.0, 0.0], [240958.0, 365080.0, 0.0], [240964.0, 365080.0, 0.0], [240964.0, 365082.0, 0.0], [240962.0, 365082.0, 0.0], [240962.0, 365088.0, 0.0], [240958.0, 365088.0, 0.0], [240958.0, 365090.0, 0.0], [240954.0, 365090.0, 0.0], [240954.0, 365092.0, 0.0], [240952.0, 365092.0, 0.0], [240952.0, 365090.0, 0.0], [240948.0, 365090.0, 0.0], [240948.0, 365092.0, 0.0], [240946.0, 365092.0, 0.0], [240946.0, 365094.0, 0.0], [240944.0, 365094.0, 0.0], [240944.0, 365096.0, 0.0], [240940.0, 365096.0, 0.0], [240940.0, 365100.0, 0.0], [240938.0, 365100.0, 0.0], [240938.0, 365106.0, 0.0], [240936.0, 365106.0, 0.0], [240936.0, 365110.0, 0.0], [240934.0, 365110.0, 0.0], [240934.0, 365112.0, 0.0], [240932.0, 365112.0, 0.0], [240932.0, 365116.0, 0.0], [240930.0, 365116.0, 0.0], [240930.0, 365118.0, 0.0], [240932.0, 365118.0, 0.0], [240932.0, 365120.0, 0.0], [240936.0, 365120.0, 0.0], [240936.0, 365124.0, 0.0], [240938.0, 365124.0, 0.0], [240938.0, 365128.0, 0.0], [240940.0, 365128.0, 0.0], [240940.0, 365132.0, 0.0], [240942.0, 365132.0, 0.0], [240942.0, 365134.0, 0.0], [240944.0, 365134.0, 0.0], [240944.0, 365140.0, 0.0], [240956.0, 365140.0, 0.0], [240956.0, 365138.0, 0.0], [240958.0, 365138.0, 0.0], [240958.0, 365140.0, 0.0], [240960.0, 365140.0, 0.0], [240960.0, 365138.0, 0.0], [240962.0, 365138.0, 0.0], [240962.0, 365140.0, 0.0], [240966.0, 365140.0, 0.0], [240966.0, 365144.0, 0.0], [240968.0, 365144.0, 0.0], [240968.0, 365148.0, 0.0], [240970.0, 365148.0, 0.0], [240970.0, 365150.0, 0.0], [240972.0, 365150.0, 0.0], [240972.0, 365162.0, 0.0], [240974.0, 365162.0, 0.0], [240974.0, 365166.0, 0.0], [240976.0, 365166.0, 0.0], [240976.0, 365164.0, 0.0], [240990.0, 365164.0, 0.0], [240990.0, 365162.0, 0.0], [241000.0, 365162.0, 0.0], [241000.0, 365160.0, 0.0], [241002.0, 365160.0, 0.0], [241002.0, 365154.0, 0.0], [241004.0, 365154.0, 0.0], [241004.0, 365150.0, 0.0], [241006.0, 365150.0, 0.0], [241006.0, 365148.0, 0.0], [241012.0, 365148.0, 0.0], [241012.0, 365146.0, 0.0], [241014.0, 365146.0, 0.0], [241014.0, 365144.0, 0.0], [241018.0, 365144.0, 0.0], [241018.0, 365146.0, 0.0], [241020.0, 365146.0, 0.0], [241020.0, 365144.0, 0.0], [241026.0, 365144.0, 0.0], [241026.0, 365142.0, 0.0], [241028.0, 365142.0, 0.0], [241028.0, 365140.0, 0.0], [241032.0, 365140.0, 0.0], [241032.0, 365144.0, 0.0], [241036.0, 365144.0, 0.0], [241036.0, 365148.0, 0.0], [241038.0, 365148.0, 0.0], [241038.0, 365150.0, 0.0], [241048.0, 365150.0, 0.0], [241048.0, 365148.0, 0.0], [241054.0, 365148.0, 0.0], [241054.0, 365150.0, 0.0], [241056.0, 365150.0, 0.0], [241056.0, 365154.0, 0.0], [241054.0, 365154.0, 0.0], [241054.0, 365160.0, 0.0], [241058.0, 365160.0, 0.0], [241058.0, 365168.0, 0.0], [241060.0, 365168.0, 0.0], [241060.0, 365172.0, 0.0], [241062.0, 365172.0, 0.0], [241062.0, 365178.0, 0.0], [241066.0, 365178.0, 0.0], [241066.0, 365182.0, 0.0], [241068.0, 365182.0, 0.0], [241068.0, 365184.0, 0.0], [241072.0, 365184.0, 0.0], [241072.0, 365186.0, 0.0], [241076.0, 365186.0, 0.0], [241076.0, 365190.0, 0.0], [241078.0, 365190.0, 0.0], [241078.0, 365194.0, 0.0], [241080.0, 365194.0, 0.0], [241080.0, 365196.0, 0.0], [241082.0, 365196.0, 0.0], [241082.0, 365200.0, 0.0], [241084.0, 365200.0, 0.0], [241084.0, 365202.0, 0.0], [241086.0, 365202.0, 0.0], [241086.0, 365194.0, 0.0], [241088.0, 365194.0, 0.0], [241088.0, 365192.0, 0.0], [241090.0, 365192.0, 0.0], [241090.0, 365190.0, 0.0], [241094.0, 365190.0, 0.0], [241094.0, 365188.0, 0.0], [241096.0, 365188.0, 0.0], [241096.0, 365186.0, 0.0], [241098.0, 365186.0, 0.0], [241098.0, 365182.0, 0.0], [241100.0, 365182.0, 0.0], [241100.0, 365178.0, 0.0], [241104.0, 365178.0, 0.0], [241104.0, 365176.0, 0.0], [241108.0, 365176.0, 0.0], [241108.0, 365174.0, 0.0], [241114.0, 365174.0, 0.0], [241114.0, 365170.0, 0.0], [241118.0, 365170.0, 0.0], [241118.0, 365164.0, 0.0], [241116.0, 365164.0, 0.0], [241116.0, 365162.0, 0.0], [241114.0, 365162.0, 0.0], [241114.0, 365160.0, 0.0], [241112.0, 365160.0, 0.0], [241112.0, 365158.0, 0.0], [241110.0, 365158.0, 0.0], [241110.0, 365156.0, 0.0], [241112.0, 365156.0, 0.0], [241112.0, 365144.0, 0.0], [241114.0, 365144.0, 0.0], [241114.0, 365134.0, 0.0], [241112.0, 365134.0, 0.0], [241112.0, 365132.0, 0.0], [241114.0, 365132.0, 0.0], [241114.0, 365130.0, 0.0], [241116.0, 365130.0, 0.0], [241116.0, 365120.0, 0.0], [241118.0, 365120.0, 0.0], [241118.0, 365102.0, 0.0], [241120.0, 365102.0, 0.0], [241120.0, 365098.0, 0.0], [241124.0, 365098.0, 0.0], [241124.0, 365100.0, 0.0], [241130.0, 365100.0, 0.0], [241130.0, 365098.0, 0.0], [241132.0, 365098.0, 0.0]]]}}]}