<?xml version="1.0" encoding="UTF-8"?>
<kml xmlns="http://www.opengis.net/kml/2.2" xmlns:gx="http://www.google.com/kml/ext/2.2" xmlns:kml="http://www.opengis.net/kml/2.2" xmlns:atom="http://www.w3.org/2005/Atom">
<Document>
	<name>warren.kml</name>
	<StyleMap id="msn_ylw-pushpin">
		<Pair>
			<key>normal</key>
			<styleUrl>#sn_ylw-pushpin</styleUrl>
		</Pair>
		<Pair>
			<key>highlight</key>
			<styleUrl>#sh_ylw-pushpin</styleUrl>
		</Pair>
	</StyleMap>
	<Style id="sh_ylw-pushpin">
		<IconStyle>
			<scale>1.3</scale>
			<Icon>
				<href>http://maps.google.com/mapfiles/kml/pushpin/ylw-pushpin.png</href>
			</Icon>
			<hotSpot x="20" y="2" xunits="pixels" yunits="pixels"/>
		</IconStyle>
		<BalloonStyle>
		</BalloonStyle>
		<PolyStyle>
			<fill>0</fill>
		</PolyStyle>
	</Style>
	<Style id="sn_ylw-pushpin">
		<IconStyle>
			<scale>1.1</scale>
			<Icon>
				<href>http://maps.google.com/mapfiles/kml/pushpin/ylw-pushpin.png</href>
			</Icon>
			<hotSpot x="20" y="2" xunits="pixels" yunits="pixels"/>
		</IconStyle>
		<BalloonStyle>
		</BalloonStyle>
		<PolyStyle>
			<fill>0</fill>
		</PolyStyle>
	</Style>
	<Placemark>
		<name>warren</name>
		<styleUrl>#msn_ylw-pushpin</styleUrl>
		<Polygon>
			<tessellate>1</tessellate>
			<outerBoundaryIs>
				<LinearRing>
					<coordinates>
						-4.379225227501729,53.14147664357709,0 -4.368825367278592,53.13625565010267,0 -4.364295907375555,53.13411870838763,0 -4.359774538090784,53.13256408111722,0 -4.356044014616161,53.13446357971076,0 -4.355857813461327,53.13479778895785,0 -4.355114697835733,53.13487078991087,0 -4.353230078751071,53.13539364118434,0 -4.351803559587797,53.13571106806771,0 -4.350098617843791,53.13661381882644,0 -4.348274022822171,53.13741119518496,0 -4.345825813574771,53.13859081165371,0 -4.343145904853873,53.13963385560756,0 -4.340412942156524,53.14095248858712,0 -4.339502640777329,53.1417804643902,0 -4.33842935330683,53.1427140925341,0 -4.337807045234586,53.14340419456047,0 -4.337757807907691,53.14398878128666,0 -4.337422110371282,53.14481477668868,0 -4.337024669473909,53.14577829018359,0 -4.337499936412193,53.14660161499727,0 -4.338723265437183,53.14745554480287,0 -4.340051533552121,53.14793051688397,0 -4.340864139553188,53.14871689530251,0 -4.340983838601662,53.14905988331411,0 -4.340248946231783,53.1501630219963,0 -4.340714019403728,53.15043546944074,0 -4.34180878139227,53.15070486663323,0 -4.343195271651013,53.15168563331313,0 -4.344246016285624,53.1512758397769,0 -4.344988407282122,53.15041774830731,0 -4.345833266490565,53.15189838412751,0 -4.346953344867993,53.15339125401925,0 -4.34751248497173,53.15409489996473,0 -4.348560634571195,53.15386493063355,0 -4.350208681510383,53.1535871515418,0 -4.351122731103247,53.15461733359459,0 -4.351508425570322,53.15542521081201,0 -4.353677021484215,53.15482995707882,0 -4.354217098915282,53.15590664729406,0 -4.354679777031002,53.15684886711684,0 -4.354990556205527,53.15774730957418,0 -4.357145481844597,53.15620777379094,0 -4.359242226014396,53.15588258019985,0 -4.360878402415351,53.15484028787117,0 -4.364540140909492,53.15374274400384,0 -4.367080464377652,53.15296545046489,0 -4.373215660802508,53.14677858005174,0 -4.375216518909756,53.14515083709888,0 -4.379225227501729,53.14147664357709,0 
					</coordinates>
				</LinearRing>
			</outerBoundaryIs>
		</Polygon>
		<atom:link rel="app" href="https://www.google.com/earth/about/versions/#earth-pro" title="Google Earth Pro 7.3.7.1155"></atom:link>
	</Placemark>
</Document>
</kml>
