<?xml version="1.0" encoding="UTF-8"?>
<kml xmlns="http://www.opengis.net/kml/2.2" xmlns:gx="http://www.google.com/kml/ext/2.2" xmlns:kml="http://www.opengis.net/kml/2.2" xmlns:atom="http://www.w3.org/2005/Atom">
<Document>
	<name>warren_tree_mask.kml</name>
	<StyleMap id="msn_ylw-pushpin">
		<Pair>
			<key>normal</key>
			<styleUrl>#sn_ylw-pushpin</styleUrl>
		</Pair>
		<Pair>
			<key>highlight</key>
			<styleUrl>#sh_ylw-pushpin</styleUrl>
		</Pair>
	</StyleMap>
	<Style id="sh_ylw-pushpin">
		<IconStyle>
			<scale>1.3</scale>
			<Icon>
				<href>http://maps.google.com/mapfiles/kml/pushpin/ylw-pushpin.png</href>
			</Icon>
			<hotSpot x="20" y="2" xunits="pixels" yunits="pixels"/>
		</IconStyle>
		<BalloonStyle>
		</BalloonStyle>
		<PolyStyle>
			<fill>0</fill>
		</PolyStyle>
	</Style>
	<Style id="sn_ylw-pushpin">
		<IconStyle>
			<scale>1.1</scale>
			<Icon>
				<href>http://maps.google.com/mapfiles/kml/pushpin/ylw-pushpin.png</href>
			</Icon>
			<hotSpot x="20" y="2" xunits="pixels" yunits="pixels"/>
		</IconStyle>
		<BalloonStyle>
		</BalloonStyle>
		<PolyStyle>
			<fill>0</fill>
		</PolyStyle>
	</Style>
	<Placemark>
		<name>warren_tree_mask</name>
		<snippet></snippet>
		<styleUrl>#msn_ylw-pushpin</styleUrl>
		<MultiGeometry>
			<Polygon>
				<tessellate>1</tessellate>
				<outerBoundaryIs>
					<LinearRing>
						<coordinates>
							-4.341814916876721,53.14897952262983,0 -4.341917449414531,53.14897871543872,0 -4.341977473795576,53.14895289323161,0 -4.34201547506248,53.1489019343466,0 -4.34205343976664,53.14885102536147,0 -4.342049681945256,53.1487878551265,0 -4.342045928709334,53.14872475845021,0 -4.342083810128296,53.14867402449163,0 -4.342101227657174,53.14862349213293,0 -4.342139049930668,53.14857285398493,0 -4.34217683587645,53.14852226540491,0 -4.342235754833053,53.14848412606908,0 -4.342293848946383,53.14843347302661,0 -4.342353429619539,53.14840790908197,0 -4.342412233768359,53.14836988334163,0 -4.34242936736597,53.14831959335029,0 -4.342487298102608,53.14826912727055,0 -4.342503463598,53.14820637823513,0 -4.342459222391362,53.14815650223388,0 -4.342454986169439,53.14809398964898,0 -4.34235298042169,53.14809446538334,0 -4.342271670248455,53.14809504039865,0 -4.34219037495297,53.14809562883445,0 -4.342109871044311,53.14810871550546,0 -4.342131004067432,53.14812106725203,0 -4.342231023789077,53.14809533474988,0 -4.342330979112086,53.14806961890226,0 -4.342391266493292,53.14805680402372,0 -4.342471992010304,53.14804393973397,0 -4.342573085472256,53.1480309831463,0 -4.342653768532319,53.14801812549349,0 -4.342754813044916,53.14800517606611,0 -4.342826915762083,53.14806545591277,0 -4.342907492654581,53.14807816967132,0 -4.343018439005927,53.14800822016182,0 -4.343124300177466,53.14796828840392,0 -4.343216211865996,53.14791531824491,0 -4.343295881747228,53.14789010654963,0 -4.342419663875139,53.1483021839034,0 -4.342419868787346,53.14855698842978,0 -4.342744573713393,53.14833667343068,0 -4.342941926609988,53.14847373279584,0 -4.343035538929064,53.14877513241898,0 -4.343256088395914,53.14917567068868,0 -4.344036944734962,53.14902091760277,0 -4.344335358258874,53.14826775090312,0 -4.344489350917199,53.14780214529331,0 -4.344113506566208,53.147675475091,0 -4.344089002791218,53.14762602886315,0 -4.344023929191239,53.14757682125883,0 -4.344019780727557,53.14752737981513,0 -4.344014602079207,53.14746564452862,0 -4.343971248866088,53.1474289420491,0 -4.343889637420906,53.14741718566562,0 -4.343807092409969,53.14739313120452,0 -4.343726440234821,53.14739367337472,0 -4.343645415359721,53.14739406433014,0 -4.343523825847592,53.14739463041298,0 -4.343420698740339,53.14737051066493,0 -4.343340547904061,53.14738318356378,0 -4.343260380499396,53.1473958601818,0 -4.34322248755961,53.14743296078096,0 -4.343246288614657,53.14748212100382,0 -4.34325070770594,53.14754375022964,0 -4.343274545629056,53.14759301238749,0 -4.343299295608372,53.14765467567126,0 -4.343362930916634,53.14769148178468,0 -4.343386847579705,53.14774087971872,0 -4.343370114013282,53.14779051219464,0 -4.343373713764828,53.14784009631823,0 -4.343314452876582,53.14786519053967,0 -4.343233036454418,53.14786557013146,0 -4.34317285233476,53.14787826336498,0 -4.343071069763848,53.14787873840171,0 -4.343007539559442,53.14784186293036,0 -4.342924694270643,53.14781757786461,0 -4.342843312877048,53.14781795794219,0 -4.342760166871887,53.14779349098618,0 -4.342659336238984,53.14780638825643,0 -4.342600895716173,53.14784395656165,0 -4.34256362892538,53.14789390119276,0 -4.34254755083673,53.14795625990936,0 -4.34253145301936,53.14801869538312,0 -4.342513627162989,53.14805623253115,0 -4.342452446639093,53.14805651857018,0 -4.342389590215467,53.14803183894465,0 -4.342287057330774,53.14801998846568,0 -4.342183897487955,53.14799577284609,0 -4.342120576742089,53.14795881273457,0 -4.342055712023093,53.14789697967388,0 -4.342011987053798,53.14784750437531,0 -4.341968302057547,53.14779807765539,0 -4.341944920953295,53.14774855409573,0 -4.341901569966604,53.14769938291415,0 -4.341858350708392,53.14765031009327,0 -4.341815167601462,53.14760127563943,0 -4.34177201778728,53.1475522788381,0 -4.34176935114892,53.14750304665561,0 -4.341766020706697,53.14744156634858,0 -4.341824642856502,53.14740430206526,0 -4.341863025178383,53.14736719982687,0 -4.341921570328331,53.14732998811269,0 -4.342001634033187,53.14731719015887,0 -4.342082369507702,53.14731665330741,0 -4.342162389394519,53.14730385915193,0 -4.342243097315755,53.14730332382064,0 -4.342303622642146,53.1473029218682,0 -4.342404484841489,53.14730225642796,0 -4.342485165135215,53.1473017213233,0 -4.342565835469667,53.14730118501267,0 -4.342543429433421,53.14726456900744,0 -4.342500139551192,53.14721587173664,0 -4.342417323311106,53.14717970165359,0 -4.342354693949609,53.14714341851417,0 -4.342331655375721,53.14709468002901,0 -4.342327984085959,53.14703362524575,0 -4.342324903713192,53.14698476491973,0 -4.342263026330744,53.14696073938325,0 -4.342184073921963,53.14698566889974,0 -4.342105076544653,53.14701061343683,0 -4.342107311763064,53.14704727746877,0 -4.342110112870509,53.14709611578269,0 -4.34211361438288,53.14715721818898,0 -4.342157445788755,53.14721812007527,0 -4.342181150019483,53.14727921450525,0 -4.342122733777659,53.14731638501095,0 -4.342042697152422,53.14732918360102,0 -4.341963319783574,53.1473542551607,0 -4.341883899020428,53.14737934019462,0 -4.341804436820408,53.14740443738896,0 -4.341745143390082,53.1474294129811,0 -4.341665601273559,53.14745453744295,0 -4.341586664155966,53.14749198319846,0 -4.341527261826931,53.14751700352974,0 -4.34148870538721,53.14755421339161,0 -4.34151150352113,53.14760335789719,0 -4.34153496337423,53.14766488137374,0 -4.341537534650403,53.14771425729839,0 -4.341540301217388,53.14776380461821,0 -4.341604068280548,53.14781306850733,0 -4.341665660919737,53.14782506950183,0 -4.341770102342637,53.14787410208392,0 -4.34183173958214,53.14788611502511,0 -4.341915228377107,53.14792288792653,0 -4.341979250480826,53.14797229171941,0 -4.342062849910184,53.14800911868032,0 -4.342126989457538,53.14805859969555,0 -4.342150529426182,53.14810842016656,0 -4.342194429802047,53.14815813997662,0 -4.34213582746909,53.1481961316199,0 -4.342098331666927,53.14824653487771,0 -4.342018474551937,53.14827220819186,0 -4.341958158085705,53.14828520052337,0 -4.34185861207504,53.14832360027125,0 -4.341798992323974,53.14834916899806,0 -4.341719700405303,53.14838747312947,0 -4.341659999097356,53.14841307814945,0 -4.341600904451729,53.14845120129519,0 -4.341542421048179,53.14850189583702,0 -4.341606481746525,53.14855171854912,0 -4.341650159357613,53.14860173273626,0 -4.341653679455626,53.14866470394777,0 -4.341657204162442,53.14872774773549,0 -4.341660732420298,53.14879086516137,0 -4.341602097993724,53.14884188587585,0 -4.341543403643334,53.14889296099781,0 -4.341546178050148,53.14894360580792,0 -4.34158998942093,53.14899397504347,0 -4.341653657225728,53.14903153672959,0 -4.34171808182867,53.14908181651247,0 -4.341778226555229,53.14905593799168,0 -4.341817094038761,53.14901755403613,0 -4.341814916876721,53.14897952262983,0 
						</coordinates>
					</LinearRing>
				</outerBoundaryIs>
			</Polygon>
			<Polygon>
				<tessellate>1</tessellate>
				<outerBoundaryIs>
					<LinearRing>
						<coordinates>
							-4.342387914329197,53.14800688789801,0 -4.341896802426161,53.14761304543894,0 -4.342342518171954,53.14727814746496,0 -4.343197183213782,53.14679665313167,0 -4.343151684338674,53.14672391710768,0 -4.342526484721177,53.14607521178093,0 -4.342503122941347,53.14602727242422,0 -4.342195667520475,53.14561039564767,0 -4.341746347772096,53.14573206313599,0 -4.340914638552801,53.14622796591777,0 -4.340116138129119,53.14677695890101,0 -4.339174105297817,53.14634526711873,0 -4.338744868147494,53.14542570355943,0 -4.338764273253267,53.14476518624675,0 -4.338763592318617,53.14474176362491,0 -4.339812052148862,53.14427061637912,0 -4.339998203618032,53.14355517813707,0 -4.340182667321344,53.14237555143094,0 -4.339538111277955,53.14272694448411,0 -4.338922647633346,53.14352527900958,0 -4.338069482539604,53.1446396961512,0 -4.338219542225351,53.14512057052028,0 -4.338280948289745,53.14519113568375,0 -4.338301755455035,53.14522650563868,0 -4.338273985089388,53.14567825170539,0 -4.338683784825673,53.14672428445389,0 -4.339927509795966,53.14758767196186,0 -4.34133337532236,53.14805182835899,0 -4.341454688619607,53.14803845979543,0 -4.341495355133174,53.14803816821146,0 -4.342387914329197,53.14800688789801,0 
						</coordinates>
					</LinearRing>
				</outerBoundaryIs>
			</Polygon>
			<Polygon>
				<tessellate>1</tessellate>
				<outerBoundaryIs>
					<LinearRing>
						<coordinates>
							-4.349590459380374,53.14396070017732,0 -4.349651839083114,53.14394485942804,0 -4.349658942676728,53.14390438970615,0 -4.349613847458917,53.1438611802335,0 -4.349577523840754,53.14386134992161,0 -4.349541162877014,53.14386151457067,0 -4.349496413657144,53.14388958969764,0 -4.349508907654021,53.14391747305454,0 -4.349495342081586,53.14394552220585,0 -4.349590459380374,53.14396070017732,0 
						</coordinates>
					</LinearRing>
				</outerBoundaryIs>
			</Polygon>
			<Polygon>
				<tessellate>1</tessellate>
				<outerBoundaryIs>
					<LinearRing>
						<coordinates>
							-4.349231149647177,53.14760816359217,0 -4.349304206184737,53.14759482438399,0 -4.349280663788494,53.14751073841051,0 -4.349220244388761,53.14748521565059,0 -4.349136209464661,53.1474857977631,0 -4.349092450907174,53.14752808155681,0 -4.349128938965729,53.14758613248188,0 -4.349231149647177,53.14760816359217,0 
						</coordinates>
					</LinearRing>
				</outerBoundaryIs>
			</Polygon>
		</MultiGeometry>
		<atom:link rel="app" href="https://www.google.com/earth/about/versions/#earth-pro" title="Google Earth Pro 7.3.7.1155"></atom:link>
	</Placemark>
</Document>
</kml>
