<?xml version="1.0" encoding="UTF-8"?>
<kml xmlns="http://www.opengis.net/kml/2.2"><Document>
<name>Newborough Warren groundwater monitoring network</name>
<description>Dipwell and lake-gauge locations for the Newborough Warren dune aquifer study, Anglesey, Wales. Positions surveyed on OSGB36 / British National Grid (EPSG:27700) and transformed to WGS84 for this file. Generated by tools/make_well_kml.py from the committed pipeline outputs.</description>
<Folder><name>Reference network dipwells (66)</name><description>Wells with records long enough for the clustering and modelling.</description>
<Placemark><name>CEH1</name><description>British National Grid: 241595.9 E, 363948.3 N; Ground elevation: 10.65 m AOD; Land cover: open ground</description><Point><altitudeMode>clampToGround</altitudeMode><coordinates>-4.37009158,53.14905441,0</coordinates></Point></Placemark>
<Placemark><name>CEH10</name><description>British National Grid: 242538.2 E, 363173.9 N; Ground elevation: 5.78 m AOD; Land cover: open ground</description><Point><altitudeMode>clampToGround</altitudeMode><coordinates>-4.35563315,53.14237858,0</coordinates></Point></Placemark>
<Placemark><name>CEH11</name><description>British National Grid: 242618.6 E, 362688.3 N; Ground elevation: 3.53 m AOD; Land cover: open ground</description><Point><altitudeMode>clampToGround</altitudeMode><coordinates>-4.35419307,53.13804076,0</coordinates></Point></Placemark>
<Placemark><name>CEH13</name><description>British National Grid: 240964.1 E, 364066.3 N; Ground elevation: 11.23 m AOD; Land cover: under canopy</description><Point><altitudeMode>clampToGround</altitudeMode><coordinates>-4.37958802,53.14992554,0</coordinates></Point></Placemark>
<Placemark><name>CEH14</name><description>British National Grid: 241292.0 E, 364488.0 N; Ground elevation: 14.42 m AOD; Land cover: under canopy</description><Point><altitudeMode>clampToGround</altitudeMode><coordinates>-4.37489862,53.15381077,0</coordinates></Point></Placemark>
<Placemark><name>CEH16</name><description>British National Grid: 240988.2 E, 363614.9 N; Ground elevation: 6.10 m AOD; Land cover: under canopy</description><Point><altitudeMode>clampToGround</altitudeMode><coordinates>-4.37900368,53.14587863,0</coordinates></Point></Placemark>
<Placemark><name>CEH17</name><description>British National Grid: 240804.6 E, 363576.1 N; Ground elevation: 6.00 m AOD; Land cover: under canopy</description><Point><altitudeMode>clampToGround</altitudeMode><coordinates>-4.38172722,53.14547505,0</coordinates></Point></Placemark>
<Placemark><name>CEH18</name><description>British National Grid: 241267.2 E, 363202.9 N; Ground elevation: 5.14 m AOD; Land cover: open ground</description><Point><altitudeMode>clampToGround</altitudeMode><coordinates>-4.37463245,53.14226151,0</coordinates></Point></Placemark>
<Placemark><name>CEH19</name><description>British National Grid: 240845.7 E, 363532.9 N; Ground elevation: 4.65 m AOD; Land cover: under canopy</description><Point><altitudeMode>clampToGround</altitudeMode><coordinates>-4.38109116,53.14509955,0</coordinates></Point></Placemark>
<Placemark><name>CEH2</name><description>British National Grid: 241421.0 E, 363979.0 N; Ground elevation: 11.32 m AOD; Land cover: under canopy</description><Point><altitudeMode>clampToGround</altitudeMode><coordinates>-4.37271908,53.14927777,0</coordinates></Point></Placemark>
<Placemark><name>CEH20</name><description>British National Grid: 241153.0 E, 363829.0 N; Ground elevation: 8.62 m AOD; Land cover: under canopy</description><Point><altitudeMode>clampToGround</altitudeMode><coordinates>-4.37664834,53.14785071,0</coordinates></Point></Placemark>
<Placemark><name>CEH21</name><description>British National Grid: 241470.5 E, 362937.7 N; Ground elevation: 4.17 m AOD; Land cover: open ground</description><Point><altitudeMode>clampToGround</altitudeMode><coordinates>-4.37146388,53.13993998,0</coordinates></Point></Placemark>
<Placemark><name>CEH23</name><description>British National Grid: 242325.3 E, 364428.1 N; Ground elevation: 9.96 m AOD; Land cover: open ground</description><Point><altitudeMode>clampToGround</altitudeMode><coordinates>-4.35943057,53.15358004,0</coordinates></Point></Placemark>
<Placemark><name>CEH24</name><description>British National Grid: 242938.9 E, 363392.1 N; Ground elevation: 5.81 m AOD; Land cover: open ground</description><Point><altitudeMode>clampToGround</altitudeMode><coordinates>-4.34975452,53.14445663,0</coordinates></Point></Placemark>
<Placemark><name>CEH25</name><description>British National Grid: 242512.6 E, 364638.5 N; Ground elevation: 9.05 m AOD; Land cover: open ground</description><Point><altitudeMode>clampToGround</altitudeMode><coordinates>-4.35673651,53.15552532,0</coordinates></Point></Placemark>
<Placemark><name>CEH26</name><description>British National Grid: 242172.3 E, 364362.2 N; Ground elevation: 10.43 m AOD; Land cover: open ground</description><Point><altitudeMode>clampToGround</altitudeMode><coordinates>-4.36168476,53.15294296,0</coordinates></Point></Placemark>
<Placemark><name>CEH27</name><description>British National Grid: 242005.4 E, 364330.3 N; Ground elevation: 10.90 m AOD; Land cover: open ground</description><Point><altitudeMode>clampToGround</altitudeMode><coordinates>-4.36416239,53.15260658,0</coordinates></Point></Placemark>
<Placemark><name>CEH28</name><description>British National Grid: 242331.1 E, 364122.0 N; Ground elevation: 10.54 m AOD; Land cover: open ground</description><Point><altitudeMode>clampToGround</altitudeMode><coordinates>-4.35919402,53.15083270,0</coordinates></Point></Placemark>
<Placemark><name>CEH30</name><description>British National Grid: 241072.0 E, 363760.0 N; Ground elevation: 8.61 m AOD; Land cover: under canopy</description><Point><altitudeMode>clampToGround</altitudeMode><coordinates>-4.37782412,53.14720683,0</coordinates></Point></Placemark>
<Placemark><name>CEH31</name><description>British National Grid: 241075.0 E, 363538.0 N; Ground elevation: 6.32 m AOD; Land cover: under canopy</description><Point><altitudeMode>clampToGround</altitudeMode><coordinates>-4.37766911,53.14521391,0</coordinates></Point></Placemark>
<Placemark><name>CEH32</name><description>British National Grid: 241167.0 E, 364003.0 N; Ground elevation: 11.03 m AOD; Land cover: under canopy</description><Point><altitudeMode>clampToGround</altitudeMode><coordinates>-4.37652553,53.14941761,0</coordinates></Point></Placemark>
<Placemark><name>CEH33</name><description>British National Grid: 240936.0 E, 363808.0 N; Ground elevation: 8.77 m AOD; Land cover: under canopy</description><Point><altitudeMode>clampToGround</altitudeMode><coordinates>-4.37987959,53.14759732,0</coordinates></Point></Placemark>
<Placemark><name>CEH34</name><description>British National Grid: 241334.0 E, 363887.0 N; Ground elevation: 9.75 m AOD; Land cover: under canopy</description><Point><altitudeMode>clampToGround</altitudeMode><coordinates>-4.37397319,53.14842558,0</coordinates></Point></Placemark>
<Placemark><name>CEH36</name><description>British National Grid: 241161.0 E, 363306.0 N; Ground elevation: 5.31 m AOD; Land cover: open ground</description><Point><altitudeMode>clampToGround</altitudeMode><coordinates>-4.37626938,53.14315592,0</coordinates></Point></Placemark>
<Placemark><name>CEH39</name><description>British National Grid: 241719.0 E, 363435.0 N; Ground elevation: 7.85 m AOD; Land cover: open ground</description><Point><altitudeMode>clampToGround</altitudeMode><coordinates>-4.36799825,53.14448063,0</coordinates></Point></Placemark>
<Placemark><name>CEH4</name><description>British National Grid: 241131.7 E, 363211.0 N; Ground elevation: 4.48 m AOD; Land cover: open ground</description><Point><altitudeMode>clampToGround</altitudeMode><coordinates>-4.37666003,53.14229442,0</coordinates></Point></Placemark>
<Placemark><name>CEH40</name><description>British National Grid: 242060.3 E, 363398.5 N; Ground elevation: 7.77 m AOD; Land cover: open ground</description><Point><altitudeMode>clampToGround</altitudeMode><coordinates>-4.36288230,53.14425421,0</coordinates></Point></Placemark>
<Placemark><name>CEH41</name><description>British National Grid: 242284.0 E, 363324.6 N; Ground elevation: 7.15 m AOD; Land cover: open ground</description><Point><altitudeMode>clampToGround</altitudeMode><coordinates>-4.35950378,53.14365665,0</coordinates></Point></Placemark>
<Placemark><name>CEH42</name><description>British National Grid: 242120.5 E, 362743.2 N; Ground elevation: 3.62 m AOD; Land cover: open ground</description><Point><altitudeMode>clampToGround</altitudeMode><coordinates>-4.36165934,53.13838654,0</coordinates></Point></Placemark>
<Placemark><name>CEH5</name><description>British National Grid: 242521.1 E, 364465.8 N; Ground elevation: 9.59 m AOD; Land cover: open ground</description><Point><altitudeMode>clampToGround</altitudeMode><coordinates>-4.35652421,53.15397652,0</coordinates></Point></Placemark>
<Placemark><name>CEH6</name><description>British National Grid: 242621.7 E, 364724.9 N; Ground elevation: 8.46 m AOD; Land cover: open ground</description><Point><altitudeMode>clampToGround</altitudeMode><coordinates>-4.35514854,53.15633329,0</coordinates></Point></Placemark>
<Placemark><name>CEH9</name><description>British National Grid: 241711.2 E, 363459.0 N; Ground elevation: 7.98 m AOD; Land cover: open ground</description><Point><altitudeMode>clampToGround</altitudeMode><coordinates>-4.36812647,53.14469398,0</coordinates></Point></Placemark>
<Placemark><name>D10</name><description>British National Grid: 242613.9 E, 364118.8 N; Ground elevation: 9.60 m AOD; Land cover: open ground</description><Point><altitudeMode>clampToGround</altitudeMode><coordinates>-4.35496659,53.15088727,0</coordinates></Point></Placemark>
<Placemark><name>D15</name><description>British National Grid: 241980.6 E, 363895.7 N; Ground elevation: 10.37 m AOD; Land cover: open ground</description><Point><altitudeMode>clampToGround</altitudeMode><coordinates>-4.36431849,53.14869616,0</coordinates></Point></Placemark>
<Placemark><name>D17</name><description>British National Grid: 242447.0 E, 363535.0 N; Ground elevation: 7.93 m AOD; Land cover: open ground</description><Point><altitudeMode>clampToGround</altitudeMode><coordinates>-4.35717356,53.14559427,0</coordinates></Point></Placemark>
<Placemark><name>D25</name><description>British National Grid: 242215.2 E, 363143.8 N; Ground elevation: 5.35 m AOD; Land cover: open ground</description><Point><altitudeMode>clampToGround</altitudeMode><coordinates>-4.36044291,53.14201258,0</coordinates></Point></Placemark>
<Placemark><name>D38</name><description>British National Grid: 242711.6 E, 363069.2 N; Ground elevation: 4.66 m AOD; Land cover: open ground</description><Point><altitudeMode>clampToGround</altitudeMode><coordinates>-4.35299186,53.14148929,0</coordinates></Point></Placemark>
<Placemark><name>D41</name><description>British National Grid: 242771.7 E, 363342.9 N; Ground elevation: 5.84 m AOD; Land cover: open ground</description><Point><altitudeMode>clampToGround</altitudeMode><coordinates>-4.35222869,53.14396485,0</coordinates></Point></Placemark>
<Placemark><name>D43</name><description>British National Grid: 242664.7 E, 363428.7 N; Ground elevation: 6.91 m AOD; Land cover: open ground</description><Point><altitudeMode>clampToGround</altitudeMode><coordinates>-4.35386837,53.14470422,0</coordinates></Point></Placemark>
<Placemark><name>D44</name><description>British National Grid: 242819.4 E, 363279.5 N; Ground elevation: 5.73 m AOD; Land cover: open ground</description><Point><altitudeMode>clampToGround</altitudeMode><coordinates>-4.35148439,53.14341037,0</coordinates></Point></Placemark>
<Placemark><name>D5</name><description>British National Grid: 242083.4 E, 363901.7 N; Ground elevation: 10.50 m AOD; Land cover: open ground</description><Point><altitudeMode>clampToGround</altitudeMode><coordinates>-4.36278508,53.14878049,0</coordinates></Point></Placemark>
<Placemark><name>D6</name><description>British National Grid: 242114.9 E, 364021.9 N; Ground elevation: 10.82 m AOD; Land cover: open ground</description><Point><altitudeMode>clampToGround</altitudeMode><coordinates>-4.36237389,53.14986883,0</coordinates></Point></Placemark>
<Placemark><name>D7</name><description>British National Grid: 242610.8 E, 364204.6 N; Ground elevation: 9.78 m AOD; Land cover: open ground</description><Point><altitudeMode>clampToGround</altitudeMode><coordinates>-4.35505592,53.15165655,0</coordinates></Point></Placemark>
<Placemark><name>D8</name><description>British National Grid: 242676.9 E, 364024.2 N; Ground elevation: 9.28 m AOD; Land cover: open ground</description><Point><altitudeMode>clampToGround</altitudeMode><coordinates>-4.35397949,53.15005655,0</coordinates></Point></Placemark>
<Placemark><name>D9</name><description>British National Grid: 242710.7 E, 363910.7 N; Ground elevation: 9.14 m AOD; Land cover: open ground</description><Point><altitudeMode>clampToGround</altitudeMode><coordinates>-4.35341785,53.14904671,0</coordinates></Point></Placemark>
<Placemark><name>L7</name><description>British National Grid: 242812.0 E, 364395.0 N; Ground elevation: 10.86 m AOD; Land cover: open ground</description><Point><altitudeMode>clampToGround</altitudeMode><coordinates>-4.35214274,53.15342647,0</coordinates></Point></Placemark>
<Placemark><name>NW1</name><description>British National Grid: 241725.0 E, 364139.0 N; Ground elevation: 12.36 m AOD; Land cover: open ground</description><Point><altitudeMode>clampToGround</altitudeMode><coordinates>-4.36825668,53.15080522,0</coordinates></Point></Placemark>
<Placemark><name>NW10</name><description>British National Grid: 241435.0 E, 364325.0 N; Ground elevation: 11.66 m AOD; Land cover: under canopy</description><Point><altitudeMode>clampToGround</altitudeMode><coordinates>-4.37268135,53.15238966,0</coordinates></Point></Placemark>
<Placemark><name>NW11</name><description>British National Grid: 241689.0 E, 364237.0 N; Ground elevation: 11.95 m AOD; Land cover: under canopy</description><Point><altitudeMode>clampToGround</altitudeMode><coordinates>-4.36884298,53.15167468,0</coordinates></Point></Placemark>
<Placemark><name>NW13</name><description>British National Grid: 241761.0 E, 364180.0 N; Ground elevation: 12.09 m AOD; Land cover: open ground</description><Point><altitudeMode>clampToGround</altitudeMode><coordinates>-4.36773911,53.15118415,0</coordinates></Point></Placemark>
<Placemark><name>NW2</name><description>British National Grid: 241703.0 E, 364112.1 N; Ground elevation: 11.47 m AOD; Land cover: open ground</description><Point><altitudeMode>clampToGround</altitudeMode><coordinates>-4.36857192,53.15055692,0</coordinates></Point></Placemark>
<Placemark><name>NW3</name><description>British National Grid: 242091.9 E, 363939.4 N; Ground elevation: 10.66 m AOD; Land cover: open ground</description><Point><altitudeMode>clampToGround</altitudeMode><coordinates>-4.36267618,53.14912116,0</coordinates></Point></Placemark>
<Placemark><name>NW4</name><description>British National Grid: 242431.2 E, 363744.5 N; Ground elevation: 9.16 m AOD; Land cover: open ground</description><Point><altitudeMode>clampToGround</altitudeMode><coordinates>-4.35751251,53.14747165,0</coordinates></Point></Placemark>
<Placemark><name>NW4B</name><description>British National Grid: 242414.7 E, 363751.7 N; Ground elevation: 9.26 m AOD; Land cover: open ground</description><Point><altitudeMode>clampToGround</altitudeMode><coordinates>-4.35776233,53.14753097,0</coordinates></Point></Placemark>
<Placemark><name>NW5</name><description>British National Grid: 241711.8 E, 363023.7 N; Ground elevation: 5.72 m AOD; Land cover: open ground</description><Point><altitudeMode>clampToGround</altitudeMode><coordinates>-4.36790314,53.14078446,0</coordinates></Point></Placemark>
<Placemark><name>NW6</name><description>British National Grid: 241444.3 E, 363316.6 N; Ground elevation: 6.36 m AOD; Land cover: open ground</description><Point><altitudeMode>clampToGround</altitudeMode><coordinates>-4.37204286,53.14333553,0</coordinates></Point></Placemark>
<Placemark><name>NW7</name><description>British National Grid: 241423.7 E, 363584.9 N; Ground elevation: 8.47 m AOD; Land cover: open ground</description><Point><altitudeMode>clampToGround</altitudeMode><coordinates>-4.37248359,53.14573873,0</coordinates></Point></Placemark>
<Placemark><name>NW9</name><description>British National Grid: 240937.3 E, 363567.2 N; Ground elevation: 5.15 m AOD; Land cover: under canopy</description><Point><altitudeMode>clampToGround</altitudeMode><coordinates>-4.37974113,53.14543469,0</coordinates></Point></Placemark>
<Placemark><name>T41A</name><description>British National Grid: 242709.9 E, 363275.7 N; Ground elevation: 5.49 m AOD; Land cover: open ground</description><Point><altitudeMode>clampToGround</altitudeMode><coordinates>-4.35311781,53.14334319,0</coordinates></Point></Placemark>
<Placemark><name>T41B</name><description>British National Grid: 242715.1 E, 363309.6 N; Ground elevation: 5.71 m AOD; Land cover: open ground</description><Point><altitudeMode>clampToGround</altitudeMode><coordinates>-4.35305743,53.14364917,0</coordinates></Point></Placemark>
<Placemark><name>T41C</name><description>British National Grid: 242721.1 E, 363323.7 N; Ground elevation: 5.80 m AOD; Land cover: open ground</description><Point><altitudeMode>clampToGround</altitudeMode><coordinates>-4.35297406,53.14377775,0</coordinates></Point></Placemark>
<Placemark><name>T41D</name><description>British National Grid: 242732.0 E, 363353.3 N; Ground elevation: 6.19 m AOD; Land cover: open ground</description><Point><altitudeMode>clampToGround</altitudeMode><coordinates>-4.35282643,53.14404682,0</coordinates></Point></Placemark>
<Placemark><name>WMC1</name><description>British National Grid: 242765.6 E, 363643.6 N; Ground elevation: 7.29 m AOD; Land cover: open ground</description><Point><altitudeMode>clampToGround</altitudeMode><coordinates>-4.35246644,53.14666379,0</coordinates></Point></Placemark>
<Placemark><name>WMC2</name><description>British National Grid: 241885.1 E, 362855.9 N; Ground elevation: 4.50 m AOD; Land cover: open ground</description><Point><altitudeMode>clampToGround</altitudeMode><coordinates>-4.36523045,53.13932853,0</coordinates></Point></Placemark>
<Placemark><name>WMC3</name><description>British National Grid: 241217.3 E, 363562.3 N; Ground elevation: 8.61 m AOD; Land cover: under canopy</description><Point><altitudeMode>clampToGround</altitudeMode><coordinates>-4.37555513,53.14547481,0</coordinates></Point></Placemark>
<Placemark><name>WMC4</name><description>British National Grid: 241760.3 E, 364180.7 N; Ground elevation: 12.09 m AOD; Land cover: open ground</description><Point><altitudeMode>clampToGround</altitudeMode><coordinates>-4.36775003,53.15119029,0</coordinates></Point></Placemark>
</Folder>
<Folder><name>Extended network dipwells (22)</name><description>Additional dipwells, shorter or later records.</description>
<Placemark><name>CEH12</name><description>British National Grid: 240339.0 E, 364588.0 N; Ground elevation: 34.88 m AOD; Land cover: under canopy</description><Point><altitudeMode>clampToGround</altitudeMode><coordinates>-4.38918690,53.15442393,0</coordinates></Point></Placemark>
<Placemark><name>CEH15</name><description>British National Grid: 240679.9 E, 363754.4 N; Ground elevation: 5.87 m AOD; Land cover: under canopy</description><Point><altitudeMode>clampToGround</altitudeMode><coordinates>-4.38367876,53.14703908,0</coordinates></Point></Placemark>
<Placemark><name>CEH22</name><description>British National Grid: 241375.0 E, 362906.9 N; Ground elevation: 3.23 m AOD; Land cover: open ground</description><Point><altitudeMode>clampToGround</altitudeMode><coordinates>-4.37287487,53.13963566,0</coordinates></Point></Placemark>
<Placemark><name>CEH3</name><description>British National Grid: 240743.0 E, 363388.0 N; Ground elevation: 4.36 m AOD; Land cover: open ground</description><Point><altitudeMode>clampToGround</altitudeMode><coordinates>-4.38255381,53.14376755,0</coordinates></Point></Placemark>
<Placemark><name>CEH35</name><description>British National Grid: 241081.0 E, 363212.0 N; Ground elevation: 4.35 m AOD; Land cover: open ground</description><Point><altitudeMode>clampToGround</altitudeMode><coordinates>-4.37741769,53.14228782,0</coordinates></Point></Placemark>
<Placemark><name>CEH37</name><description>British National Grid: 242886.0 E, 363346.0 N; Ground elevation: 6.02 m AOD; Land cover: open ground</description><Point><altitudeMode>clampToGround</altitudeMode><coordinates>-4.35052227,53.14402686,0</coordinates></Point></Placemark>
<Placemark><name>CEH38</name><description>British National Grid: 241130.0 E, 363261.0 N; Ground elevation: 4.46 m AOD; Land cover: open ground</description><Point><altitudeMode>clampToGround</altitudeMode><coordinates>-4.37671010,53.14274252,0</coordinates></Point></Placemark>
<Placemark><name>CEH7</name><description>British National Grid: 243385.8 E, 363612.9 N; Ground elevation: 5.38 m AOD; Land cover: open ground</description><Point><altitudeMode>clampToGround</altitudeMode><coordinates>-4.34318693,53.14657121,0</coordinates></Point></Placemark>
<Placemark><name>CEH8</name><description>British National Grid: 243149.9 E, 363382.3 N; Ground elevation: 5.49 m AOD; Land cover: open ground</description><Point><altitudeMode>clampToGround</altitudeMode><coordinates>-4.34659753,53.14443073,0</coordinates></Point></Placemark>
<Placemark><name>FE1</name><description>British National Grid: 241338.0 E, 363744.0 N; Ground elevation: 8.70 m AOD; Land cover: under canopy</description><Point><altitudeMode>clampToGround</altitudeMode><coordinates>-4.37384256,53.14714246,0</coordinates></Point></Placemark>
<Placemark><name>FE2</name><description>British National Grid: 241135.0 E, 363595.0 N; Ground elevation: 8.54 m AOD; Land cover: under canopy</description><Point><altitudeMode>clampToGround</altitudeMode><coordinates>-4.37680113,53.14574374,0</coordinates></Point></Placemark>
<Placemark><name>FE3</name><description>British National Grid: 241104.1 E, 363546.1 N; Ground elevation: 7.54 m AOD; Land cover: under canopy</description><Point><altitudeMode>clampToGround</altitudeMode><coordinates>-4.37723844,53.14529534,0</coordinates></Point></Placemark>
<Placemark><name>FE4</name><description>British National Grid: 241223.2 E, 363692.4 N; Ground elevation: 9.13 m AOD; Land cover: under canopy</description><Point><altitudeMode>clampToGround</altitudeMode><coordinates>-4.37553190,53.14664481,0</coordinates></Point></Placemark>
<Placemark><name>L1</name><description>British National Grid: 242804.1 E, 364389.1 N; Ground elevation: 10.06 m AOD; Land cover: open ground</description><Point><altitudeMode>clampToGround</altitudeMode><coordinates>-4.35225792,53.15337110,0</coordinates></Point></Placemark>
<Placemark><name>LIS1</name><description>British National Grid: 241406.0 E, 363720.0 N; Ground elevation: 8.55 m AOD; Land cover: open ground</description><Point><altitudeMode>clampToGround</altitudeMode><coordinates>-4.37281486,53.14694716,0</coordinates></Point></Placemark>
<Placemark><name>NW12</name><description>British National Grid: 241262.0 E, 364524.0 N; Ground elevation: 13.72 m AOD; Land cover: under canopy</description><Point><altitudeMode>clampToGround</altitudeMode><coordinates>-4.37536470,53.15412515,0</coordinates></Point></Placemark>
<Placemark><name>NW8</name><description>British National Grid: 241276.1 E, 363480.1 N; Ground elevation: 7.24 m AOD; Land cover: open ground</description><Point><altitudeMode>clampToGround</altitudeMode><coordinates>-4.37463629,53.14475413,0</coordinates></Point></Placemark>
<Placemark><name>NW8B</name><description>British National Grid: 241272.0 E, 363487.0 N; Ground elevation: 7.33 m AOD; Land cover: open ground</description><Point><altitudeMode>clampToGround</altitudeMode><coordinates>-4.37470109,53.14481462,0</coordinates></Point></Placemark>
<Placemark><name>P1</name><description>British National Grid: 241243.0 E, 363283.0 N; Ground elevation: 6.83 m AOD; Land cover: open ground</description><Point><altitudeMode>clampToGround</altitudeMode><coordinates>-4.37503314,53.14297380,0</coordinates></Point></Placemark>
<Placemark><name>P2</name><description>British National Grid: 242303.0 E, 364558.0 N; Ground elevation: 9.00 m AOD; Land cover: open ground</description><Point><altitudeMode>clampToGround</altitudeMode><coordinates>-4.35982791,53.15473989,0</coordinates></Point></Placemark>
<Placemark><name>PE</name><description>British National Grid: 242739.0 E, 362823.0 N; Ground elevation: 5.15 m AOD; Land cover: open ground</description><Point><altitudeMode>clampToGround</altitudeMode><coordinates>-4.35246127,53.13928622,0</coordinates></Point></Placemark>
<Placemark><name>PW</name><description>British National Grid: 242056.0 E, 363286.0 N; Ground elevation: 6.88 m AOD; Land cover: open ground</description><Point><altitudeMode>clampToGround</altitudeMode><coordinates>-4.36289078,53.14324247,0</coordinates></Point></Placemark>
</Folder>
<Folder><name>Lake gauge (not a dipwell) (1)</name><description>Llyn Rhos-Ddu lake-level gauge. Outside the classified dipwell network.</description>
<Placemark><name>LLYNRHOS</name><description>British National Grid: 242560.2 E, 364820.9 N; Ground elevation: 7.34 m AOD</description><Point><altitudeMode>clampToGround</altitudeMode><coordinates>-4.35611425,53.15717701,0</coordinates></Point></Placemark>
</Folder>
</Document></kml>
