{
"type": "FeatureCollection",
"name": "43_05_ranwell_sites",
"crs": { "type": "name", "properties": { "name": "urn:ogc:def:crs:EPSG::27700" } },
"features": [
{ "type": "Feature", "properties": { "site_no": 1, "sketch_slack": "PL", "easting": 242586.8, "northing": 364583.2, "georef_easting": 242681.2, "georef_northing": 364647.8, "hand_move_m": 114.38758673912737, "height_m_od": 9.11, "dem_m": 9.5893747806549072, "resid_m": 0.47937478065490779, "resid_after_offset_m": 0.31749977350235037, "refined_easting": 242595.0, "refined_northing": 364581.0, "refined_move_m": 8.2462112512353212, "refined_resid_m": 0.080624954700470042, "slope": 0.049313387514332972, "matching_cells_within_R": 1132, "resolvability": "flat_floor", "basin_id": 1, "basin_shared_with_group": true, "basin_adjacent_to_group": false, "basin_consistent": true, "dist_to_slack_floor_m": 8.2462112512353212, "routeA_easting": 242598.81073377794, "routeA_northing": 364675.76112140203, "routeA_error_m": 93.337125095450261, "nearest_well": "ceh25", "nearest_well_dist_m": 92.601195375633566, "nearest_well_same_basin": true, "source": "MARTIN-RANWELL-WELLS.kml 2026-09-08 (Google Earth, hand-placed over the georeferenced sketch)" }, "geometry": { "type": "Point", "coordinates": [ 242586.799999999988358, 364583.200000000011642 ] } },
{ "type": "Feature", "properties": { "site_no": 2, "sketch_slack": "BS", "easting": 242141.1, "northing": 364125.0, "georef_easting": 242044.5, "georef_northing": 364160.8, "hand_move_m": 103.02038633202795, "height_m_od": 10.89, "dem_m": 11.091875076293945, "resid_m": 0.20187507629394474, "resid_after_offset_m": 0.040000069141387318, "refined_easting": 242143.0, "refined_northing": 364127.0, "refined_move_m": 2.8284271247461903, "refined_resid_m": 0.0031252980232228111, "slope": 0.02090222936967201, "matching_cells_within_R": 915, "resolvability": "flat_floor", "basin_id": 20, "basin_shared_with_group": true, "basin_adjacent_to_group": false, "basin_consistent": true, "dist_to_slack_floor_m": 0.0, "routeA_easting": null, "routeA_northing": null, "routeA_error_m": null, "nearest_well": "D6", "nearest_well_dist_m": 106.42490782235151, "nearest_well_same_basin": true, "source": "MARTIN-RANWELL-WELLS.kml 2026-09-08 (Google Earth, hand-placed over the georeferenced sketch)" }, "geometry": { "type": "Point", "coordinates": [ 242141.1, 364125.0 ] } },
{ "type": "Feature", "properties": { "site_no": 3, "sketch_slack": "AS", "easting": 241718.0, "northing": 363247.0, "georef_easting": 241725.1, "georef_northing": 363244.9, "hand_move_m": 7.4040529441640857, "height_m_od": 7.42, "dem_m": 7.6962499618530273, "resid_m": 0.27624996185302741, "resid_after_offset_m": 0.11437495470046999, "refined_easting": 241717.0, "refined_northing": 363249.0, "refined_move_m": 2.8284271247461903, "refined_resid_m": 0.013124783039092591, "slope": 0.015842853507644989, "matching_cells_within_R": 953, "resolvability": "flat_floor", "basin_id": 14, "basin_shared_with_group": true, "basin_adjacent_to_group": true, "basin_consistent": true, "dist_to_slack_floor_m": 2.8284271247461903, "routeA_easting": null, "routeA_northing": null, "routeA_error_m": null, "nearest_well": "ceh39", "nearest_well_dist_m": 188.00265955565629, "nearest_well_same_basin": false, "source": "MARTIN-RANWELL-WELLS.kml 2026-09-08 (Google Earth, hand-placed over the georeferenced sketch)" }, "geometry": { "type": "Point", "coordinates": [ 241718.0, 363247.0 ] } },
{ "type": "Feature", "properties": { "site_no": 4, "sketch_slack": "CG", "easting": 241874.1, "northing": 364311.0, "georef_easting": 241713.9, "georef_northing": 364529.4, "hand_move_m": 270.85531192873788, "height_m_od": 11.62, "dem_m": 11.616874933242798, "resid_m": -0.0031250667572013668, "resid_after_offset_m": -0.16500007390975879, "refined_easting": 241881.0, "refined_northing": 364311.0, "refined_move_m": 6.0, "refined_resid_m": 0.0056253743171694737, "slope": 0.0071134956877538947, "matching_cells_within_R": 2569, "resolvability": "flat_floor", "basin_id": 4, "basin_shared_with_group": true, "basin_adjacent_to_group": true, "basin_consistent": true, "dist_to_slack_floor_m": 0.0, "routeA_easting": 241932.98724834417, "routeA_northing": 364212.65554754389, "routeA_error_m": 114.6269573287136, "nearest_well": "ceh27", "nearest_well_dist_m": 132.68373953878918, "nearest_well_same_basin": true, "source": "MARTIN-RANWELL-WELLS.kml 2026-09-08 (Google Earth, hand-placed over the georeferenced sketch)" }, "geometry": { "type": "Point", "coordinates": [ 241874.1, 364311.0 ] } },
{ "type": "Feature", "properties": { "site_no": 5, "sketch_slack": "BS", "easting": 242079.6, "northing": 364010.3, "georef_easting": 241990.9, "georef_northing": 364015.6, "hand_move_m": 88.858201647354662, "height_m_od": 11.21, "dem_m": 11.254889965057373, "resid_m": 0.044889965057372194, "resid_after_offset_m": -0.11698504209518523, "refined_easting": 242075.0, "refined_northing": 364007.0, "refined_move_m": 5.6568542494923806, "refined_resid_m": 0.0046852040290819019, "slope": 0.10557200087691904, "matching_cells_within_R": 738, "resolvability": "flank", "basin_id": 20, "basin_shared_with_group": true, "basin_adjacent_to_group": false, "basin_consistent": true, "dist_to_slack_floor_m": 0.0, "routeA_easting": 242133.95759171655, "routeA_northing": 363840.42352025415, "routeA_error_m": 178.36133591129578, "nearest_well": "D6", "nearest_well_dist_m": 37.139930061854777, "nearest_well_same_basin": true, "source": "MARTIN-RANWELL-WELLS.kml 2026-09-08 (Google Earth, hand-placed over the georeferenced sketch)" }, "geometry": { "type": "Point", "coordinates": [ 242079.6, 364010.299999999988358 ] } },
{ "type": "Feature", "properties": { "site_no": 6, "sketch_slack": "BS", "easting": 242083.2, "northing": 363818.5, "georef_easting": 242022.2, "georef_northing": 363859.2, "hand_move_m": 73.331371185877515, "height_m_od": 10.56, "dem_m": 10.333750009536743, "resid_m": -0.22624999046325733, "resid_after_offset_m": -0.38812499761581476, "refined_easting": 242081.0, "refined_northing": 363825.0, "refined_move_m": 6.324555320336759, "refined_resid_m": -0.0043752741813669616, "slope": 0.033945729137809535, "matching_cells_within_R": 2639, "resolvability": "flat_floor", "basin_id": 20, "basin_shared_with_group": true, "basin_adjacent_to_group": false, "basin_consistent": true, "dist_to_slack_floor_m": 0.0, "routeA_easting": 242165.41381937484, "routeA_northing": 363712.85104141774, "routeA_error_m": 133.86864661193712, "nearest_well": "D5", "nearest_well_dist_m": 83.212257468475883, "nearest_well_same_basin": true, "source": "MARTIN-RANWELL-WELLS.kml 2026-09-08 (Google Earth, hand-placed over the georeferenced sketch)" }, "geometry": { "type": "Point", "coordinates": [ 242083.200000000011642, 363818.5 ] } },
{ "type": "Feature", "properties": { "site_no": 7, "sketch_slack": "AS", "easting": 241797.7, "northing": 363241.8, "georef_easting": 241763.1, "georef_northing": 363244.9, "hand_move_m": 34.738595250824687, "height_m_od": 6.75, "dem_m": 6.895625114440918, "resid_m": 0.14562511444091797, "resid_after_offset_m": -0.016249892711639458, "refined_easting": 241799.0, "refined_northing": 363243.0, "refined_move_m": 2.8284271247461903, "refined_resid_m": -0.0043752169609074798, "slope": 0.0089442422979328483, "matching_cells_within_R": 1274, "resolvability": "flat_floor", "basin_id": 14, "basin_shared_with_group": true, "basin_adjacent_to_group": true, "basin_consistent": true, "dist_to_slack_floor_m": 0.0, "routeA_easting": null, "routeA_northing": null, "routeA_error_m": null, "nearest_well": "ceh39", "nearest_well_dist_m": 208.61430919284115, "nearest_well_same_basin": false, "source": "MARTIN-RANWELL-WELLS.kml 2026-09-08 (Google Earth, hand-placed over the georeferenced sketch)" }, "geometry": { "type": "Point", "coordinates": [ 241797.700000000011642, 363241.799999999988358 ] } },
{ "type": "Feature", "properties": { "site_no": 8, "sketch_slack": "AS", "easting": 241648.0, "northing": 363123.1, "georef_easting": 241720.6, "georef_northing": 363151.1, "hand_move_m": 77.812338353251178, "height_m_od": 6.85, "dem_m": 7.8024997711181641, "resid_m": 0.95249977111816442, "resid_after_offset_m": 0.79062476396560699, "refined_easting": 241643.0, "refined_northing": 363121.0, "refined_move_m": 6.324555320336759, "refined_resid_m": 0.010625030994415141, "slope": 0.10514862452080433, "matching_cells_within_R": 1000, "resolvability": "flank", "basin_id": 14, "basin_shared_with_group": true, "basin_adjacent_to_group": true, "basin_consistent": true, "dist_to_slack_floor_m": 0.0, "routeA_easting": 241987.16186264454, "routeA_northing": 362928.19291816378, "routeA_error_m": 391.177120525237, "nearest_well": "nw5", "nearest_well_dist_m": 118.09280866335517, "nearest_well_same_basin": true, "source": "MARTIN-RANWELL-WELLS.kml 2026-09-08 (Google Earth, hand-placed over the georeferenced sketch)" }, "geometry": { "type": "Point", "coordinates": [ 241648.0, 363123.099999999976717 ] } },
{ "type": "Feature", "properties": { "site_no": 9, "sketch_slack": "AS", "easting": 241615.6, "northing": 362979.3, "georef_easting": 241669.2, "georef_northing": 362990.3, "hand_move_m": 54.717090565934001, "height_m_od": 6.18, "dem_m": 6.4081249237060547, "resid_m": 0.22812492370605497, "resid_after_offset_m": 0.066249916553497545, "refined_easting": 241617.0, "refined_northing": 362981.0, "refined_move_m": 2.8284271247461903, "refined_resid_m": 0.0031247830390928044, "slope": 0.0079359115762412946, "matching_cells_within_R": 1396, "resolvability": "flat_floor", "basin_id": 14, "basin_shared_with_group": true, "basin_adjacent_to_group": true, "basin_consistent": true, "dist_to_slack_floor_m": 0.0, "routeA_easting": 241959.20077139273, "routeA_northing": 362765.66907526262, "routeA_error_m": 404.59814891546421, "nearest_well": "nw5", "nearest_well_dist_m": 105.9115775446717, "nearest_well_same_basin": true, "source": "R9.kml 2026-09-08 (Google Earth, hand-placed over the georeferenced sketch)" }, "geometry": { "type": "Point", "coordinates": [ 241615.6, 362979.299999999988358 ] } },
{ "type": "Feature", "properties": { "site_no": 10, "sketch_slack": "AS", "easting": 241484.5, "northing": 362942.6, "georef_easting": 241586.6, "georef_northing": 362854.0, "hand_move_m": 135.18272818669203, "height_m_od": 4.38, "dem_m": 4.5581248998641968, "resid_m": 0.17812489986419688, "resid_after_offset_m": 0.016249892711639458, "refined_easting": 241485.0, "refined_northing": 362945.0, "refined_move_m": 2.0, "refined_resid_m": -0.0018750452995295319, "slope": 0.011894926759482059, "matching_cells_within_R": 201, "resolvability": "sparse_match", "basin_id": 13, "basin_shared_with_group": false, "basin_adjacent_to_group": true, "basin_consistent": true, "dist_to_slack_floor_m": 0.0, "routeA_easting": 241898.03588427938, "routeA_northing": 362634.60146001971, "routeA_error_m": 515.63070914822856, "nearest_well": "ceh21", "nearest_well_dist_m": 14.836899305436315, "nearest_well_same_basin": true, "source": "MARTIN-RANWELL-WELLS.kml 2026-09-08 (Google Earth, hand-placed over the georeferenced sketch)" }, "geometry": { "type": "Point", "coordinates": [ 241484.5, 362942.599999999976717 ] } },
{ "type": "Feature", "properties": { "site_no": 11, "sketch_slack": "CG", "easting": 242120.5, "northing": 364239.3, "georef_easting": 242049.0, "georef_northing": 364346.2, "hand_move_m": 128.60738703513488, "height_m_od": 11.08, "dem_m": 11.000625133514404, "resid_m": -0.079374866485595774, "resid_after_offset_m": -0.2412498736381532, "refined_easting": 242129.0, "refined_northing": 364227.0, "refined_move_m": 14.422205101855956, "refined_resid_m": -0.021874740123749348, "slope": 0.0062621550460324402, "matching_cells_within_R": 2470, "resolvability": "flat_floor", "basin_id": 1, "basin_shared_with_group": false, "basin_adjacent_to_group": true, "basin_consistent": true, "dist_to_slack_floor_m": 0.0, "routeA_easting": 242191.62734242342, "routeA_northing": 364172.46147886943, "routeA_error_m": 97.603723018843027, "nearest_well": "ceh26", "nearest_well_dist_m": 133.39114978889364, "nearest_well_same_basin": true, "source": "MARTIN-RANWELL-WELLS.kml 2026-09-08 (Google Earth, hand-placed over the georeferenced sketch)" }, "geometry": { "type": "Point", "coordinates": [ 242120.5, 364239.299999999988358 ] } },
{ "type": "Feature", "properties": { "site_no": 12, "sketch_slack": "CG", "easting": 241750.0, "northing": 364092.6, "georef_easting": 241604.5, "georef_northing": 364290.3, "hand_move_m": 245.47003890496413, "height_m_od": 10.83, "dem_m": 11.506250143051147, "resid_m": 0.67625014305114739, "resid_after_offset_m": 0.51437513589858996, "refined_easting": 241771.0, "refined_northing": 364127.0, "refined_move_m": 39.446165846632042, "refined_resid_m": 0.043124840259551434, "slope": 0.015269512843671363, "matching_cells_within_R": 123, "resolvability": "sparse_match", "basin_id": 4, "basin_shared_with_group": true, "basin_adjacent_to_group": true, "basin_consistent": true, "dist_to_slack_floor_m": 0.0, "routeA_easting": 241880.560202247, "routeA_northing": 363950.52031705814, "routeA_error_m": 192.95751531264739, "nearest_well": "nw2", "nearest_well_dist_m": 50.870388125122012, "nearest_well_same_basin": true, "source": "MARTIN-RANWELL-WELLS.kml 2026-09-08 (Google Earth, hand-placed over the georeferenced sketch)" }, "geometry": { "type": "Point", "coordinates": [ 241750.0, 364092.599999999976717 ] } },
{ "type": "Feature", "properties": { "site_no": 13, "sketch_slack": "CG", "easting": 241691.5, "northing": 364113.5, "georef_easting": 241530.7, "georef_northing": 364368.5, "hand_move_m": 301.46581895796453, "height_m_od": 11.41, "dem_m": 12.3125, "resid_m": 0.9025, "resid_after_offset_m": 0.74062499284744243, "refined_easting": 241693.0, "refined_northing": 364111.0, "refined_move_m": 2.8284271247461903, "refined_resid_m": -0.0068754267692572313, "slope": 0.085897425055205257, "matching_cells_within_R": 1550, "resolvability": "flank", "basin_id": 4, "basin_shared_with_group": true, "basin_adjacent_to_group": true, "basin_consistent": true, "dist_to_slack_floor_m": 2.0, "routeA_easting": 241817.64774693042, "routeA_northing": 364006.44249956176, "routeA_error_m": 165.45259881822923, "nearest_well": "nw2", "nearest_well_dist_m": 11.595032902068542, "nearest_well_same_basin": true, "source": "MARTIN-RANWELL-WELLS.kml 2026-09-08 (Google Earth, hand-placed over the georeferenced sketch)" }, "geometry": { "type": "Point", "coordinates": [ 241691.5, 364113.5 ] } },
{ "type": "Feature", "properties": { "site_no": 14, "sketch_slack": "BS", "easting": 242137.3, "northing": 364102.4, "georef_easting": 242033.4, "georef_northing": 364118.3, "hand_move_m": 105.10956188662229, "height_m_od": 10.65, "dem_m": 10.886875152587891, "resid_m": 0.23687515258789027, "resid_after_offset_m": 0.075000145435332843, "refined_easting": 242137.0, "refined_northing": 364107.0, "refined_move_m": 4.0, "refined_resid_m": -0.0043751215934761944, "slope": 0.0075260108179040662, "matching_cells_within_R": 943, "resolvability": "flat_floor", "basin_id": 20, "basin_shared_with_group": true, "basin_adjacent_to_group": false, "basin_consistent": true, "dist_to_slack_floor_m": 0.0, "routeA_easting": 242161.91868296836, "routeA_northing": 363950.52031705814, "routeA_error_m": 153.86200844141177, "nearest_well": "D6", "nearest_well_dist_m": 83.606166070451607, "nearest_well_same_basin": true, "source": "MARTIN-RANWELL-WELLS.kml 2026-09-08 (Google Earth, hand-placed over the georeferenced sketch)" }, "geometry": { "type": "Point", "coordinates": [ 242137.299999999988358, 364102.400000000023283 ] } },
{ "type": "Feature", "properties": { "site_no": 15, "sketch_slack": "BS", "easting": 241900.2, "northing": 363581.7, "georef_easting": 241751.9, "georef_northing": 363633.6, "hand_move_m": 157.11938136334916, "height_m_od": 9.67, "dem_m": 9.6456248760223389, "resid_m": -0.024375123977661062, "resid_after_offset_m": -0.18625013113021849, "refined_easting": 241895.0, "refined_northing": 363577.0, "refined_move_m": 7.2111025509279782, "refined_resid_m": 0.00062545061111407563, "slope": 0.0032191986600068911, "matching_cells_within_R": 2268, "resolvability": "flat_floor", "basin_id": 20, "basin_shared_with_group": true, "basin_adjacent_to_group": false, "basin_consistent": true, "dist_to_slack_floor_m": 0.0, "routeA_easting": 241978.42402162837, "routeA_northing": 363412.26931046078, "routeA_error_m": 186.61660193416409, "nearest_well": "ceh9", "nearest_well_dist_m": 225.32018876480277, "nearest_well_same_basin": false, "source": "MARTIN-RANWELL-WELLS.kml 2026-09-08 (Google Earth, hand-placed over the georeferenced sketch)" }, "geometry": { "type": "Point", "coordinates": [ 241900.200000000011642, 363581.700000000011642 ] } },
{ "type": "Feature", "properties": { "site_no": 16, "sketch_slack": "PL", "easting": 242325.6, "northing": 364428.9, "georef_easting": 242439.9, "georef_northing": 364562.9, "hand_move_m": 176.12634669463094, "height_m_od": 10.28, "dem_m": 10.126875162124634, "resid_m": -0.15312483787536557, "resid_after_offset_m": -0.314999845027923, "refined_easting": 242319.0, "refined_northing": 364409.0, "refined_move_m": 20.880613017821101, "refined_resid_m": -0.011874701976775981, "slope": 0.0081229405541835813, "matching_cells_within_R": 2185, "resolvability": "flat_floor", "basin_id": 1, "basin_shared_with_group": true, "basin_adjacent_to_group": false, "basin_consistent": true, "dist_to_slack_floor_m": 0.0, "routeA_easting": 242436.28689087677, "routeA_northing": 364501.00430107821, "routeA_error_m": 132.10078745389305, "nearest_well": "ceh23", "nearest_well_dist_m": 0.82806823392182705, "nearest_well_same_basin": true, "source": "MARTIN-RANWELL-WELLS.kml 2026-09-08 (Google Earth, hand-placed over the georeferenced sketch)" }, "geometry": { "type": "Point", "coordinates": [ 242325.6, 364428.900000000023283 ] } },
{ "type": "Feature", "properties": { "site_no": 18, "sketch_slack": "AS", "easting": 241744.7, "northing": 363292.6, "georef_easting": 241747.4, "georef_northing": 363296.3, "hand_move_m": 4.5803929962386256, "height_m_od": 7.07, "dem_m": 7.1687499284744263, "resid_m": 0.098749928474425985, "resid_after_offset_m": -0.063125078678131441, "refined_easting": 241741.0, "refined_northing": 363297.0, "refined_move_m": 5.6568542494923806, "refined_resid_m": -0.0068751025199897953, "slope": 0.0041352205583917601, "matching_cells_within_R": 1655, "resolvability": "flat_floor", "basin_id": 14, "basin_shared_with_group": true, "basin_adjacent_to_group": true, "basin_consistent": true, "dist_to_slack_floor_m": 0.0, "routeA_easting": 241994.15213545749, "routeA_northing": 363083.72648825194, "routeA_error_m": 325.35290346676874, "nearest_well": "ceh39", "nearest_well_dist_m": 144.70055286697155, "nearest_well_same_basin": false, "source": "MARTIN-RANWELL-WELLS.kml 2026-09-08 (Google Earth, hand-placed over the georeferenced sketch)" }, "geometry": { "type": "Point", "coordinates": [ 241744.700000000011642, 363292.599999999976717 ] } }
]
}
