<?xml version="1.0" encoding="UTF-8"?>
<kml xmlns="http://www.opengis.net/kml/2.2"><Document><name>Sentinel wetness the aquifer does not explain (Script 01b)</name>
<Placemark><name>perched: +1.09 m</name><Point><coordinates>-4.3551186,53.1566943,0</coordinates></Point></Placemark>
<Placemark><name>perched: +1.06 m</name><Point><coordinates>-4.3549692,53.1566973,0</coordinates></Point></Placemark>
<Placemark><name>perched: +1.01 m</name><Point><coordinates>-4.3558608,53.1565897,0</coordinates></Point></Placemark>
<Placemark><name>perched: +1.03 m</name><Point><coordinates>-4.3549643,53.1566075,0</coordinates></Point></Placemark>
<Placemark><name>perched: +1.01 m</name><Point><coordinates>-4.3548149,53.1566104,0</coordinates></Point></Placemark>
<Placemark><name>perched: +1.47 m</name><Point><coordinates>-4.3560053,53.1564969,0</coordinates></Point></Placemark>
<Placemark><name>perched: +1.23 m</name><Point><coordinates>-4.3558559,53.1564999,0</coordinates></Point></Placemark>
<Placemark><name>perched: +1.10 m</name><Point><coordinates>-4.3557065,53.1565029,0</coordinates></Point></Placemark>
<Placemark><name>perched: +1.06 m</name><Point><coordinates>-4.3561498,53.1564042,0</coordinates></Point></Placemark>
<Placemark><name>perched: +1.02 m</name><Point><coordinates>-4.3560004,53.1564071,0</coordinates></Point></Placemark>
<Placemark><name>perched: +1.03 m</name><Point><coordinates>-4.3558510,53.1564101,0</coordinates></Point></Placemark>
<Placemark><name>reached by well: +1.05 m</name><Point><coordinates>-4.3591135,53.1558959,0</coordinates></Point></Placemark>
<Placemark><name>reached by well: +1.00 m</name><Point><coordinates>-4.3588147,53.1559018,0</coordinates></Point></Placemark>
<Placemark><name>reached by well: +1.06 m</name><Point><coordinates>-4.3586653,53.1559048,0</coordinates></Point></Placemark>
<Placemark><name>reached by well: +1.04 m</name><Point><coordinates>-4.3585159,53.1559078,0</coordinates></Point></Placemark>
<Placemark><name>reached by well: +1.01 m</name><Point><coordinates>-4.3585109,53.1558179,0</coordinates></Point></Placemark>
<Placemark><name>reached by well: +1.01 m</name><Point><coordinates>-4.3592531,53.1557133,0</coordinates></Point></Placemark>
<Placemark><name>reached by well: +1.02 m</name><Point><coordinates>-4.3591037,53.1557163,0</coordinates></Point></Placemark>
<Placemark><name>perched: +1.12 m</name><Point><coordinates>-4.3593976,53.1556206,0</coordinates></Point></Placemark>
<Placemark><name>perched: +1.02 m</name><Point><coordinates>-4.3592482,53.1556235,0</coordinates></Point></Placemark>
<Placemark><name>perched: +1.13 m</name><Point><coordinates>-4.3590988,53.1556265,0</coordinates></Point></Placemark>
<Placemark><name>perched: +1.23 m</name><Point><coordinates>-4.3589493,53.1556294,0</coordinates></Point></Placemark>
<Placemark><name>perched: +1.40 m</name><Point><coordinates>-4.3587999,53.1556324,0</coordinates></Point></Placemark>
<Placemark><name>perched: +1.27 m</name><Point><coordinates>-4.3586505,53.1556354,0</coordinates></Point></Placemark>
<Placemark><name>perched: +1.31 m</name><Point><coordinates>-4.3585011,53.1556383,0</coordinates></Point></Placemark>
<Placemark><name>floor edge: +1.11 m</name><Point><coordinates>-4.3564093,53.1556798,0</coordinates></Point></Placemark>
<Placemark><name>perched: +1.34 m</name><Point><coordinates>-4.3595421,53.1555278,0</coordinates></Point></Placemark>
<Placemark><name>perched: +1.11 m</name><Point><coordinates>-4.3593927,53.1555307,0</coordinates></Point></Placemark>
<Placemark><name>perched: +1.06 m</name><Point><coordinates>-4.3592432,53.1555337,0</coordinates></Point></Placemark>
<Placemark><name>perched: +1.19 m</name><Point><coordinates>-4.3590938,53.1555367,0</coordinates></Point></Placemark>
<Placemark><name>perched: +1.26 m</name><Point><coordinates>-4.3589444,53.1555396,0</coordinates></Point></Placemark>
<Placemark><name>perched: +1.28 m</name><Point><coordinates>-4.3587950,53.1555426,0</coordinates></Point></Placemark>
<Placemark><name>perched: +1.25 m</name><Point><coordinates>-4.3596866,53.1554350,0</coordinates></Point></Placemark>
<Placemark><name>perched: +1.30 m</name><Point><coordinates>-4.3595371,53.1554380,0</coordinates></Point></Placemark>
<Placemark><name>perched: +1.19 m</name><Point><coordinates>-4.3593877,53.1554409,0</coordinates></Point></Placemark>
<Placemark><name>perched: +1.12 m</name><Point><coordinates>-4.3592383,53.1554439,0</coordinates></Point></Placemark>
<Placemark><name>perched: +1.09 m</name><Point><coordinates>-4.3590889,53.1554469,0</coordinates></Point></Placemark>
<Placemark><name>perched: +1.21 m</name><Point><coordinates>-4.3589395,53.1554498,0</coordinates></Point></Placemark>
<Placemark><name>perched: +1.15 m</name><Point><coordinates>-4.3587901,53.1554528,0</coordinates></Point></Placemark>
<Placemark><name>perched: +1.23 m</name><Point><coordinates>-4.3598310,53.1553422,0</coordinates></Point></Placemark>
<Placemark><name>perched: +1.30 m</name><Point><coordinates>-4.3596816,53.1553452,0</coordinates></Point></Placemark>
<Placemark><name>perched: +1.36 m</name><Point><coordinates>-4.3595322,53.1553482,0</coordinates></Point></Placemark>
<Placemark><name>perched: +1.36 m</name><Point><coordinates>-4.3593828,53.1553511,0</coordinates></Point></Placemark>
<Placemark><name>perched: +1.12 m</name><Point><coordinates>-4.3592334,53.1553541,0</coordinates></Point></Placemark>
<Placemark><name>perched: +1.04 m</name><Point><coordinates>-4.3590840,53.1553570,0</coordinates></Point></Placemark>
<Placemark><name>perched: +1.06 m</name><Point><coordinates>-4.3589346,53.1553600,0</coordinates></Point></Placemark>
<Placemark><name>perched: +1.12 m</name><Point><coordinates>-4.3587851,53.1553630,0</coordinates></Point></Placemark>
<Placemark><name>perched: +1.03 m</name><Point><coordinates>-4.3598261,53.1552524,0</coordinates></Point></Placemark>
<Placemark><name>perched: +1.13 m</name><Point><coordinates>-4.3596767,53.1552554,0</coordinates></Point></Placemark>
<Placemark><name>perched: +1.08 m</name><Point><coordinates>-4.3595273,53.1552583,0</coordinates></Point></Placemark>
<Placemark><name>perched: +1.13 m</name><Point><coordinates>-4.3593779,53.1552613,0</coordinates></Point></Placemark>
<Placemark><name>perched: +1.13 m</name><Point><coordinates>-4.3592285,53.1552643,0</coordinates></Point></Placemark>
<Placemark><name>perched: +1.01 m</name><Point><coordinates>-4.3590790,53.1552672,0</coordinates></Point></Placemark>
<Placemark><name>perched: +1.06 m</name><Point><coordinates>-4.3589296,53.1552702,0</coordinates></Point></Placemark>
<Placemark><name>perched: +1.02 m</name><Point><coordinates>-4.3601200,53.1551567,0</coordinates></Point></Placemark>
<Placemark><name>perched: +1.26 m</name><Point><coordinates>-4.3598212,53.1551626,0</coordinates></Point></Placemark>
<Placemark><name>perched: +1.18 m</name><Point><coordinates>-4.3595224,53.1551685,0</coordinates></Point></Placemark>
<Placemark><name>perched: +1.11 m</name><Point><coordinates>-4.3593730,53.1551715,0</coordinates></Point></Placemark>
<Placemark><name>perched: +1.02 m</name><Point><coordinates>-4.3592235,53.1551745,0</coordinates></Point></Placemark>
<Placemark><name>perched: +1.12 m</name><Point><coordinates>-4.3587753,53.1551833,0</coordinates></Point></Placemark>
<Placemark><name>perched: +1.11 m</name><Point><coordinates>-4.3586259,53.1551863,0</coordinates></Point></Placemark>
<Placemark><name>perched: +1.10 m</name><Point><coordinates>-4.3602645,53.1550639,0</coordinates></Point></Placemark>
<Placemark><name>perched: +1.44 m</name><Point><coordinates>-4.3601151,53.1550669,0</coordinates></Point></Placemark>
<Placemark><name>perched: +1.56 m</name><Point><coordinates>-4.3599657,53.1550698,0</coordinates></Point></Placemark>
<Placemark><name>perched: +1.06 m</name><Point><coordinates>-4.3598163,53.1550728,0</coordinates></Point></Placemark>
<Placemark><name>perched: +1.06 m</name><Point><coordinates>-4.3596669,53.1550758,0</coordinates></Point></Placemark>
<Placemark><name>perched: +1.04 m</name><Point><coordinates>-4.3595174,53.1550787,0</coordinates></Point></Placemark>
<Placemark><name>perched: +1.06 m</name><Point><coordinates>-4.3601102,53.1549771,0</coordinates></Point></Placemark>
<Placemark><name>perched: +1.30 m</name><Point><coordinates>-4.3599607,53.1549800,0</coordinates></Point></Placemark>
<Placemark><name>perched: +1.07 m</name><Point><coordinates>-4.3598113,53.1549830,0</coordinates></Point></Placemark>
<Placemark><name>perched: +1.20 m</name><Point><coordinates>-4.3596619,53.1549859,0</coordinates></Point></Placemark>
<Placemark><name>perched: +1.18 m</name><Point><coordinates>-4.3599558,53.1548902,0</coordinates></Point></Placemark>
<Placemark><name>perched: +1.19 m</name><Point><coordinates>-4.3598064,53.1548932,0</coordinates></Point></Placemark>
<Placemark><name>perched: +1.04 m</name><Point><coordinates>-4.3596570,53.1548961,0</coordinates></Point></Placemark>
<Placemark><name>perched: +1.04 m</name><Point><coordinates>-4.3599509,53.1548004,0</coordinates></Point></Placemark>
<Placemark><name>perched: +1.00 m</name><Point><coordinates>-4.3596521,53.1548063,0</coordinates></Point></Placemark>
<Placemark><name>perched: +1.05 m</name><Point><coordinates>-4.3587507,53.1547343,0</coordinates></Point></Placemark>
<Placemark><name>reached by well: +1.41 m</name><Point><coordinates>-4.3521716,53.1547746,0</coordinates></Point></Placemark>
<Placemark><name>reached by well: +1.17 m</name><Point><coordinates>-4.3520124,53.1545979,0</coordinates></Point></Placemark>
<Placemark><name>reached by well: +1.09 m</name><Point><coordinates>-4.3520074,53.1545081,0</coordinates></Point></Placemark>
<Placemark><name>reached by well: +1.48 m</name><Point><coordinates>-4.3480884,53.1539561,0</coordinates></Point></Placemark>
<Placemark><name>reached by well: +1.27 m</name><Point><coordinates>-4.3485317,53.1538574,0</coordinates></Point></Placemark>
<Placemark><name>reached by well: +1.08 m</name><Point><coordinates>-4.3489751,53.1537588,0</coordinates></Point></Placemark>
<Placemark><name>reached by well: +1.01 m</name><Point><coordinates>-4.3495580,53.1534775,0</coordinates></Point></Placemark>
<Placemark><name>reached by well: +1.42 m</name><Point><coordinates>-4.3480639,53.1535070,0</coordinates></Point></Placemark>
<Placemark><name>reached by well: +1.10 m</name><Point><coordinates>-4.3495531,53.1533877,0</coordinates></Point></Placemark>
<Placemark><name>reached by well: +1.06 m</name><Point><coordinates>-4.3494037,53.1533907,0</coordinates></Point></Placemark>
<Placemark><name>reached by well: +1.62 m</name><Point><coordinates>-4.3483578,53.1534113,0</coordinates></Point></Placemark>
<Placemark><name>reached by well: +1.94 m</name><Point><coordinates>-4.3482084,53.1534142,0</coordinates></Point></Placemark>
<Placemark><name>reached by well: +1.89 m</name><Point><coordinates>-4.3480590,53.1534172,0</coordinates></Point></Placemark>
<Placemark><name>reached by well: +1.83 m</name><Point><coordinates>-4.3479096,53.1534201,0</coordinates></Point></Placemark>
<Placemark><name>reached by well: +1.29 m</name><Point><coordinates>-4.3493988,53.1533008,0</coordinates></Point></Placemark>
<Placemark><name>reached by well: +1.01 m</name><Point><coordinates>-4.3492493,53.1533038,0</coordinates></Point></Placemark>
<Placemark><name>reached by well: +2.01 m</name><Point><coordinates>-4.3483529,53.1533215,0</coordinates></Point></Placemark>
<Placemark><name>reached by well: +1.96 m</name><Point><coordinates>-4.3482035,53.1533244,0</coordinates></Point></Placemark>
<Placemark><name>reached by well: +1.78 m</name><Point><coordinates>-4.3480541,53.1533274,0</coordinates></Point></Placemark>
<Placemark><name>reached by well: +1.83 m</name><Point><coordinates>-4.3479047,53.1533303,0</coordinates></Point></Placemark>
<Placemark><name>reached by well: +1.53 m</name><Point><coordinates>-4.3477553,53.1533333,0</coordinates></Point></Placemark>
<Placemark><name>floor edge: +1.37 m</name><Point><coordinates>-4.3514856,53.1531697,0</coordinates></Point></Placemark>
<Placemark><name>reached by well: +1.41 m</name><Point><coordinates>-4.3493938,53.1532110,0</coordinates></Point></Placemark>
<Placemark><name>reached by well: +1.16 m</name><Point><coordinates>-4.3492444,53.1532140,0</coordinates></Point></Placemark>
<Placemark><name>reached by well: +1.22 m</name><Point><coordinates>-4.3490950,53.1532169,0</coordinates></Point></Placemark>
<Placemark><name>reached by well: +1.27 m</name><Point><coordinates>-4.3489456,53.1532199,0</coordinates></Point></Placemark>
<Placemark><name>reached by well: +2.11 m</name><Point><coordinates>-4.3483480,53.1532317,0</coordinates></Point></Placemark>
<Placemark><name>reached by well: +1.79 m</name><Point><coordinates>-4.3481986,53.1532346,0</coordinates></Point></Placemark>
<Placemark><name>reached by well: +1.83 m</name><Point><coordinates>-4.3480492,53.1532376,0</coordinates></Point></Placemark>
<Placemark><name>reached by well: +1.84 m</name><Point><coordinates>-4.3478998,53.1532405,0</coordinates></Point></Placemark>
<Placemark><name>reached by well: +1.21 m</name><Point><coordinates>-4.3477504,53.1532435,0</coordinates></Point></Placemark>
<Placemark><name>floor edge: +1.62 m</name><Point><coordinates>-4.3513312,53.1530829,0</coordinates></Point></Placemark>
<Placemark><name>reached by well: +1.42 m</name><Point><coordinates>-4.3493889,53.1531212,0</coordinates></Point></Placemark>
<Placemark><name>reached by well: +1.29 m</name><Point><coordinates>-4.3492395,53.1531242,0</coordinates></Point></Placemark>
<Placemark><name>reached by well: +1.41 m</name><Point><coordinates>-4.3490901,53.1531271,0</coordinates></Point></Placemark>
<Placemark><name>reached by well: +1.37 m</name><Point><coordinates>-4.3489407,53.1531301,0</coordinates></Point></Placemark>
<Placemark><name>reached by well: +1.75 m</name><Point><coordinates>-4.3483431,53.1531419,0</coordinates></Point></Placemark>
<Placemark><name>reached by well: +1.81 m</name><Point><coordinates>-4.3481937,53.1531448,0</coordinates></Point></Placemark>
<Placemark><name>reached by well: +1.96 m</name><Point><coordinates>-4.3480443,53.1531477,0</coordinates></Point></Placemark>
<Placemark><name>reached by well: +2.04 m</name><Point><coordinates>-4.3478949,53.1531507,0</coordinates></Point></Placemark>
<Placemark><name>reached by well: +1.48 m</name><Point><coordinates>-4.3477455,53.1531536,0</coordinates></Point></Placemark>
<Placemark><name>perched: +1.33 m</name><Point><coordinates>-4.3671633,53.1526791,0</coordinates></Point></Placemark>
<Placemark><name>perched: +1.51 m</name><Point><coordinates>-4.3670139,53.1526821,0</coordinates></Point></Placemark>
<Placemark><name>perched: +1.46 m</name><Point><coordinates>-4.3514757,53.1529901,0</coordinates></Point></Placemark>
<Placemark><name>reached by well: +1.53 m</name><Point><coordinates>-4.3492346,53.1530343,0</coordinates></Point></Placemark>
<Placemark><name>reached by well: +1.71 m</name><Point><coordinates>-4.3490852,53.1530373,0</coordinates></Point></Placemark>
<Placemark><name>reached by well: +2.09 m</name><Point><coordinates>-4.3484876,53.1530491,0</coordinates></Point></Placemark>
<Placemark><name>reached by well: +1.96 m</name><Point><coordinates>-4.3483382,53.1530520,0</coordinates></Point></Placemark>
<Placemark><name>reached by well: +1.98 m</name><Point><coordinates>-4.3481888,53.1530550,0</coordinates></Point></Placemark>
<Placemark><name>reached by well: +1.18 m</name><Point><coordinates>-4.3480394,53.1530579,0</coordinates></Point></Placemark>
<Placemark><name>reached by well: +1.22 m</name><Point><coordinates>-4.3478900,53.1530609,0</coordinates></Point></Placemark>
<Placemark><name>reached by well: +1.62 m</name><Point><coordinates>-4.3492297,53.1529445,0</coordinates></Point></Placemark>
<Placemark><name>reached by well: +1.51 m</name><Point><coordinates>-4.3490803,53.1529475,0</coordinates></Point></Placemark>
<Placemark><name>reached by well: +1.98 m</name><Point><coordinates>-4.3484827,53.1529593,0</coordinates></Point></Placemark>
<Placemark><name>reached by well: +1.27 m</name><Point><coordinates>-4.3483333,53.1529622,0</coordinates></Point></Placemark>
<Placemark><name>reached by well: +1.37 m</name><Point><coordinates>-4.3495236,53.1528488,0</coordinates></Point></Placemark>
<Placemark><name>reached by well: +1.35 m</name><Point><coordinates>-4.3493742,53.1528518,0</coordinates></Point></Placemark>
<Placemark><name>reached by well: +1.54 m</name><Point><coordinates>-4.3492248,53.1528547,0</coordinates></Point></Placemark>
<Placemark><name>reached by well: +1.08 m</name><Point><coordinates>-4.3490754,53.1528577,0</coordinates></Point></Placemark>
<Placemark><name>reached by well: +1.20 m</name><Point><coordinates>-4.3484778,53.1528695,0</coordinates></Point></Placemark>
<Placemark><name>reached by well: +1.24 m</name><Point><coordinates>-4.3496681,53.1527561,0</coordinates></Point></Placemark>
<Placemark><name>reached by well: +1.16 m</name><Point><coordinates>-4.3495187,53.1527590,0</coordinates></Point></Placemark>
<Placemark><name>reached by well: +1.31 m</name><Point><coordinates>-4.3493693,53.1527620,0</coordinates></Point></Placemark>
<Placemark><name>reached by well: +1.50 m</name><Point><coordinates>-4.3492199,53.1527649,0</coordinates></Point></Placemark>
<Placemark><name>reached by well: +1.59 m</name><Point><coordinates>-4.3490705,53.1527679,0</coordinates></Point></Placemark>
<Placemark><name>reached by well: +1.51 m</name><Point><coordinates>-4.3481741,53.1527855,0</coordinates></Point></Placemark>
<Placemark><name>reached by well: +2.13 m</name><Point><coordinates>-4.3480247,53.1527885,0</coordinates></Point></Placemark>
<Placemark><name>reached by well: +1.06 m</name><Point><coordinates>-4.3499620,53.1526603,0</coordinates></Point></Placemark>
<Placemark><name>reached by well: +1.18 m</name><Point><coordinates>-4.3498126,53.1526633,0</coordinates></Point></Placemark>
<Placemark><name>reached by well: +1.14 m</name><Point><coordinates>-4.3496632,53.1526662,0</coordinates></Point></Placemark>
<Placemark><name>reached by well: +1.14 m</name><Point><coordinates>-4.3495138,53.1526692,0</coordinates></Point></Placemark>
<Placemark><name>reached by well: +1.25 m</name><Point><coordinates>-4.3493644,53.1526721,0</coordinates></Point></Placemark>
<Placemark><name>reached by well: +1.33 m</name><Point><coordinates>-4.3492150,53.1526751,0</coordinates></Point></Placemark>
<Placemark><name>reached by well: +1.41 m</name><Point><coordinates>-4.3490656,53.1526780,0</coordinates></Point></Placemark>
<Placemark><name>reached by well: +1.78 m</name><Point><coordinates>-4.3483186,53.1526928,0</coordinates></Point></Placemark>
<Placemark><name>reached by well: +2.44 m</name><Point><coordinates>-4.3481692,53.1526957,0</coordinates></Point></Placemark>
<Placemark><name>reached by well: +2.46 m</name><Point><coordinates>-4.3480198,53.1526987,0</coordinates></Point></Placemark>
<Placemark><name>reached by well: +1.02 m</name><Point><coordinates>-4.3499571,53.1525705,0</coordinates></Point></Placemark>
<Placemark><name>reached by well: +1.11 m</name><Point><coordinates>-4.3498077,53.1525735,0</coordinates></Point></Placemark>
<Placemark><name>reached by well: +1.17 m</name><Point><coordinates>-4.3496583,53.1525764,0</coordinates></Point></Placemark>
<Placemark><name>reached by well: +1.22 m</name><Point><coordinates>-4.3495089,53.1525794,0</coordinates></Point></Placemark>
<Placemark><name>reached by well: +1.27 m</name><Point><coordinates>-4.3493595,53.1525823,0</coordinates></Point></Placemark>
<Placemark><name>reached by well: +1.28 m</name><Point><coordinates>-4.3492101,53.1525853,0</coordinates></Point></Placemark>
<Placemark><name>reached by well: +1.48 m</name><Point><coordinates>-4.3490607,53.1525882,0</coordinates></Point></Placemark>
<Placemark><name>reached by well: +2.46 m</name><Point><coordinates>-4.3483137,53.1526030,0</coordinates></Point></Placemark>
<Placemark><name>reached by well: +2.51 m</name><Point><coordinates>-4.3481643,53.1526059,0</coordinates></Point></Placemark>
<Placemark><name>reached by well: +1.01 m</name><Point><coordinates>-4.3496534,53.1524866,0</coordinates></Point></Placemark>
<Placemark><name>reached by well: +1.17 m</name><Point><coordinates>-4.3495040,53.1524896,0</coordinates></Point></Placemark>
<Placemark><name>reached by well: +1.34 m</name><Point><coordinates>-4.3493546,53.1524925,0</coordinates></Point></Placemark>
<Placemark><name>reached by well: +1.42 m</name><Point><coordinates>-4.3492052,53.1524955,0</coordinates></Point></Placemark>
<Placemark><name>reached by well: +1.50 m</name><Point><coordinates>-4.3490558,53.1524984,0</coordinates></Point></Placemark>
<Placemark><name>reached by well: +2.50 m</name><Point><coordinates>-4.3483088,53.1525132,0</coordinates></Point></Placemark>
<Placemark><name>reached by well: +2.44 m</name><Point><coordinates>-4.3481594,53.1525161,0</coordinates></Point></Placemark>
<Placemark><name>reached by well: +1.07 m</name><Point><coordinates>-4.3496485,53.1523968,0</coordinates></Point></Placemark>
<Placemark><name>reached by well: +1.16 m</name><Point><coordinates>-4.3494991,53.1523998,0</coordinates></Point></Placemark>
<Placemark><name>reached by well: +1.33 m</name><Point><coordinates>-4.3493497,53.1524027,0</coordinates></Point></Placemark>
<Placemark><name>reached by well: +1.20 m</name><Point><coordinates>-4.3492003,53.1524057,0</coordinates></Point></Placemark>
<Placemark><name>reached by well: +1.26 m</name><Point><coordinates>-4.3490509,53.1524086,0</coordinates></Point></Placemark>
<Placemark><name>reached by well: +1.66 m</name><Point><coordinates>-4.3489015,53.1524115,0</coordinates></Point></Placemark>
<Placemark><name>reached by well: +1.76 m</name><Point><coordinates>-4.3487521,53.1524145,0</coordinates></Point></Placemark>
<Placemark><name>reached by well: +2.59 m</name><Point><coordinates>-4.3483039,53.1524233,0</coordinates></Point></Placemark>
<Placemark><name>reached by well: +2.54 m</name><Point><coordinates>-4.3481545,53.1524263,0</coordinates></Point></Placemark>
<Placemark><name>reached by well: +2.30 m</name><Point><coordinates>-4.3480050,53.1524292,0</coordinates></Point></Placemark>
<Placemark><name>reached by well: +1.38 m</name><Point><coordinates>-4.3497930,53.1523040,0</coordinates></Point></Placemark>
<Placemark><name>reached by well: +1.41 m</name><Point><coordinates>-4.3496436,53.1523070,0</coordinates></Point></Placemark>
<Placemark><name>reached by well: +1.13 m</name><Point><coordinates>-4.3494942,53.1523099,0</coordinates></Point></Placemark>
<Placemark><name>reached by well: +1.33 m</name><Point><coordinates>-4.3493448,53.1523129,0</coordinates></Point></Placemark>
<Placemark><name>reached by well: +1.21 m</name><Point><coordinates>-4.3491954,53.1523158,0</coordinates></Point></Placemark>
<Placemark><name>reached by well: +1.29 m</name><Point><coordinates>-4.3490460,53.1523188,0</coordinates></Point></Placemark>
<Placemark><name>reached by well: +1.65 m</name><Point><coordinates>-4.3488966,53.1523217,0</coordinates></Point></Placemark>
<Placemark><name>reached by well: +1.71 m</name><Point><coordinates>-4.3487472,53.1523247,0</coordinates></Point></Placemark>
<Placemark><name>reached by well: +1.63 m</name><Point><coordinates>-4.3481495,53.1523365,0</coordinates></Point></Placemark>
<Placemark><name>reached by well: +1.13 m</name><Point><coordinates>-4.3496387,53.1522172,0</coordinates></Point></Placemark>
<Placemark><name>reached by well: +1.35 m</name><Point><coordinates>-4.3493399,53.1522231,0</coordinates></Point></Placemark>
<Placemark><name>reached by well: +1.40 m</name><Point><coordinates>-4.3491905,53.1522260,0</coordinates></Point></Placemark>
<Placemark><name>reached by well: +1.42 m</name><Point><coordinates>-4.3490411,53.1522290,0</coordinates></Point></Placemark>
<Placemark><name>reached by well: +1.57 m</name><Point><coordinates>-4.3488917,53.1522319,0</coordinates></Point></Placemark>
<Placemark><name>reached by well: +1.64 m</name><Point><coordinates>-4.3487423,53.1522349,0</coordinates></Point></Placemark>
<Placemark><name>reached by well: +1.05 m</name><Point><coordinates>-4.3485929,53.1522378,0</coordinates></Point></Placemark>
<Placemark><name>reached by well: +1.42 m</name><Point><coordinates>-4.3493350,53.1521333,0</coordinates></Point></Placemark>
<Placemark><name>reached by well: +1.51 m</name><Point><coordinates>-4.3491856,53.1521362,0</coordinates></Point></Placemark>
<Placemark><name>reached by well: +1.55 m</name><Point><coordinates>-4.3490362,53.1521392,0</coordinates></Point></Placemark>
<Placemark><name>reached by well: +1.65 m</name><Point><coordinates>-4.3488868,53.1521421,0</coordinates></Point></Placemark>
<Placemark><name>reached by well: +1.03 m</name><Point><coordinates>-4.3487374,53.1521451,0</coordinates></Point></Placemark>
<Placemark><name>reached by well: +1.48 m</name><Point><coordinates>-4.3493301,53.1520434,0</coordinates></Point></Placemark>
<Placemark><name>reached by well: +1.57 m</name><Point><coordinates>-4.3491807,53.1520464,0</coordinates></Point></Placemark>
<Placemark><name>reached by well: +1.62 m</name><Point><coordinates>-4.3490313,53.1520493,0</coordinates></Point></Placemark>
<Placemark><name>reached by well: +1.07 m</name><Point><coordinates>-4.3488819,53.1520523,0</coordinates></Point></Placemark>
<Placemark><name>perched: +1.05 m</name><Point><coordinates>-4.3694400,53.1505659,0</coordinates></Point></Placemark>
<Placemark><name>shadow: +1.13 m</name><Point><coordinates>-4.3498001,53.1496965,0</coordinates></Point></Placemark>
<Placemark><name>shadow: +1.14 m</name><Point><coordinates>-4.3496507,53.1496994,0</coordinates></Point></Placemark>
<Placemark><name>shadow: +1.13 m</name><Point><coordinates>-4.3495013,53.1497024,0</coordinates></Point></Placemark>
<Placemark><name>shadow: +1.25 m</name><Point><coordinates>-4.3499446,53.1496037,0</coordinates></Point></Placemark>
<Placemark><name>shadow: +2.46 m</name><Point><coordinates>-4.3496458,53.1496096,0</coordinates></Point></Placemark>
<Placemark><name>reached by well: +1.05 m</name><Point><coordinates>-4.3489943,53.1486335,0</coordinates></Point></Placemark>
<Placemark><name>reached by well: +1.18 m</name><Point><coordinates>-4.3491388,53.1485407,0</coordinates></Point></Placemark>
<Placemark><name>shadow: +1.11 m</name><Point><coordinates>-4.3491339,53.1484509,0</coordinates></Point></Placemark>
<Placemark><name>perched: +1.06 m</name><Point><coordinates>-4.3688187,53.1474314,0</coordinates></Point></Placemark>
<Placemark><name>floor edge: +1.65 m</name><Point><coordinates>-4.3492440,53.1477294,0</coordinates></Point></Placemark>
<Placemark><name>floor edge: +1.22 m</name><Point><coordinates>-4.3689582,53.1472488,0</coordinates></Point></Placemark>
<Placemark><name>floor edge: +1.39 m</name><Point><coordinates>-4.3493885,53.1476367,0</coordinates></Point></Placemark>
<Placemark><name>shadow: +1.82 m</name><Point><coordinates>-4.3492391,53.1476396,0</coordinates></Point></Placemark>
<Placemark><name>perched: +1.08 m</name><Point><coordinates>-4.3490897,53.1476426,0</coordinates></Point></Placemark>
<Placemark><name>perched: +1.33 m</name><Point><coordinates>-4.3483428,53.1476573,0</coordinates></Point></Placemark>
<Placemark><name>perched: +1.14 m</name><Point><coordinates>-4.3701483,53.1471352,0</coordinates></Point></Placemark>
<Placemark><name>perched: +1.10 m</name><Point><coordinates>-4.3699989,53.1471381,0</coordinates></Point></Placemark>
<Placemark><name>perched: +1.49 m</name><Point><coordinates>-4.3698495,53.1471411,0</coordinates></Point></Placemark>
<Placemark><name>floor edge: +1.29 m</name><Point><coordinates>-4.3691026,53.1471560,0</coordinates></Point></Placemark>
<Placemark><name>perched: +1.05 m</name><Point><coordinates>-4.3607370,53.1473222,0</coordinates></Point></Placemark>
<Placemark><name>floor edge: +1.44 m</name><Point><coordinates>-4.3493836,53.1475469,0</coordinates></Point></Placemark>
<Placemark><name>perched: +1.40 m</name><Point><coordinates>-4.3490848,53.1475528,0</coordinates></Point></Placemark>
<Placemark><name>perched: +1.07 m</name><Point><coordinates>-4.3487860,53.1475587,0</coordinates></Point></Placemark>
<Placemark><name>perched: +1.22 m</name><Point><coordinates>-4.3486367,53.1475616,0</coordinates></Point></Placemark>
<Placemark><name>perched: +1.34 m</name><Point><coordinates>-4.3484873,53.1475646,0</coordinates></Point></Placemark>
<Placemark><name>perched: +1.47 m</name><Point><coordinates>-4.3701434,53.1470454,0</coordinates></Point></Placemark>
<Placemark><name>reached by well: +1.06 m</name><Point><coordinates>-4.3693964,53.1470602,0</coordinates></Point></Placemark>
<Placemark><name>floor edge: +1.37 m</name><Point><coordinates>-4.3692471,53.1470632,0</coordinates></Point></Placemark>
<Placemark><name>shadow: +1.07 m</name><Point><coordinates>-4.3682014,53.1470840,0</coordinates></Point></Placemark>
<Placemark><name>shadow: +1.17 m</name><Point><coordinates>-4.3487811,53.1474688,0</coordinates></Point></Placemark>
<Placemark><name>shadow: +1.34 m</name><Point><coordinates>-4.3486318,53.1474718,0</coordinates></Point></Placemark>
<Placemark><name>perched: +1.00 m</name><Point><coordinates>-4.3696903,53.1469645,0</coordinates></Point></Placemark>
<Placemark><name>perched: +1.21 m</name><Point><coordinates>-4.3693915,53.1469704,0</coordinates></Point></Placemark>
<Placemark><name>shadow: +1.24 m</name><Point><coordinates>-4.3667026,53.1470239,0</coordinates></Point></Placemark>
<Placemark><name>perched: +1.02 m</name><Point><coordinates>-4.3696804,53.1467848,0</coordinates></Point></Placemark>
<Placemark><name>floor edge: +1.55 m</name><Point><coordinates>-4.3696754,53.1466950,0</coordinates></Point></Placemark>
<Placemark><name>perched: +1.44 m</name><Point><coordinates>-4.3463664,53.1470669,0</coordinates></Point></Placemark>
<Placemark><name>perched: +1.66 m</name><Point><coordinates>-4.3462171,53.1470699,0</coordinates></Point></Placemark>
<Placemark><name>floor edge: +1.41 m</name><Point><coordinates>-4.3494987,53.1469152,0</coordinates></Point></Placemark>
<Placemark><name>perched: +1.56 m</name><Point><coordinates>-4.3463615,53.1469771,0</coordinates></Point></Placemark>
<Placemark><name>perched: +1.71 m</name><Point><coordinates>-4.3462122,53.1469801,0</coordinates></Point></Placemark>
<Placemark><name>perched: +1.70 m</name><Point><coordinates>-4.3460628,53.1469830,0</coordinates></Point></Placemark>
<Placemark><name>perched: +1.49 m</name><Point><coordinates>-4.3465060,53.1468843,0</coordinates></Point></Placemark>
<Placemark><name>perched: +1.57 m</name><Point><coordinates>-4.3463566,53.1468873,0</coordinates></Point></Placemark>
<Placemark><name>perched: +1.67 m</name><Point><coordinates>-4.3462073,53.1468902,0</coordinates></Point></Placemark>
<Placemark><name>perched: +1.66 m</name><Point><coordinates>-4.3460579,53.1468932,0</coordinates></Point></Placemark>
<Placemark><name>perched: +1.67 m</name><Point><coordinates>-4.3459085,53.1468961,0</coordinates></Point></Placemark>
<Placemark><name>perched: +1.46 m</name><Point><coordinates>-4.3466505,53.1467916,0</coordinates></Point></Placemark>
<Placemark><name>perched: +1.41 m</name><Point><coordinates>-4.3465011,53.1467945,0</coordinates></Point></Placemark>
<Placemark><name>perched: +1.50 m</name><Point><coordinates>-4.3463517,53.1467975,0</coordinates></Point></Placemark>
<Placemark><name>perched: +1.55 m</name><Point><coordinates>-4.3462024,53.1468004,0</coordinates></Point></Placemark>
<Placemark><name>perched: +1.57 m</name><Point><coordinates>-4.3460530,53.1468034,0</coordinates></Point></Placemark>
<Placemark><name>floor edge: +1.65 m</name><Point><coordinates>-4.3459036,53.1468063,0</coordinates></Point></Placemark>
<Placemark><name>floor edge: +1.94 m</name><Point><coordinates>-4.3447085,53.1468299,0</coordinates></Point></Placemark>
<Placemark><name>shadow: +1.58 m</name><Point><coordinates>-4.3666631,53.1463054,0</coordinates></Point></Placemark>
<Placemark><name>floor edge: +1.45 m</name><Point><coordinates>-4.3665137,53.1463084,0</coordinates></Point></Placemark>
<Placemark><name>shadow: +1.19 m</name><Point><coordinates>-4.3541149,53.1465543,0</coordinates></Point></Placemark>
<Placemark><name>perched: +1.33 m</name><Point><coordinates>-4.3466456,53.1467018,0</coordinates></Point></Placemark>
<Placemark><name>perched: +1.39 m</name><Point><coordinates>-4.3464962,53.1467047,0</coordinates></Point></Placemark>
<Placemark><name>perched: +1.74 m</name><Point><coordinates>-4.3463468,53.1467077,0</coordinates></Point></Placemark>
<Placemark><name>perched: +1.49 m</name><Point><coordinates>-4.3461975,53.1467106,0</coordinates></Point></Placemark>
<Placemark><name>floor edge: +1.63 m</name><Point><coordinates>-4.3460481,53.1467136,0</coordinates></Point></Placemark>
<Placemark><name>perched: +1.64 m</name><Point><coordinates>-4.3458987,53.1467165,0</coordinates></Point></Placemark>
<Placemark><name>perched: +1.32 m</name><Point><coordinates>-4.3466407,53.1466120,0</coordinates></Point></Placemark>
<Placemark><name>perched: +1.36 m</name><Point><coordinates>-4.3464913,53.1466149,0</coordinates></Point></Placemark>
<Placemark><name>perched: +1.41 m</name><Point><coordinates>-4.3461926,53.1466208,0</coordinates></Point></Placemark>
<Placemark><name>perched: +1.58 m</name><Point><coordinates>-4.3460432,53.1466237,0</coordinates></Point></Placemark>
<Placemark><name>floor edge: +1.89 m</name><Point><coordinates>-4.3458938,53.1466267,0</coordinates></Point></Placemark>
<Placemark><name>floor edge: +1.39 m</name><Point><coordinates>-4.3472334,53.1465104,0</coordinates></Point></Placemark>
<Placemark><name>perched: +1.25 m</name><Point><coordinates>-4.3467852,53.1465192,0</coordinates></Point></Placemark>
<Placemark><name>perched: +1.25 m</name><Point><coordinates>-4.3466358,53.1465221,0</coordinates></Point></Placemark>
<Placemark><name>perched: +1.80 m</name><Point><coordinates>-4.3464864,53.1465251,0</coordinates></Point></Placemark>
<Placemark><name>perched: +1.80 m</name><Point><coordinates>-4.3460383,53.1465339,0</coordinates></Point></Placemark>
<Placemark><name>shadow: +1.12 m</name><Point><coordinates>-4.3543989,53.1462789,0</coordinates></Point></Placemark>
<Placemark><name>perched: +1.18 m</name><Point><coordinates>-4.3472285,53.1464205,0</coordinates></Point></Placemark>
<Placemark><name>perched: +1.22 m</name><Point><coordinates>-4.3638001,53.1459128,0</coordinates></Point></Placemark>
<Placemark><name>perched: +1.04 m</name><Point><coordinates>-4.3640890,53.1457272,0</coordinates></Point></Placemark>
<Placemark><name>shadow: +1.12 m</name><Point><coordinates>-4.3666235,53.1455869,0</coordinates></Point></Placemark>
<Placemark><name>perched: +1.17 m</name><Point><coordinates>-4.3652742,53.1455238,0</coordinates></Point></Placemark>
<Placemark><name>floor edge: +1.27 m</name><Point><coordinates>-4.3654186,53.1454310,0</coordinates></Point></Placemark>
<Placemark><name>floor edge: +1.26 m</name><Point><coordinates>-4.3642236,53.1454548,0</coordinates></Point></Placemark>
<Placemark><name>perched: +1.16 m</name><Point><coordinates>-4.3655631,53.1453383,0</coordinates></Point></Placemark>
<Placemark><name>perched: +1.12 m</name><Point><coordinates>-4.3643680,53.1453620,0</coordinates></Point></Placemark>
<Placemark><name>shadow: +1.74 m</name><Point><coordinates>-4.3625755,53.1453976,0</coordinates></Point></Placemark>
<Placemark><name>floor edge: +1.20 m</name><Point><coordinates>-4.3655581,53.1452484,0</coordinates></Point></Placemark>
<Placemark><name>shadow: +2.02 m</name><Point><coordinates>-4.3627199,53.1453048,0</coordinates></Point></Placemark>
<Placemark><name>perched: +1.63 m</name><Point><coordinates>-4.3658519,53.1451527,0</coordinates></Point></Placemark>
<Placemark><name>floor edge: +1.81 m</name><Point><coordinates>-4.3655532,53.1451586,0</coordinates></Point></Placemark>
<Placemark><name>floor edge: +1.36 m</name><Point><coordinates>-4.3651050,53.1451675,0</coordinates></Point></Placemark>
<Placemark><name>perched: +1.03 m</name><Point><coordinates>-4.3649557,53.1451705,0</coordinates></Point></Placemark>
<Placemark><name>perched: +1.01 m</name><Point><coordinates>-4.3648063,53.1451735,0</coordinates></Point></Placemark>
<Placemark><name>floor edge: +1.28 m</name><Point><coordinates>-4.3646569,53.1451764,0</coordinates></Point></Placemark>
<Placemark><name>perched: +1.02 m</name><Point><coordinates>-4.3604743,53.1452595,0</coordinates></Point></Placemark>
<Placemark><name>perched: +2.21 m</name><Point><coordinates>-4.3595780,53.1452772,0</coordinates></Point></Placemark>
<Placemark><name>shadow: +1.93 m</name><Point><coordinates>-4.3701789,53.1449767,0</coordinates></Point></Placemark>
<Placemark><name>floor edge: +1.23 m</name><Point><coordinates>-4.3600212,53.1451785,0</coordinates></Point></Placemark>
<Placemark><name>floor edge: +1.98 m</name><Point><coordinates>-4.3598719,53.1451815,0</coordinates></Point></Placemark>
<Placemark><name>shadow: +3.23 m</name><Point><coordinates>-4.3470252,53.1454355,0</coordinates></Point></Placemark>
<Placemark><name>floor edge: +2.24 m</name><Point><coordinates>-4.3755515,53.1447797,0</coordinates></Point></Placemark>
<Placemark><name>floor edge: +1.20 m</name><Point><coordinates>-4.3649458,53.1449909,0</coordinates></Point></Placemark>
<Placemark><name>shadow: +1.83 m</name><Point><coordinates>-4.3630039,53.1450295,0</coordinates></Point></Placemark>
<Placemark><name>perched: +1.04 m</name><Point><coordinates>-4.3601657,53.1450858,0</coordinates></Point></Placemark>
<Placemark><name>floor edge: +1.50 m</name><Point><coordinates>-4.3600163,53.1450887,0</coordinates></Point></Placemark>
<Placemark><name>floor edge: +2.11 m</name><Point><coordinates>-4.3756960,53.1446869,0</coordinates></Point></Placemark>
<Placemark><name>perched: +1.39 m</name><Point><coordinates>-4.3755466,53.1446898,0</coordinates></Point></Placemark>
<Placemark><name>perched: +1.01 m</name><Point><coordinates>-4.3604595,53.1449900,0</coordinates></Point></Placemark>
<Placemark><name>perched: +1.33 m</name><Point><coordinates>-4.3601608,53.1449960,0</coordinates></Point></Placemark>
<Placemark><name>floor edge: +1.93 m</name><Point><coordinates>-4.3756910,53.1445971,0</coordinates></Point></Placemark>
<Placemark><name>perched: +1.12 m</name><Point><coordinates>-4.3603052,53.1449032,0</coordinates></Point></Placemark>
<Placemark><name>perched: +1.67 m</name><Point><coordinates>-4.3601558,53.1449061,0</coordinates></Point></Placemark>
<Placemark><name>shadow: +2.00 m</name><Point><coordinates>-4.3758354,53.1445043,0</coordinates></Point></Placemark>
<Placemark><name>floor edge: +2.59 m</name><Point><coordinates>-4.3759798,53.1444115,0</coordinates></Point></Placemark>
<Placemark><name>shadow: +1.14 m</name><Point><coordinates>-4.3674654,53.1445811,0</coordinates></Point></Placemark>
<Placemark><name>floor edge: +2.46 m</name><Point><coordinates>-4.3761242,53.1443187,0</coordinates></Point></Placemark>
<Placemark><name>perched: +1.27 m</name><Point><coordinates>-4.3744811,53.1443515,0</coordinates></Point></Placemark>
<Placemark><name>perched: +1.37 m</name><Point><coordinates>-4.3761193,53.1442289,0</coordinates></Point></Placemark>
<Placemark><name>floor edge: +1.29 m</name><Point><coordinates>-4.3744762,53.1442617,0</coordinates></Point></Placemark>
<Placemark><name>perched: +2.07 m</name><Point><coordinates>-4.3762637,53.1441361,0</coordinates></Point></Placemark>
<Placemark><name>perched: +2.16 m</name><Point><coordinates>-4.3764081,53.1440433,0</coordinates></Point></Placemark>
<Placemark><name>perched: +1.03 m</name><Point><coordinates>-4.3762587,53.1440463,0</coordinates></Point></Placemark>
<Placemark><name>perched: +2.12 m</name><Point><coordinates>-4.3752131,53.1440671,0</coordinates></Point></Placemark>
<Placemark><name>perched: +1.14 m</name><Point><coordinates>-4.3764031,53.1439535,0</coordinates></Point></Placemark>
<Placemark><name>shadow: +2.63 m</name><Point><coordinates>-4.3758057,53.1439654,0</coordinates></Point></Placemark>
<Placemark><name>floor edge: +2.30 m</name><Point><coordinates>-4.3755069,53.1439714,0</coordinates></Point></Placemark>
<Placemark><name>floor edge: +2.24 m</name><Point><coordinates>-4.3753575,53.1439743,0</coordinates></Point></Placemark>
<Placemark><name>perched: +1.25 m</name><Point><coordinates>-4.3765476,53.1438607,0</coordinates></Point></Placemark>
<Placemark><name>shadow: +1.71 m</name><Point><coordinates>-4.3759501,53.1438726,0</coordinates></Point></Placemark>
<Placemark><name>shadow: +1.14 m</name><Point><coordinates>-4.3744464,53.1437228,0</coordinates></Point></Placemark>
<Placemark><name>perched: +1.23 m</name><Point><coordinates>-4.3563673,53.1439922,0</coordinates></Point></Placemark>
<Placemark><name>floor edge: +1.26 m</name><Point><coordinates>-4.3562179,53.1439952,0</coordinates></Point></Placemark>
<Placemark><name>perched: +2.27 m</name><Point><coordinates>-4.3769758,53.1434925,0</coordinates></Point></Placemark>
<Placemark><name>shadow: +1.04 m</name><Point><coordinates>-4.3745859,53.1435402,0</coordinates></Point></Placemark>
<Placemark><name>perched: +1.40 m</name><Point><coordinates>-4.3565117,53.1438994,0</coordinates></Point></Placemark>
<Placemark><name>perched: +1.47 m</name><Point><coordinates>-4.3563624,53.1439024,0</coordinates></Point></Placemark>
<Placemark><name>perched: +1.15 m</name><Point><coordinates>-4.3562130,53.1439053,0</coordinates></Point></Placemark>
<Placemark><name>shadow: +1.62 m</name><Point><coordinates>-4.3566562,53.1438067,0</coordinates></Point></Placemark>
<Placemark><name>perched: +1.44 m</name><Point><coordinates>-4.3563574,53.1438126,0</coordinates></Point></Placemark>
<Placemark><name>perched: +1.48 m</name><Point><coordinates>-4.3562081,53.1438155,0</coordinates></Point></Placemark>
<Placemark><name>perched: +1.15 m</name><Point><coordinates>-4.3560587,53.1438185,0</coordinates></Point></Placemark>
<Placemark><name>perched: +1.88 m</name><Point><coordinates>-4.3563525,53.1437228,0</coordinates></Point></Placemark>
<Placemark><name>floor edge: +1.09 m</name><Point><coordinates>-4.3562031,53.1437257,0</coordinates></Point></Placemark>
<Placemark><name>reached by well: +1.20 m</name><Point><coordinates>-4.3424606,53.1439970,0</coordinates></Point></Placemark>
<Placemark><name>reached by well: +1.20 m</name><Point><coordinates>-4.3423112,53.1439999,0</coordinates></Point></Placemark>
<Placemark><name>perched: +1.90 m</name><Point><coordinates>-4.3563476,53.1436329,0</coordinates></Point></Placemark>
<Placemark><name>reached by well: +1.10 m</name><Point><coordinates>-4.3427545,53.1439013,0</coordinates></Point></Placemark>
<Placemark><name>reached by well: +1.15 m</name><Point><coordinates>-4.3426051,53.1439042,0</coordinates></Point></Placemark>
<Placemark><name>reached by well: +1.06 m</name><Point><coordinates>-4.3424557,53.1439072,0</coordinates></Point></Placemark>
<Placemark><name>reached by well: +1.21 m</name><Point><coordinates>-4.3423063,53.1439101,0</coordinates></Point></Placemark>
<Placemark><name>reached by well: +1.13 m</name><Point><coordinates>-4.3428989,53.1438085,0</coordinates></Point></Placemark>
<Placemark><name>reached by well: +1.07 m</name><Point><coordinates>-4.3427496,53.1438115,0</coordinates></Point></Placemark>
<Placemark><name>reached by well: +1.10 m</name><Point><coordinates>-4.3426002,53.1438144,0</coordinates></Point></Placemark>
<Placemark><name>reached by well: +1.53 m</name><Point><coordinates>-4.3424508,53.1438174,0</coordinates></Point></Placemark>
<Placemark><name>reached by well: +1.73 m</name><Point><coordinates>-4.3423014,53.1438203,0</coordinates></Point></Placemark>
<Placemark><name>shadow: +1.09 m</name><Point><coordinates>-4.3647026,53.1432874,0</coordinates></Point></Placemark>
<Placemark><name>reached by well: +1.06 m</name><Point><coordinates>-4.3428941,53.1437187,0</coordinates></Point></Placemark>
<Placemark><name>reached by well: +1.03 m</name><Point><coordinates>-4.3427447,53.1437217,0</coordinates></Point></Placemark>
<Placemark><name>reached by well: +1.07 m</name><Point><coordinates>-4.3425953,53.1437246,0</coordinates></Point></Placemark>
<Placemark><name>reached by well: +1.73 m</name><Point><coordinates>-4.3424459,53.1437275,0</coordinates></Point></Placemark>
<Placemark><name>reached by well: +1.41 m</name><Point><coordinates>-4.3422966,53.1437305,0</coordinates></Point></Placemark>
<Placemark><name>floor edge: +1.11 m</name><Point><coordinates>-4.3766473,53.1429596,0</coordinates></Point></Placemark>
<Placemark><name>reached by well: +1.06 m</name><Point><coordinates>-4.3427398,53.1436319,0</coordinates></Point></Placemark>
<Placemark><name>reached by well: +1.19 m</name><Point><coordinates>-4.3425904,53.1436348,0</coordinates></Point></Placemark>
<Placemark><name>reached by well: +1.78 m</name><Point><coordinates>-4.3424410,53.1436377,0</coordinates></Point></Placemark>
<Placemark><name>floor edge: +1.10 m</name><Point><coordinates>-4.3751487,53.1428996,0</coordinates></Point></Placemark>
<Placemark><name>reached by well: +1.10 m</name><Point><coordinates>-4.3427349,53.1435420,0</coordinates></Point></Placemark>
<Placemark><name>reached by well: +1.24 m</name><Point><coordinates>-4.3425855,53.1435450,0</coordinates></Point></Placemark>
<Placemark><name>shadow: +1.48 m</name><Point><coordinates>-4.3424362,53.1435479,0</coordinates></Point></Placemark>
<Placemark><name>floor edge: +1.16 m</name><Point><coordinates>-4.3751437,53.1428098,0</coordinates></Point></Placemark>
<Placemark><name>floor edge: +1.02 m</name><Point><coordinates>-4.3720070,53.1428723,0</coordinates></Point></Placemark>
<Placemark><name>reached by well: +1.12 m</name><Point><coordinates>-4.3425806,53.1434552,0</coordinates></Point></Placemark>
<Placemark><name>floor edge: +1.40 m</name><Point><coordinates>-4.3751388,53.1427199,0</coordinates></Point></Placemark>
<Placemark><name>reached by well: +1.16 m</name><Point><coordinates>-4.3442189,53.1433330,0</coordinates></Point></Placemark>
<Placemark><name>perched: +1.32 m</name><Point><coordinates>-4.3699059,53.1427344,0</coordinates></Point></Placemark>
<Placemark><name>reached by well: +1.07 m</name><Point><coordinates>-4.3446621,53.1432344,0</coordinates></Point></Placemark>
<Placemark><name>reached by well: +1.15 m</name><Point><coordinates>-4.3443633,53.1432402,0</coordinates></Point></Placemark>
<Placemark><name>reached by well: +1.18 m</name><Point><coordinates>-4.3442140,53.1432432,0</coordinates></Point></Placemark>
<Placemark><name>reached by well: +1.04 m</name><Point><coordinates>-4.3446572,53.1431445,0</coordinates></Point></Placemark>
<Placemark><name>reached by well: +1.18 m</name><Point><coordinates>-4.3445078,53.1431475,0</coordinates></Point></Placemark>
<Placemark><name>shadow: +1.14 m</name><Point><coordinates>-4.3443585,53.1431504,0</coordinates></Point></Placemark>
<Placemark><name>shadow: +1.31 m</name><Point><coordinates>-4.3442091,53.1431534,0</coordinates></Point></Placemark>
<Placemark><name>reached by well: +1.05 m</name><Point><coordinates>-4.3446523,53.1430547,0</coordinates></Point></Placemark>
<Placemark><name>reached by well: +1.16 m</name><Point><coordinates>-4.3445029,53.1430577,0</coordinates></Point></Placemark>
<Placemark><name>reached by well: +1.01 m</name><Point><coordinates>-4.3428598,53.1430900,0</coordinates></Point></Placemark>
<Placemark><name>reached by well: +1.01 m</name><Point><coordinates>-4.3427105,53.1430930,0</coordinates></Point></Placemark>
<Placemark><name>reached by well: +1.00 m</name><Point><coordinates>-4.3447968,53.1429620,0</coordinates></Point></Placemark>
<Placemark><name>reached by well: +1.10 m</name><Point><coordinates>-4.3446474,53.1429649,0</coordinates></Point></Placemark>
<Placemark><name>reached by well: +1.01 m</name><Point><coordinates>-4.3428549,53.1430002,0</coordinates></Point></Placemark>
<Placemark><name>perched: +1.17 m</name><Point><coordinates>-4.3700355,53.1423721,0</coordinates></Point></Placemark>
<Placemark><name>perched: +1.20 m</name><Point><coordinates>-4.3698861,53.1423751,0</coordinates></Point></Placemark>
<Placemark><name>reached by well: +1.02 m</name><Point><coordinates>-4.3447821,53.1426925,0</coordinates></Point></Placemark>
<Placemark><name>reached by well: +1.13 m</name><Point><coordinates>-4.3446327,53.1426955,0</coordinates></Point></Placemark>
<Placemark><name>shadow: +1.39 m</name><Point><coordinates>-4.3776383,53.1419507,0</coordinates></Point></Placemark>
<Placemark><name>reached by well: +1.01 m</name><Point><coordinates>-4.3450759,53.1425968,0</coordinates></Point></Placemark>
<Placemark><name>reached by well: +1.05 m</name><Point><coordinates>-4.3446278,53.1426057,0</coordinates></Point></Placemark>
<Placemark><name>reached by well: +1.35 m</name><Point><coordinates>-4.3444785,53.1426086,0</coordinates></Point></Placemark>
<Placemark><name>shadow: +1.76 m</name><Point><coordinates>-4.3770359,53.1418729,0</coordinates></Point></Placemark>
<Placemark><name>shadow: +1.62 m</name><Point><coordinates>-4.3768865,53.1418759,0</coordinates></Point></Placemark>
<Placemark><name>shadow: +1.59 m</name><Point><coordinates>-4.3746460,53.1419206,0</coordinates></Point></Placemark>
<Placemark><name>reached by well: +1.05 m</name><Point><coordinates>-4.3446229,53.1425158,0</coordinates></Point></Placemark>
<Placemark><name>reached by well: +1.30 m</name><Point><coordinates>-4.3444736,53.1425188,0</coordinates></Point></Placemark>
<Placemark><name>reached by well: +1.08 m</name><Point><coordinates>-4.3446180,53.1424260,0</coordinates></Point></Placemark>
<Placemark><name>shadow: +1.49 m</name><Point><coordinates>-4.3444687,53.1424290,0</coordinates></Point></Placemark>
<Placemark><name>shadow: +2.71 m</name><Point><coordinates>-4.3749349,53.1417350,0</coordinates></Point></Placemark>
<Placemark><name>reached by well: +1.13 m</name><Point><coordinates>-4.3447625,53.1423333,0</coordinates></Point></Placemark>
<Placemark><name>shadow: +1.50 m</name><Point><coordinates>-4.3446132,53.1423362,0</coordinates></Point></Placemark>
<Placemark><name>shadow: +2.19 m</name><Point><coordinates>-4.3755274,53.1416333,0</coordinates></Point></Placemark>
<Placemark><name>shadow: +1.13 m</name><Point><coordinates>-4.3449070,53.1422405,0</coordinates></Point></Placemark>
<Placemark><name>shadow: +1.48 m</name><Point><coordinates>-4.3447576,53.1422435,0</coordinates></Point></Placemark>
<Placemark><name>shadow: +2.14 m</name><Point><coordinates>-4.3758211,53.1415375,0</coordinates></Point></Placemark>
<Placemark><name>shadow: +2.11 m</name><Point><coordinates>-4.3756718,53.1415405,0</coordinates></Point></Placemark>
<Placemark><name>shadow: +1.04 m</name><Point><coordinates>-4.3449021,53.1421507,0</coordinates></Point></Placemark>
<Placemark><name>shadow: +3.17 m</name><Point><coordinates>-4.3723808,53.1415162,0</coordinates></Point></Placemark>
<Placemark><name>shadow: +1.12 m</name><Point><coordinates>-4.3668444,53.1414466,0</coordinates></Point></Placemark>
<Placemark><name>shadow: +1.38 m</name><Point><coordinates>-4.3669839,53.1412640,0</coordinates></Point></Placemark>
<Placemark><name>shadow: +1.49 m</name><Point><coordinates>-4.3671283,53.1411712,0</coordinates></Point></Placemark>
<Placemark><name>shadow: +3.44 m</name><Point><coordinates>-4.3663765,53.1410963,0</coordinates></Point></Placemark>
<Placemark><name>floor edge: +1.10 m</name><Point><coordinates>-4.3602427,53.1410383,0</coordinates></Point></Placemark>
<Placemark><name>floor edge: +1.24 m</name><Point><coordinates>-4.3600934,53.1410412,0</coordinates></Point></Placemark>
<Placemark><name>shadow: +1.04 m</name><Point><coordinates>-4.3756222,53.1406423,0</coordinates></Point></Placemark>
<Placemark><name>shadow: +1.60 m</name><Point><coordinates>-4.3754728,53.1406453,0</coordinates></Point></Placemark>
<Placemark><name>shadow: +1.32 m</name><Point><coordinates>-4.3757666,53.1405495,0</coordinates></Point></Placemark>
<Placemark><name>shadow: +1.61 m</name><Point><coordinates>-4.3756172,53.1405525,0</coordinates></Point></Placemark>
<Placemark><name>shadow: +1.46 m</name><Point><coordinates>-4.3677010,53.1407103,0</coordinates></Point></Placemark>
<Placemark><name>floor edge: +1.25 m</name><Point><coordinates>-4.3733520,53.1401482,0</coordinates></Point></Placemark>
<Placemark><name>perched: +1.24 m</name><Point><coordinates>-4.3711067,53.1401030,0</coordinates></Point></Placemark>
<Placemark><name>shadow: +1.09 m</name><Point><coordinates>-4.3746814,53.1398519,0</coordinates></Point></Placemark>
<Placemark><name>shadow: +1.27 m</name><Point><coordinates>-4.3745320,53.1398549,0</coordinates></Point></Placemark>
<Placemark><name>floor edge: +2.45 m</name><Point><coordinates>-4.3745221,53.1396753,0</coordinates></Point></Placemark>
<Placemark><name>shadow: +1.14 m</name><Point><coordinates>-4.3682491,53.1398003,0</coordinates></Point></Placemark>
<Placemark><name>shadow: +2.04 m</name><Point><coordinates>-4.3745172,53.1395855,0</coordinates></Point></Placemark>
<Placemark><name>shadow: +2.75 m</name><Point><coordinates>-4.3740691,53.1395944,0</coordinates></Point></Placemark>
<Placemark><name>shadow: +1.91 m</name><Point><coordinates>-4.3737704,53.1396004,0</coordinates></Point></Placemark>
<Placemark><name>shadow: +1.11 m</name><Point><coordinates>-4.3685428,53.1397045,0</coordinates></Point></Placemark>
<Placemark><name>shadow: +2.41 m</name><Point><coordinates>-4.3737654,53.1395105,0</coordinates></Point></Placemark>
<Placemark><name>shadow: +1.51 m</name><Point><coordinates>-4.3736161,53.1395135,0</coordinates></Point></Placemark>
<Placemark><name>shadow: +1.11 m</name><Point><coordinates>-4.3688366,53.1396088,0</coordinates></Point></Placemark>
<Placemark><name>shadow: +2.18 m</name><Point><coordinates>-4.3736111,53.1394237,0</coordinates></Point></Placemark>
<Placemark><name>shadow: +1.97 m</name><Point><coordinates>-4.3734618,53.1394267,0</coordinates></Point></Placemark>
<Placemark><name>shadow: +1.13 m</name><Point><coordinates>-4.3733124,53.1394297,0</coordinates></Point></Placemark>
<Placemark><name>shadow: +1.91 m</name><Point><coordinates>-4.3713708,53.1394684,0</coordinates></Point></Placemark>
<Placemark><name>shadow: +1.41 m</name><Point><coordinates>-4.3686823,53.1395219,0</coordinates></Point></Placemark>
<Placemark><name>shadow: +1.67 m</name><Point><coordinates>-4.3715152,53.1393756,0</coordinates></Point></Placemark>
<Placemark><name>shadow: +1.42 m</name><Point><coordinates>-4.3689761,53.1394262,0</coordinates></Point></Placemark>
<Placemark><name>shadow: +1.53 m</name><Point><coordinates>-4.3688267,53.1394291,0</coordinates></Point></Placemark>
<Placemark><name>perched: +1.33 m</name><Point><coordinates>-4.3730038,53.1392560,0</coordinates></Point></Placemark>
<Placemark><name>perched: +1.48 m</name><Point><coordinates>-4.3728544,53.1392590,0</coordinates></Point></Placemark>
<Placemark><name>perched: +1.62 m</name><Point><coordinates>-4.3727051,53.1392620,0</coordinates></Point></Placemark>
<Placemark><name>shadow: +1.94 m</name><Point><coordinates>-4.3725557,53.1392649,0</coordinates></Point></Placemark>
<Placemark><name>shadow: +1.20 m</name><Point><coordinates>-4.3722570,53.1392709,0</coordinates></Point></Placemark>
<Placemark><name>shadow: +1.21 m</name><Point><coordinates>-4.3716596,53.1392828,0</coordinates></Point></Placemark>
<Placemark><name>shadow: +1.11 m</name><Point><coordinates>-4.3692699,53.1393304,0</coordinates></Point></Placemark>
<Placemark><name>shadow: +1.50 m</name><Point><coordinates>-4.3691205,53.1393334,0</coordinates></Point></Placemark>
<Placemark><name>shadow: +1.57 m</name><Point><coordinates>-4.3689711,53.1393363,0</coordinates></Point></Placemark>
<Placemark><name>shadow: +1.87 m</name><Point><coordinates>-4.3729988,53.1391662,0</coordinates></Point></Placemark>
<Placemark><name>shadow: +1.74 m</name><Point><coordinates>-4.3728495,53.1391692,0</coordinates></Point></Placemark>
<Placemark><name>shadow: +1.24 m</name><Point><coordinates>-4.3727001,53.1391721,0</coordinates></Point></Placemark>
<Placemark><name>shadow: +1.34 m</name><Point><coordinates>-4.3725508,53.1391751,0</coordinates></Point></Placemark>
<Placemark><name>shadow: +1.75 m</name><Point><coordinates>-4.3724014,53.1391781,0</coordinates></Point></Placemark>
<Placemark><name>shadow: +1.79 m</name><Point><coordinates>-4.3692649,53.1392406,0</coordinates></Point></Placemark>
<Placemark><name>floor edge: +1.13 m</name><Point><coordinates>-4.3670245,53.1392852,0</coordinates></Point></Placemark>
<Placemark><name>perched: +2.27 m</name><Point><coordinates>-4.3728445,53.1390794,0</coordinates></Point></Placemark>
<Placemark><name>shadow: +2.74 m</name><Point><coordinates>-4.3720581,53.1383757,0</coordinates></Point></Placemark>
<Placemark><name>shadow: +1.45 m</name><Point><coordinates>-4.3674282,53.1384679,0</coordinates></Point></Placemark>
<Placemark><name>shadow: +2.64 m</name><Point><coordinates>-4.3719038,53.1382889,0</coordinates></Point></Placemark>
<Placemark><name>shadow: +2.56 m</name><Point><coordinates>-4.3717495,53.1382021,0</coordinates></Point></Placemark>
<Placemark><name>floor edge: +1.05 m</name><Point><coordinates>-4.3586063,53.1384633,0</coordinates></Point></Placemark>
<Placemark><name>shadow: +1.68 m</name><Point><coordinates>-4.3690562,53.1381658,0</coordinates></Point></Placemark>
<Placemark><name>shadow: +2.19 m</name><Point><coordinates>-4.3692006,53.1380730,0</coordinates></Point></Placemark>
<Placemark><name>shadow: +2.93 m</name><Point><coordinates>-4.3693450,53.1379802,0</coordinates></Point></Placemark>
<Placemark><name>shadow: +1.09 m</name><Point><coordinates>-4.3590396,53.1381850,0</coordinates></Point></Placemark>
<Placemark><name>shadow: +2.87 m</name><Point><coordinates>-4.3694894,53.1378874,0</coordinates></Point></Placemark>
<Placemark><name>reached by well: +1.75 m</name><Point><coordinates>-4.3676725,53.1374741,0</coordinates></Point></Placemark>
<Placemark><name>perched: +2.37 m</name><Point><coordinates>-4.3676676,53.1373842,0</coordinates></Point></Placemark>
<Placemark><name>shadow: +2.49 m</name><Point><coordinates>-4.3678120,53.1372915,0</coordinates></Point></Placemark>
<Placemark><name>perched: +2.69 m</name><Point><coordinates>-4.3676626,53.1372944,0</coordinates></Point></Placemark>
<Placemark><name>reached by well: +1.98 m</name><Point><coordinates>-4.3675133,53.1372974,0</coordinates></Point></Placemark>
<Placemark><name>floor edge: +1.13 m</name><Point><coordinates>-4.3537729,53.1375700,0</coordinates></Point></Placemark>
<Placemark><name>reached by well: +2.02 m</name><Point><coordinates>-4.3675083,53.1372076,0</coordinates></Point></Placemark>
<Placemark><name>floor edge: +2.29 m</name><Point><coordinates>-4.3675034,53.1371178,0</coordinates></Point></Placemark>
<Placemark><name>perched: +1.01 m</name><Point><coordinates>-4.3542111,53.1373815,0</coordinates></Point></Placemark>
<Placemark><name>floor edge: +1.14 m</name><Point><coordinates>-4.3545049,53.1372857,0</coordinates></Point></Placemark>
<Placemark><name>shadow: +1.06 m</name><Point><coordinates>-4.3589461,53.1364785,0</coordinates></Point></Placemark>
</Document></kml>
