<?xml version="1.0" encoding="utf-8" ?>
<kml xmlns="http://www.opengis.net/kml/2.2">
<Document id="root_doc">
<Schema name="coast_2015" id="coast_2015">
	<SimpleField name="id" type="float"></SimpleField>
	<SimpleField name="Dune_edge" type="string"></SimpleField>
</Schema>
<Folder><name>coast_2015</name>
  <Placemark>
	<Style><LineStyle><color>ff0000ff</color></LineStyle><PolyStyle><fill>0</fill></PolyStyle></Style>
      <MultiGeometry><LineString><coordinates>-4.3935085493773,53.1446665441773 -4.39011722120266,53.143966826723 -4.38693861135664,53.1432627473202 -4.38478415986846,53.1427940232551 -4.38375302093409,53.1424307449265 -4.38294158440039,53.1421910376015 -4.38214077285825,53.1421430801544 -4.38083330579083,53.1415933395776 -4.38018312040262,53.1413823823497 -4.37904928685359,53.1410851069588 -4.37736631171657,53.1404788455353 -4.37609798639242,53.1396723147142 -4.37468613808653,53.1391565863682 -4.37347281164549,53.138380925337 -4.37216204479795,53.1377671676829 -4.37078760575977,53.1369626966277 -4.3697496832513,53.1364714555447 -4.36827080120024,53.1357010303787 -4.36651922691981,53.1348080319482 -4.36449850366918,53.1338563672165 -4.3634624821788,53.1333970291433 -4.36226706006001,53.1329408465632 -4.36025527985912,53.132148906397 -4.3589536468804,53.1316947975935 -4.35556212994777,53.1309621166169 -4.35358551138726,53.130809259972 -4.35075345401638,53.13057728891 -4.34624190400617,53.1307623103442 -4.34302051769934,53.130217886424 -4.34302051769934,53.130217886424</coordinates></LineString></MultiGeometry>
  </Placemark>
</Folder>
</Document></kml>
